station_id,name,physical_configuration,lat,lon,altitude,address,capacity,is_charging_station,rental_methods/0,rental_methods/1,rental_methods/2,rental_methods/3,groups/0,groups/1,,,
7000,Fort York  Blvd / Capreol Ct,REGULAR,43.639832,-79.395954,,Fort York  Blvd / Capreol Ct,47,FALSE,KEY,TRANSITCARD,CREDITCARD,PHONE,South,Fort York - Entertainment District,,,
7001,Wellesley Station Green P,ELECTRICBIKESTATION,43.66496415990742,-79.38355032,,Yonge / Wellesley,23,TRUE,KEY,TRANSITCARD,CREDITCARD,PHONE,E-Charging ,South,,,
7002,St. George St / Bloor St W,REGULAR,43.66713121831853,-79.39955506,,St. George St / Bloor St W,17,FALSE,KEY,TRANSITCARD,CREDITCARD,PHONE,South,U of T - Hospital Row,,,
7003,Madison Ave / Bloor St W,REGULAR,43.66701830465472,-79.40279587,,Madison Ave / Bloor St W,15,FALSE,KEY,TRANSITCARD,CREDITCARD,PHONE,South,Bloor St W / Annex,,,
7005,King St W / York St,REGULAR,43.6480008,-79.383177,0,King St W / York St,21,FALSE,KEY,TRANSITCARD,CREDITCARD,PHONE,South,Financial District,,,
7006,Bay St / College St (East Side),REGULAR,43.660439,-79.385525,,Bay St / College St (East Side),31,FALSE,KEY,TRANSITCARD,CREDITCARD,PHONE,South,U of T - Hospital Row,,,
7007,College St / Huron St,REGULAR,43.658148,-79.398167,,College St / Huron St,19,FALSE,KEY,TRANSITCARD,CREDITCARD,PHONE,South,U of T - Hospital Row,,,
7008,Wellesley St W / Queen's Park Cres,REGULAR,43.663376,-79.392125,,Wellesley St W / Queen's Park Cres,18,FALSE,KEY,TRANSITCARD,CREDITCARD,PHONE,South,U of T - Hospital Row,,,
7009,King St E / Jarvis St,REGULAR,43.650325,-79.372287,,King St E / Jarvis St,25,FALSE,KEY,TRANSITCARD,CREDITCARD,PHONE,South,Financial District,,,
7010,King St W / Spadina Ave,REGULAR,43.645323,-79.395003,,King St W / Spadina Ave,19,FALSE,KEY,TRANSITCARD,CREDITCARD,PHONE,South,Fort York - Entertainment District,,,
7012,Elizabeth St / Edward St (Bus Terminal),REGULAR,43.656026,-79.385327,,Elizabeth St / Edward St (Bus Terminal),15,FALSE,KEY,TRANSITCARD,CREDITCARD,PHONE,South,Financial District,,,
7013,Scott St / The Esplanade,REGULAR,43.64659663170443,-79.37530914,0,Scott St / The Esplanade,19,FALSE,KEY,TRANSITCARD,CREDITCARD,PHONE,South,Financial District,,,
7014,Sherbourne St / Carlton St (Allan Gardens),REGULAR,43.663102,-79.373181,,Sherbourne St / Carlton St (Allan Gardens),17,FALSE,KEY,TRANSITCARD,CREDITCARD,PHONE,East,Church Wellesley / Yorkville,,,
7015,King St W / Bay St (West Side),REGULAR,43.64852,-79.380576,,King St W / Bay St (West Side),38,FALSE,KEY,TRANSITCARD,CREDITCARD,PHONE,South,Financial District,,,
7016,Bay St / Queens Quay W (Ferry Terminal),REGULAR,43.640978,-79.376785,,Bay St / Queens Quay W (Ferry Terminal),34,FALSE,KEY,TRANSITCARD,CREDITCARD,PHONE,South,Watefront,,,
7017,Widmer St / Adelaide St W - SMART,SMARTMAPFRAME,43.647547634759206,-79.391552,0,Widmer St / Adelaide St W,12,FALSE,KEY,TRANSITCARD,PHONE,,South,Fort York - Entertainment District,,,
7018,Bremner Blvd / Rees St,REGULAR,43.641529,-79.386741,,Bremner Blvd / Rees St,49,FALSE,KEY,TRANSITCARD,CREDITCARD,PHONE,South,Watefront,,,
7019,Temperance St Station,VAULT,43.650945,-79.379498,,Temperance St. Station,55,FALSE,KEY,TRANSITCARD,PHONE,,South,Financial District,,,
7020,Phoebe St / Spadina Ave,REGULAR,43.650033,-79.396555,,Phoebe St / Spadina Ave,31,FALSE,KEY,TRANSITCARD,CREDITCARD,PHONE,South,Fort York - Entertainment District,,,
7021,Bay St / Albert St,REGULAR,43.653264,-79.382458,,Bay St / Albert St,63,FALSE,KEY,TRANSITCARD,CREDITCARD,PHONE,South,Financial District,,,
7022,Simcoe St / Queen St W,REGULAR,43.65049,-79.3873,,Simcoe St / Queen St W,39,FALSE,KEY,TRANSITCARD,CREDITCARD,PHONE,South,Financial District,,,
7023,College St / Borden St,REGULAR,43.6571,-79.4056,,College St / Borden St,11,FALSE,KEY,TRANSITCARD,CREDITCARD,PHONE,South,College St - Harbord St,,,
7024,Dundonald St / Church St,REGULAR,43.66663,-79.38148,0,Dundonald St / Church St,39,FALSE,KEY,TRANSITCARD,CREDITCARD,PHONE,South,Church Wellesley / Yorkville,,,
7025,Ted Rogers Way / Bloor St E,REGULAR,43.671293,-79.380471,,Ted Rogers Way / Bloor St E,23,FALSE,KEY,TRANSITCARD,CREDITCARD,PHONE,East,Church Wellesley / Yorkville,,,
7026,Bay St / St. Joseph St,REGULAR,43.665527,-79.387499,,Bay St / St. Joseph St,14,FALSE,KEY,TRANSITCARD,CREDITCARD,PHONE,South,U of T - Hospital Row,,,
7027,Beverley St / Dundas St W,REGULAR,43.652823,-79.393388,,Beverley  St / Dundas St W,31,FALSE,KEY,TRANSITCARD,CREDITCARD,PHONE,South,Fort York - Entertainment District,,,
7028,Gould St / Mutual St,REGULAR,43.6582,-79.3768,,Gould St / Mutual St,29,FALSE,KEY,TRANSITCARD,CREDITCARD,PHONE,South,Financial District,,,
7029,Bay St / Bloor St W (East Side),REGULAR,43.66943,-79.38915,,1199 Bay St,15,FALSE,KEY,TRANSITCARD,CREDITCARD,PHONE,North,Church Wellesley / Yorkville,,,
7030,Bay St / Wellesley St W,REGULAR,43.664088,-79.387095,,Bay St / Wellesley St W,35,FALSE,KEY,TRANSITCARD,CREDITCARD,PHONE,South,U of T - Hospital Row,,,
7031,Jarvis St / Isabella St,REGULAR,43.668991,-79.379385,,Jarvis St / Isabella St,23,FALSE,KEY,TRANSITCARD,CREDITCARD,PHONE,East,Church Wellesley / Yorkville,,,
7032,Augusta Ave / Dundas St W,REGULAR,43.652473,-79.401456,,Augusta Ave / Dundas St W,15,FALSE,KEY,TRANSITCARD,CREDITCARD,PHONE,South,College St - Harbord St,,,
7033,Union Station,REGULAR,43.645609,-79.380386,,Union Station,27,FALSE,KEY,TRANSITCARD,CREDITCARD,PHONE,South,Financial District,,,
7034,Church St / Bloor St E,REGULAR,43.671389,-79.382919,,Church St / Bloor St E,15,FALSE,KEY,TRANSITCARD,CREDITCARD,PHONE,North,Church Wellesley / Yorkville,,,
7035,Queen St W / Ossington Ave,REGULAR,43.643975,-79.419576,,Queen St W / Ossington Ave,31,FALSE,KEY,TRANSITCARD,CREDITCARD,PHONE,West,Liberty Village - Queen West,,,
7036,Trinity St /Front St E,REGULAR,43.651318,-79.36023,,Trinity St / Front St E,19,FALSE,KEY,TRANSITCARD,CREDITCARD,PHONE,East,Regent Park - Distillery,,,
7037,Bathurst St / Dundas St W,REGULAR,43.65189188,-79.40577862,,Bathurst St / Dundas St W,27,FALSE,KEY,TRANSITCARD,CREDITCARD,PHONE,South,College St - Harbord St,,,
7038,Dundas St W / Yonge St,REGULAR,43.656094,-79.381484,,Dundas St W / Yonge St,15,FALSE,KEY,TRANSITCARD,CREDITCARD,PHONE,South,Financial District,,,
7039,Simcoe St / Michael Sweet Ave,REGULAR,43.65232722,-79.38825382,0,Simcoe St / Michael Sweet Ave,19,FALSE,KEY,TRANSITCARD,CREDITCARD,PHONE,South,Financial District,,,
7040,Euclid Ave / Bloor St W,REGULAR,43.664467,-79.414783,,Euclid Ave / Bloor St W,19,FALSE,KEY,TRANSITCARD,CREDITCARD,PHONE,West,Bloor St W / Annex,,,
7041,Edward St / Yonge St,REGULAR,43.656729,-79.382736,,Edward St / Yonge St,23,FALSE,KEY,TRANSITCARD,CREDITCARD,PHONE,South,Financial District,,,
7042,Sherbourne St / Wellesley St E,REGULAR,43.6673,-79.374,,Sherbourne St / Wellesley St E,31,FALSE,KEY,TRANSITCARD,CREDITCARD,PHONE,East,Church Wellesley / Yorkville,,,
7043,Queens Quay W / Lower Simcoe St,REGULAR,43.63951,-79.383717,,Queens Quay W / Lower Simcoe St,19,FALSE,KEY,TRANSITCARD,CREDITCARD,PHONE,South,Watefront,,,
7044,Church St / Alexander St,REGULAR,43.663722,-79.380288,,Church St / Alexander St,35,FALSE,KEY,TRANSITCARD,CREDITCARD,PHONE,South,Church Wellesley / Yorkville,,,
7045,Bond St / Queen St E,REGULAR,43.653236,-79.376716,,Bond St / Queen St E,37,FALSE,KEY,TRANSITCARD,CREDITCARD,PHONE,South,Financial District,,,
7046,Niagara St / Richmond St W,REGULAR,43.64534,-79.409597,,Niagara St / Richmond St W,42,FALSE,KEY,TRANSITCARD,CREDITCARD,PHONE,West,Liberty Village - Queen West,,,
7047,University Ave / Gerrard St W (East Side),REGULAR,43.657763,-79.389165,,University Ave / Gerrard St W,25,FALSE,KEY,TRANSITCARD,CREDITCARD,PHONE,South,U of T - Hospital Row,,,
7048,Front St W / Yonge St (Hockey Hall of Fame),REGULAR,43.646144,-79.377962,,Front St W / Yonge St (Hockey Hall of Fame),47,FALSE,KEY,TRANSITCARD,CREDITCARD,PHONE,South,Financial District,,,
7049,Portland St / Queen St W,REGULAR,43.6476,-79.4015,,Queen St W / Portland St,15,FALSE,KEY,TRANSITCARD,CREDITCARD,PHONE,South,Fort York - Entertainment District,,,
7050,Richmond St E / Jarvis St Green P,ELECTRICBIKESTATION,43.652634,-79.374222,,Richmond St E / Jarvis St Green P,16,TRUE,KEY,TRANSITCARD,CREDITCARD,PHONE,E-Charging ,South,,,
7052,Wellington St W / Bay St,VAULT,43.647259,-79.379878,,Wellington St W / Bay St,55,FALSE,KEY,TRANSITCARD,PHONE,,South,Financial District,,,
7053,Metro Hall Plaza,REGULAR,43.645859,-79.38783,,Metro Hall Plaza,27,FALSE,KEY,TRANSITCARD,CREDITCARD,PHONE,South,Financial District,,,
7054,Navy Wharf Crt / Bremner Blvd,REGULAR,43.640722,-79.391051,,Navy Wharf Ct. / Bremner Blvd.,9,FALSE,KEY,TRANSITCARD,CREDITCARD,PHONE,South,Watefront,,,
7055,Jarvis St / Carlton St,REGULAR,43.66207,-79.37617,,Jarvis St / Carlton St,15,FALSE,KEY,TRANSITCARD,CREDITCARD,PHONE,East,Church Wellesley / Yorkville,,,
7057,Simcoe St / Wellington St W South,VAULT,43.6458569,-79.3853654,,Simcoe St / Wellington St 1,27,FALSE,KEY,TRANSITCARD,PHONE,,South,Financial District,,,
7059,Front St W / Blue Jays Way,REGULAR,43.643473,-79.390477,,Front St W / Blue Jays Way,15,FALSE,KEY,TRANSITCARD,CREDITCARD,PHONE,South,Watefront,,,
7061,Dalton Rd / Bloor St W,REGULAR,43.6662942,-79.4066433,,Dalton Rd / Bloor St W,15,FALSE,KEY,TRANSITCARD,CREDITCARD,PHONE,North,Bloor St W / Annex,,,
7063,Queen's Park / Bloor St W,REGULAR,43.668456,-79.393899,,Queen's Park / Bloor St W,23,FALSE,KEY,TRANSITCARD,CREDITCARD,PHONE,South,Church Wellesley / Yorkville,,,
7064,51 Parliament St,REGULAR,43.652169,-79.362841,,51 Parliament St,19,FALSE,KEY,TRANSITCARD,CREDITCARD,PHONE,East,Regent Park - Distillery,,,
7065,Dundas St E / Parliament St,REGULAR,43.659575,-79.365769,,Dundas St E / Parliament St,15,FALSE,KEY,TRANSITCARD,CREDITCARD,PHONE,East,Regent Park - Distillery,,,
7066,Willcocks St / St. George St,REGULAR,43.662085,-79.397735,,Willcocks St / St. George St,15,FALSE,KEY,TRANSITCARD,CREDITCARD,PHONE,South,U of T - Hospital Row,,,
7068,Blantyre Park,REGULAR,43.68306889999999,-79.279682,,163 Fallingbrook Rd,23,FALSE,KEY,TRANSITCARD,CREDITCARD,PHONE,East,Scarborough - St. Clair,,,
7069,Queen St W / Spadina Ave,REGULAR,43.649147,-79.395504,,Queen St W / Spadina Ave,11,FALSE,KEY,TRANSITCARD,CREDITCARD,PHONE,South,Fort York - Entertainment District,,,
7070,25 York St – Union Station South,REGULAR,43.643667,-79.380414,,25 York St – Union Station South,11,FALSE,KEY,TRANSITCARD,CREDITCARD,PHONE,South,Watefront,,,
7071,161 Bleecker St (South of Wellesley),REGULAR,43.666233,-79.373327,0,161 Bleecker St (South of Wellesley),23,FALSE,KEY,TRANSITCARD,CREDITCARD,PHONE,East,Church Wellesley / Yorkville,,,
7073,Spadina Ave / Fort York Blvd,REGULAR,43.640114,-79.393249,,Spadina Ave / Fort York Blvd,23,FALSE,KEY,TRANSITCARD,CREDITCARD,PHONE,South,Fort York - Entertainment District,,,
7074,King St E / Church St,REGULAR,43.65003919999999,-79.3733541,,St James Park,15,FALSE,KEY,TRANSITCARD,CREDITCARD,PHONE,South,Financial District,,,
7075,Queens Quay W / Dan Leckie Way,REGULAR,43.636533,-79.395854,,Queens Quay W / Dan Leckie Way,27,FALSE,KEY,TRANSITCARD,CREDITCARD,PHONE,South,Watefront,,,
7076,York St / Queens Quay W,REGULAR,43.640132,-79.380464,,York St / Queens Quay W,56,FALSE,KEY,TRANSITCARD,CREDITCARD,PHONE,South,Watefront,,,
7077,College Park South,REGULAR,43.65945682,-79.38236467,,College Park South,19,FALSE,KEY,TRANSITCARD,CREDITCARD,PHONE,South,U of T - Hospital Row,,,
7078,College St / Major St,REGULAR,43.6576,-79.4032,,College St / Major St,15,FALSE,KEY,TRANSITCARD,CREDITCARD,PHONE,South,College St - Harbord St,,,
7079,McGill St / Church St,REGULAR,43.660694,-79.379052,,McGill St / Church St,19,FALSE,KEY,TRANSITCARD,CREDITCARD,PHONE,South,Church Wellesley / Yorkville,,,
7083,Danforth Ave / Barrington Ave,REGULAR,43.688325,-79.300463,,Danforth Ave / Barrington Ave,15,FALSE,KEY,TRANSITCARD,CREDITCARD,PHONE,East,Danforth,,,
7084,High Park - Grenadier Cafe,REGULAR,43.645599,-79.4657123,,High Park - Grenadier Cafe,11,FALSE,KEY,TRANSITCARD,CREDITCARD,PHONE,West,Bloor St W - High Park,,,
7085,Danforth Ave / Westlake Ave,REGULAR,43.687323,-79.304848,,Danforth Ave / Westlake Ave,15,FALSE,KEY,TRANSITCARD,CREDITCARD,PHONE,East,Danforth,,,
7086,High Park - West Rd,REGULAR,43.651922,-79.465693,,High Park - West Rd,23,FALSE,KEY,TRANSITCARD,CREDITCARD,PHONE,West,Bloor St W - High Park,,,
7087,Danforth Ave / Aldridge Ave,REGULAR,43.684758,-79.316767,,Danforth Ave / Aldridge Ave,11,FALSE,KEY,TRANSITCARD,CREDITCARD,PHONE,East,Danforth,,,
7088,Danforth Ave / Coxwell Ave,REGULAR,43.683378,-79.322961,0,Danforth Ave / Coxwell Ave,15,FALSE,KEY,TRANSITCARD,CREDITCARD,PHONE,East,Danforth,,,
7089,Church St  / Wood St,REGULAR,43.662712,-79.379903,102.08,Church St / Wood St,27,FALSE,KEY,TRANSITCARD,CREDITCARD,PHONE,South,Church Wellesley / Yorkville,,,
7090,Danforth Ave / Lamb Ave,REGULAR,43.681991,-79.329455,,Danforth Ave / Lamb Ave,19,FALSE,KEY,TRANSITCARD,CREDITCARD,PHONE,East,Danforth,,,
7091,Donlands Subway Station,REGULAR,43.681114,-79.3373885,,Donlands Station,15,FALSE,KEY,TRANSITCARD,CREDITCARD,PHONE,East,Danforth,,,
7093,Danforth Ave / Gough Ave,REGULAR,43.678401,-79.346289,,Danforth Ave / Gough Ave,25,FALSE,KEY,TRANSITCARD,CREDITCARD,PHONE,East,Danforth,,,
7094,14 Arundel Ave,ELECTRICBIKESTATION,43.6784834,-79.3513564,,14 Arundel Ave,25,TRUE,KEY,TRANSITCARD,CREDITCARD,PHONE,E-Charging ,East,,,
7095,Danforth Ave / Ellerbeck St,REGULAR,43.677076,-79.35667,,Danforth Ave / Ellerbeck St,14,FALSE,KEY,TRANSITCARD,CREDITCARD,PHONE,East,Danforth,,,
7096,Lower Don River Trail and Taylor Creek Trail,REGULAR,43.7027268,-79.3336809,,425 Don Mills Rd,19,FALSE,KEY,TRANSITCARD,CREDITCARD,PHONE,East,Thorncliffe Park - Sunnybrook,,,
7097,Riverdale Park North (Broadview Ave),REGULAR,43.671172,-79.354704,,Riverdale Park North (Broadview Ave),15,FALSE,KEY,TRANSITCARD,CREDITCARD,PHONE,East,Leslieville - Woodbine,,,
7098,Riverdale Park South (Broadview Ave),VAULT,43.667819,-79.35347,,Riverdale Park South (Broadview Ave),15,FALSE,KEY,TRANSITCARD,PHONE,,East,Leslieville - Woodbine,,,
7099,Mill St / Cherry St,REGULAR,43.6513927,-79.3579466,,Cherry St / Mill St,11,FALSE,KEY,TRANSITCARD,CREDITCARD,PHONE,East,,,,
7100,Dundas St E / Regent Park Blvd,REGULAR,43.660207,-79.361275,,Dundas St E / Regent Park Blvd,27,FALSE,KEY,TRANSITCARD,CREDITCARD,PHONE,East,Regent Park - Distillery,,,
7101,Lower Sherbourne St / The Esplanade,REGULAR,43.648655,-79.367061,,Lower Sherbourne St / The Esplanade,27,FALSE,KEY,TRANSITCARD,CREDITCARD,PHONE,East,Regent Park - Distillery,,,
7102,Nelson St / Duncan St,REGULAR,43.648711,-79.389728,,Nelson St / Duncan St,30,FALSE,KEY,TRANSITCARD,CREDITCARD,PHONE,South,Fort York - Entertainment District,,,
7103,Jimmie Simpson Park (Queen St E),REGULAR,43.6605603,-79.3437663,,Jimmie Simpson Park (Queen St E),15,FALSE,KEY,TRANSITCARD,CREDITCARD,PHONE,East,Leslieville - Woodbine,,,
7104,King St E / River St,REGULAR,43.656784782853144,-79.35627385,,King St E / River St,15,FALSE,KEY,TRANSITCARD,CREDITCARD,PHONE,East,Regent Park - Distillery,,,
7105,Queen St E / Sackville St,REGULAR,43.6561111,-79.36138889,,Queen St E / Sackville St,15,FALSE,KEY,TRANSITCARD,CREDITCARD,PHONE,East,Regent Park - Distillery,,,
7106,Mill St / Tannery Rd,REGULAR,43.652219,-79.354455,,Mill St / Tannery Rd,27,FALSE,KEY,TRANSITCARD,CREDITCARD,PHONE,East,Regent Park - Distillery,,,
7107,Cherry St / Distillery Ln,REGULAR,43.650279,-79.356832,,Cherry St / Distillery Ln,15,FALSE,KEY,TRANSITCARD,CREDITCARD,PHONE,East,Regent Park - Distillery,,,
7108,Front St E / Cherry St,REGULAR,43.652686,-79.358395,,Front St E / Cherry St,15,FALSE,KEY,TRANSITCARD,CREDITCARD,PHONE,East,Regent Park - Distillery,,,
7109,Seaton St / Dundas St E - SMART,SMARTMAPFRAME,43.658777,-79.369596,,Seaton St / Dundas St E,32,FALSE,KEY,TRANSITCARD,PHONE,,East,Regent Park - Distillery,,,
7110,Queen St E / Berkeley St,REGULAR,43.6552778,-79.36583333,,Queen St E / Berkeley St,15,FALSE,KEY,TRANSITCARD,CREDITCARD,PHONE,East,Regent Park - Distillery,,,
7111,King St W / Douro St,REGULAR,43.640885,-79.416379,,King St W / Douro St,11,FALSE,KEY,TRANSITCARD,CREDITCARD,PHONE,West,Liberty Village - Queen West,,,
7112,Liberty St / Fraser Ave Green P,REGULAR,43.637981,-79.424146,,Liberty St / Fraser Ave Green P,19,FALSE,KEY,TRANSITCARD,CREDITCARD,PHONE,West,Liberty Village - Queen West,,,
7113,Parliament St / Aberdeen Ave,VAULT,43.665278,-79.368333,,Parliament St / Aberdeen Ave,15,FALSE,KEY,TRANSITCARD,PHONE,,East,Church Wellesley / Yorkville,,,
7114,Carlton St / Parliament St,REGULAR,43.664524,-79.36793,,Carlton St / Parliament St,26,FALSE,KEY,TRANSITCARD,CREDITCARD,PHONE,East,Church Wellesley / Yorkville,,,
7115,Howard St / Sherbourne St,REGULAR,43.6712581,-79.376367,,Howard St / Sherbourne St,31,FALSE,KEY,TRANSITCARD,CREDITCARD,PHONE,East,Church Wellesley / Yorkville,,,
7116,Bloor St E / Parliament St,VAULT,43.671946102001826,-79.37245115,,575 Bloor St East,19,FALSE,KEY,TRANSITCARD,PHONE,,East,Church Wellesley / Yorkville,,,
7117,640 Bloor Street E,REGULAR,43.67468857448634,-79.36701962,,640 Bloor Street East,19,FALSE,KEY,TRANSITCARD,CREDITCARD,PHONE,East,Church Wellesley / Yorkville,,,
7118,King St W / Bay St (East Side),REGULAR,43.648575,-79.380042,,King St W / Bay St (East Side),18,FALSE,KEY,TRANSITCARD,CREDITCARD,PHONE,South,Financial District,,,
7119,Sumach St / Carlton St (Riverdale Farm),REGULAR,43.665867,-79.362506,,Sumach St / Carlton St (Riverdale Farm),15,FALSE,KEY,TRANSITCARD,CREDITCARD,PHONE,East,Church Wellesley / Yorkville,,,
7120,Gerrard St E / River St,REGULAR,43.663993,-79.358534,,Gerrard St E / River St,10,FALSE,KEY,TRANSITCARD,CREDITCARD,PHONE,East,Regent Park - Distillery,,,
7121,Jarvis St / Dundas St E,REGULAR,43.657266,-79.374756,,Jarvis St / Dundas St E,27,FALSE,KEY,TRANSITCARD,CREDITCARD,PHONE,East,Regent Park - Distillery,,,
7122,Niagara St / Tecumseth St,REGULAR,43.641389,-79.404444,,Niagara St / Tecumseth St,15,FALSE,KEY,TRANSITCARD,CREDITCARD,PHONE,West,Fort York - Entertainment District,,,
7123,420 Wellington St W,REGULAR,43.643834,-79.396649,,420 Wellington St W,14,FALSE,KEY,TRANSITCARD,CREDITCARD,PHONE,South,Fort York - Entertainment District,,,
7124,Dundas St E / Broadview Ave,REGULAR,43.662365,-79.351104,,Dundas St E / Broadview Ave,19,FALSE,KEY,TRANSITCARD,CREDITCARD,PHONE,East,Leslieville - Woodbine,,,
7126,Yonge St / Yorkville Ave,REGULAR,43.671944,-79.387778,,Yonge St / Yorkville Ave,17,FALSE,KEY,TRANSITCARD,CREDITCARD,PHONE,North,Church Wellesley / Yorkville,,,
7127,Bay St / Scollard St,REGULAR,43.672152,-79.39018,,Bay St / Scollard St,15,FALSE,KEY,TRANSITCARD,CREDITCARD,PHONE,North,Church Wellesley / Yorkville,,,
7128,Yonge St / Aylmer Ave,REGULAR,43.675492,-79.388858,,Yonge St / Aylmer Ave,23,FALSE,KEY,TRANSITCARD,CREDITCARD,PHONE,North,Davenport - Dupont,,,
7129,Davenport Rd / Avenue Rd,REGULAR,43.674991,-79.396273,,Davenport Rd / Avenue Rd,11,FALSE,KEY,TRANSITCARD,CREDITCARD,PHONE,North,Davenport - Dupont,,,
7130,Davenport Rd / Bedford Rd,REGULAR,43.674446,-79.398331,,Davenport Rd / Bedford Rd,15,FALSE,KEY,TRANSITCARD,CREDITCARD,PHONE,North,Davenport - Dupont,,,
7131,Taddle Creek Park,REGULAR,43.66986,-79.398443,,Taddle Creek Park,15,FALSE,KEY,TRANSITCARD,CREDITCARD,PHONE,North,Bloor St W / Annex,,,
7132,Kendal Ave / Spadina Rd,REGULAR,43.670318,-79.405181,,Kendal Ave / Spadina Rd,9,FALSE,KEY,TRANSITCARD,CREDITCARD,PHONE,North,Bloor St W / Annex,,,
7133,Summerhill Subway Station,REGULAR,43.681944,-79.390556,,Summerhill Station,11,FALSE,KEY,TRANSITCARD,CREDITCARD,PHONE,North,Davenport - Dupont,,,
7135,Hanna Ave / Liberty St,REGULAR,43.638608601636705,-79.41965437,,Hanna Ave / Liberty St,31,FALSE,KEY,TRANSITCARD,CREDITCARD,PHONE,West,Liberty Village - Queen West,,,
7137,Davenport Rd / Bathurst St,REGULAR,43.676667,-79.416111,,Davenport Rd / Bathurst St,15,FALSE,KEY,TRANSITCARD,CREDITCARD,PHONE,North,Davenport - Dupont,,,
7138,Davenport Rd / Christie St,REGULAR,43.675278,-79.423889,,Davenport Rd / Christie St,27,FALSE,KEY,TRANSITCARD,CREDITCARD,PHONE,West,Annex Efit drop off,,,
7139,Glen Edyth Dr / Davenport Rd,REGULAR,43.677778,-79.405556,,Glen Edyth Dr / Davenport Rd,15,FALSE,KEY,TRANSITCARD,CREDITCARD,PHONE,North,Davenport - Dupont,,,
7140,Macpherson Ave / Spadina Rd,REGULAR,43.675791,-79.40698,,Macpherson Ave / Spadina Rd,15,FALSE,KEY,TRANSITCARD,CREDITCARD,PHONE,North,Davenport - Dupont,,,
7141,Bridgman Ave / Kendal Ave,REGULAR,43.675556,-79.410278,,Bridgeman Ave / Kendal Ave,15,FALSE,KEY,TRANSITCARD,CREDITCARD,PHONE,North,Davenport - Dupont,,,
7142,Bridgman Ave / Bathurst St,REGULAR,43.674444,-79.414722,,Bridgeman Ave / Bathurst St,15,FALSE,KEY,TRANSITCARD,CREDITCARD,PHONE,North,Davenport - Dupont,,,
7143,Kendal Ave / Bernard Ave,REGULAR,43.671513,-79.408317,,Kendal Ave / Bernard Ave,15,FALSE,KEY,TRANSITCARD,CREDITCARD,PHONE,North,Annex Efit drop off,,,
7144,Palmerston Ave / Vermont Ave,REGULAR,43.671389,-79.416389,,Palmerston Ave / Vermont Ave,15,FALSE,KEY,TRANSITCARD,CREDITCARD,PHONE,West,Davenport - Dupont,,,
7146,Christie St / Benson Ave (Wychwood Barns),REGULAR,43.68,-79.425,,Christie St / Benson Ave (Wychwood Barns),19,FALSE,KEY,TRANSITCARD,CREDITCARD,PHONE,West,St Clair Ave W,,,
7147,King St W / Fraser Ave,REGULAR,43.6394444,-79.42527778,,King St W / Fraser Ave,15,FALSE,KEY,TRANSITCARD,CREDITCARD,PHONE,West,Liberty Village - Queen West,,,
7148,King St W / Joe Shuster Way,REGULAR,43.639444,-79.423611,,King St W / Joe Shuster Way,23,FALSE,KEY,TRANSITCARD,CREDITCARD,PHONE,West,Liberty Village - Queen West,,,
7149,Yarmouth Rd / Christie St,REGULAR,43.67,-79.42083333,,Yarmouth Rd / Christie St,11,FALSE,KEY,TRANSITCARD,CREDITCARD,PHONE,West,Davenport - Dupont,,,
7150,Dufferin St / Sylvan Av (Dufferin Grove Park),REGULAR,43.6555556,-79.43361111,,Dufferin St / Sylvan Av (Dufferin Grove Park),19,FALSE,KEY,TRANSITCARD,CREDITCARD,PHONE,West,Annex Efit drop off,,,
7151,Essex St / Christie St,REGULAR,43.6686111,-79.42027778,,Essex St / Christie St,19,FALSE,KEY,TRANSITCARD,CREDITCARD,PHONE,West,Davenport - Dupont,,,
7152,Ossington Ave / Bloor St W,REGULAR,43.661705,-79.425734,,Ossington Ave / Bloor St W,11,FALSE,KEY,TRANSITCARD,CREDITCARD,PHONE,West,Bloor St W / Annex,,,
7153,Bloor St W / Christie St,REGULAR,43.6638889,-79.41888889,,Bloor St W / Christie St,17,FALSE,KEY,TRANSITCARD,CREDITCARD,PHONE,West,Annex Efit drop off,,,
7154,Bathurst Subway Station,REGULAR,43.6666667,-79.41166667,,Bathurst Subway Station,23,FALSE,KEY,TRANSITCARD,CREDITCARD,PHONE,North,Bloor St W / Annex,,,
7155,Bathurst St / Lennox St,REGULAR,43.663808,-79.410491,,Bathurst St / Lennox St,19,FALSE,KEY,TRANSITCARD,CREDITCARD,PHONE,North,Bloor St W / Annex,,,
7156,Salem Ave / Bloor St W,REGULAR,43.6608333,-79.43166667,,Salem Ave / Bloor St W,15,FALSE,KEY,TRANSITCARD,CREDITCARD,PHONE,West,Bloor St W / Annex,,,
7157,Dufferin St / Bloor St W,REGULAR,43.66083333333333,-79.43583333,,Dufferin St / Bloor St,23,FALSE,KEY,TRANSITCARD,CREDITCARD,PHONE,West,Bloor St W / Annex,,,
7158,King St W / Stafford St,REGULAR,43.6422222,-79.41111111,,King St W / Stafford St,15,FALSE,KEY,TRANSITCARD,CREDITCARD,PHONE,West,Liberty Village - Queen West,,,
7160,King St W / Tecumseth St,REGULAR,43.64333333333333,-79.40555556,,King St W / Tecumseth St,19,FALSE,KEY,TRANSITCARD,CREDITCARD,PHONE,West,Fort York - Entertainment District,,,
7161,Beverley St / College St,REGULAR,43.6575,-79.39527778,,Beverley St / College St,23,FALSE,KEY,TRANSITCARD,CREDITCARD,PHONE,South,U of T - Hospital Row,,,
7162,Hayter St / La Plante Ave,REGULAR,43.65916667,-79.38555556,,Hayter St / Laplante Ave,23,FALSE,KEY,TRANSITCARD,CREDITCARD,PHONE,South,U of T - Hospital Row,,,
7163,Yonge St / Wood St,REGULAR,43.6622222,-79.3825,,Yonge St / Wood St,15,FALSE,KEY,TRANSITCARD,CREDITCARD,PHONE,South,Church Wellesley / Yorkville,,,
7164,Gould St / Yonge St (TMU),REGULAR,43.657424,-79.381019,,Gould St / Yonge St (Ryerson University),22,FALSE,KEY,TRANSITCARD,CREDITCARD,PHONE,South,Financial District,,,
7168,Queens Quay / Yonge St,REGULAR,43.641646,-79.375308,,Queens Quay / Yonge St,47,FALSE,KEY,TRANSITCARD,CREDITCARD,PHONE,South,Watefront,,,
7169,Front St W / Bay St (North Side),REGULAR,43.646162,-79.378912,,Front St W / Bay St (North Side),11,FALSE,KEY,TRANSITCARD,CREDITCARD,PHONE,South,Financial District,,,
7170,Spadina Ave / Willcocks St,REGULAR,43.6616667,-79.40138889,,Spadina Ave / Willcocks St,15,FALSE,KEY,TRANSITCARD,CREDITCARD,PHONE,South,U of T - Hospital Row,,,
7171,Ontario Place Blvd / Lake Shore Blvd W,REGULAR,43.6322445,-79.4108105,0,Ontario Place Blvd / Lake Shore Blvd W,27,FALSE,KEY,TRANSITCARD,CREDITCARD,PHONE,West,Watefront,,,
7172,Strachan Ave / Princes' Blvd,REGULAR,43.635,-79.40888889,,Strachan Ave / Princes' Blvd,19,FALSE,KEY,TRANSITCARD,CREDITCARD,PHONE,West,Liberty Village - Queen West,,,
7173,Cariboo Ave / Railpath Trail,REGULAR,43.66666667,-79.45833333,,Cariboo St / Rail Path,19,FALSE,KEY,TRANSITCARD,CREDITCARD,PHONE,West,Davenport - Dupont,,,
7174,Bloor St W / Dundas St W,REGULAR,43.6563889,-79.45166667,,Bloor St W / Dundas St W,15,FALSE,KEY,TRANSITCARD,CREDITCARD,PHONE,West,Bloor St W / Annex,,,
7175,HTO Park (Queens Quay W),REGULAR,43.63796,-79.387502,,HTO Park (Queens Quay W),27,FALSE,KEY,TRANSITCARD,CREDITCARD,PHONE,South,Watefront,,,
7176,Bathurst St / Fort York Blvd,REGULAR,43.639179,-79.399595,,Bathurst St / Fort York Blvd,19,FALSE,KEY,TRANSITCARD,CREDITCARD,PHONE,South,Fort York - Entertainment District,,,
7178,Dundas St W / Edna Ave,REGULAR,43.657192,-79.452559,,Dundas St W / Edna Ave,15,FALSE,KEY,TRANSITCARD,CREDITCARD,PHONE,West,Bloor St W / Annex,,,
7180,Lansdowne Subway Station,REGULAR,43.65922918158098,-79.44320901,0,Lansdowne Ave / Wade Ave,23,FALSE,KEY,TRANSITCARD,CREDITCARD,PHONE,West,Bloor St W / Annex,,,
7181,Lansdowne Ave / Whytock Ave,REGULAR,43.65388889,-79.44138889,,Lansdowne Ave / Whytock Ave,15,FALSE,KEY,TRANSITCARD,CREDITCARD,PHONE,West,College St - Harbord St,,,
7182,Sterling Rd / Dundas St W,REGULAR,43.65083333,-79.44305556,,Sterling Rd / Dundas St W,19,FALSE,KEY,TRANSITCARD,CREDITCARD,PHONE,West,College St - Harbord St,,,
7183,St Clarens Ave / College St,REGULAR,43.651238,-79.43868,0,St Clarens Ave / College St,15,FALSE,KEY,TRANSITCARD,CREDITCARD,PHONE,West,College St - Harbord St,,,
7184,Ossington Ave / College St,REGULAR,43.6544915,-79.422634,,Ossington Ave / College St,11,FALSE,KEY,TRANSITCARD,CREDITCARD,PHONE,West,College St - Harbord St,,,
7188,Exhibition GO (Atlantic Ave),REGULAR,43.637695491830144,-79.42023184,,Exhibition GO (Atlantic Ave),15,FALSE,KEY,TRANSITCARD,CREDITCARD,PHONE,West,Liberty Village - Queen West,,,
7189,Augusta Ave / Denison Sq,REGULAR,43.653766,-79.4016759,0,Augusta Ave / Denison Sq,15,FALSE,KEY,TRANSITCARD,CREDITCARD,PHONE,South,College St - Harbord St,,,
7190,St. George St / Hoskin Ave,REGULAR,43.6637403,-79.3980645,,St. George St / Hoskin Ave,15,FALSE,KEY,TRANSITCARD,CREDITCARD,PHONE,South,U of T - Hospital Row,,,
7191,Central Tech  (Harbord St),REGULAR,43.661975,-79.407896,,Central Tech (Harbord St),11,FALSE,KEY,TRANSITCARD,CREDITCARD,PHONE,South,Annex Efit drop off,,,
7192,Harbord St / Clinton St,REGULAR,43.660414,-79.415646,,Harbord St / Clinton St,15,FALSE,KEY,TRANSITCARD,CREDITCARD,PHONE,West,Annex Efit drop off,,,
7193,Dufferin St / Queen St W,REGULAR,43.64309687937765,-79.42875614,,Dufferin St /Queen St W ,15,FALSE,KEY,TRANSITCARD,CREDITCARD,PHONE,West,Liberty Village - Queen West,,,
7194,Mortimer Ave / Coxwell Ave,REGULAR,43.690564,-79.326319,,Mortimer Ave / Coxwell Ave,23,FALSE,KEY,TRANSITCARD,CREDITCARD,PHONE,East,Danforth,,,
7195,Ulster St / Bathurst St,REGULAR,43.66,-79.40888889,,Ulster St / Bathurst St,11,FALSE,KEY,TRANSITCARD,CREDITCARD,PHONE,South,College St - Harbord St,,,
7196,Roxton Rd / Harbord St,REGULAR,43.65905,-79.422988,,Roxton Rd / Harbord St,10,FALSE,KEY,TRANSITCARD,CREDITCARD,PHONE,West,College St - Harbord St,,,
7197,Queen St W / Dovercourt Rd,REGULAR,43.6438602,-79.4227573,,Queen St W / Dovercourt Rd,11,FALSE,KEY,TRANSITCARD,CREDITCARD,PHONE,West,Liberty Village - Queen West,,,
7198,Queen St W / Cowan Ave,REGULAR,43.64089724173822,-79.43283583,,1303 Queen St W,19,FALSE,KEY,TRANSITCARD,CREDITCARD,PHONE,West,Liberty Village - Queen West,,,
7199,College St / Markham St,REGULAR,43.65638889,-79.40916667,,College St / Markham St,19,FALSE,KEY,TRANSITCARD,CREDITCARD,PHONE,West,College St - Harbord St,,,
7202,Queen St W / Bay St (City Hall),REGULAR,43.6517925,-79.3826951,,Queen St W / York St (City Hall),23,FALSE,KEY,TRANSITCARD,CREDITCARD,PHONE,South,Financial District,,,
7203,Bathurst St/Queens Quay(Billy Bishop Airport),REGULAR,43.635492,-79.398253,,Bathurst St/Queens Quay(Billy Bishop Airport),34,FALSE,KEY,TRANSITCARD,CREDITCARD,PHONE,South,Watefront,,,
7204,College St / Crawford St,REGULAR,43.655,-79.418889,,College St / Crawford St,19,FALSE,KEY,TRANSITCARD,CREDITCARD,PHONE,West,College St - Harbord St,,,
7205,Rusholme Park Cres / College St,REGULAR,43.65277778,-79.42972222,,Rusholme Park Cres / College St,15,FALSE,KEY,TRANSITCARD,CREDITCARD,PHONE,West,College St - Harbord St,,,
7206,Claremont St / Dundas St W,REGULAR,43.651281,-79.411717,,Claremont St / Dundas St W,13,FALSE,KEY,TRANSITCARD,CREDITCARD,PHONE,West,College St - Harbord St,,,
7207,Dundas St W / Crawford St,REGULAR,43.649722,-79.416944,,Dundas St W / Crawford St,47,FALSE,KEY,TRANSITCARD,CREDITCARD,PHONE,West,College St - Harbord St,,,
7208,80 Clinton St,REGULAR,43.656296,-79.414663,,80 Clinton St (North of College),15,FALSE,KEY,TRANSITCARD,CREDITCARD,PHONE,West,College St - Harbord St,,,
7209,Ossington Ave / Harrison St,REGULAR,43.651111111111106,-79.42138889,,Ossington Ave / Harrison St,19,FALSE,KEY,TRANSITCARD,CREDITCARD,PHONE,West,College St - Harbord St,,,
7210,Mary McCormick Rec Centre (Sheridan Ave),REGULAR,43.6475,-79.43305556,,Mary McCormick Rec Centre (Sheridan Ave),15,FALSE,KEY,TRANSITCARD,CREDITCARD,PHONE,West,College St - Harbord St,,,
7211,Fort York Blvd / Garrison Rd,REGULAR,43.637381,-79.406112,,Fort York Blvd / Garrison Rd,15,FALSE,KEY,TRANSITCARD,CREDITCARD,PHONE,West,Fort York - Entertainment District,,,
7216,Wellington St W / Stafford St,REGULAR,43.6409957,-79.4096663,,Wellington St W / Stafford St,23,FALSE,KEY,TRANSITCARD,CREDITCARD,PHONE,West,Liberty Village - Queen West,,,
7217,Soho St / Queen St W,REGULAR,43.649649714291584,-79.39372141,,Soho St. / Queen St W,15,FALSE,KEY,TRANSITCARD,CREDITCARD,PHONE,South,Fort York - Entertainment District,,,
7220,Lake Shore Blvd W / Ellis Ave,REGULAR,43.635932,-79.465083,,Lake Shore Blvd W / Ellis Ave,19,FALSE,KEY,TRANSITCARD,CREDITCARD,PHONE,West,Humber Bay Shores,,,
7221,High Park Subway Station,REGULAR,43.6543604,-79.4655296,,High Park Subway Station,11,FALSE,KEY,TRANSITCARD,CREDITCARD,PHONE,West,Bloor St W - High Park,,,
7222,Sunnyside - Gus Ryder Pool,REGULAR,43.637894,-79.454823,,Sunnyside - Gus Ryder Pool,27,FALSE,KEY,TRANSITCARD,CREDITCARD,PHONE,West,Humber Bay Shores,,,
7223,Parkside Dr / Bloor St W - SMART,SMARTMAPFRAME,43.654501,-79.460053,,Parkside Dr / Bloor St W,12,FALSE,KEY,TRANSITCARD,PHONE,,West,Bloor St W - High Park,,,
7224,Bloor St W / High Park Ave (High Park),REGULAR,43.6535269,-79.4650569,,Bloor St W / High Park Ave (High Park),23,FALSE,KEY,TRANSITCARD,CREDITCARD,PHONE,West,Bloor St W - High Park,,,
7225,Lake Shore Blvd W / Windermere Ave,REGULAR,43.634896,-79.467763,,Lake Shore Blvd W / Windermere Ave,17,FALSE,KEY,TRANSITCARD,CREDITCARD,PHONE,West,Humber Bay Shores,,,
7226,Lake Shore Blvd W / The Boulevard Club,REGULAR,43.636731,-79.444966,,Lake Shore Blvd W / The Boulevard Club,19,FALSE,KEY,TRANSITCARD,CREDITCARD,PHONE,West,Watefront,,,
7227,Martin Goodman Trail (Marilyn Bell Park),REGULAR,43.6314,-79.4304,,Martin Goodman Trail (Marilyn Bell Park),31,FALSE,KEY,TRANSITCARD,CREDITCARD,PHONE,West,Watefront,,,
7228,King St W / Wilson Park Blvd,REGULAR,43.6372958,-79.4423237,,King St W / Wilson Park Blvd,19,FALSE,KEY,TRANSITCARD,CREDITCARD,PHONE,West,Liberty Village - Queen West,,,
7229,Dundas St W / Roncesvalles Ave Green P -SMART,SMARTMAPFRAME,43.6534268,-79.4512787,,Dundas St W / Roncesvalles Green P,12,FALSE,KEY,TRANSITCARD,PHONE,,West,College St - Harbord St,,,
7230,Garden Ave / Roncesvalles Ave,REGULAR,43.643769,-79.447915,,Garden Ave / Roncesvalles Ave,19,FALSE,KEY,TRANSITCARD,CREDITCARD,PHONE,West,College St - Harbord St,,,
7231,Wright Ave / Sorauren Ave - SMART,SMARTMAPFRAME,43.646677,-79.442741,,Wright Ave / Sorauren St (Sorauren Park),18,FALSE,KEY,TRANSITCARD,PHONE,,West,College St - Harbord St,,,
7232,Queen St W  /  Fuller Ave - SMART,SMARTMAPFRAME,43.640255,-79.439223,,Queen St W / Fuller Ave,16,FALSE,KEY,TRANSITCARD,PHONE,,West,Liberty Village - Queen West,,,
7233,King St W / Cowan Ave - SMART,SMARTMAPFRAME,43.637922,-79.431734,,King St W / Cowan Ave,16,FALSE,KEY,TRANSITCARD,PHONE,,West,Liberty Village - Queen West,,,
7234,Roncesvalles Ave / Marmaduke St,REGULAR,43.650492,-79.450842,,Roncesvalles Ave / Marmaduke St,19,FALSE,KEY,TRANSITCARD,CREDITCARD,PHONE,West,College St - Harbord St,,,
7235,Bay St / College St (West Side) - SMART,SMARTMAPFRAME,43.660087,-79.385655,,Bay St / College St (West Side),16,FALSE,KEY,TRANSITCARD,PHONE,,South,U of T - Hospital Row,,,
7236,Thompson St / Broadview Ave - SMART,SMARTMAPFRAME,43.659471,-79.350325,,Thompson St / Broadview Ave,24,FALSE,KEY,TRANSITCARD,PHONE,,East,Leslieville - Woodbine,,,
7237,Ward St / Wallace Ave,REGULAR,43.662857,-79.44618,,Ward Ave / Wallace Ave,15,FALSE,KEY,TRANSITCARD,CREDITCARD,PHONE,West,Davenport - Dupont,,,
7238,Sorauren Ave / Geoffrey St - SMART,SMARTMAPFRAME,43.649172,-79.4445087,,Sorauren St / Geoffrey St (Sorauren Park),16,FALSE,KEY,TRANSITCARD,PHONE,,West,College St - Harbord St,,,
7239,Bloor St W / Manning Ave - SMART,SMARTMAPFRAME,43.663912,-79.416124,,Bloor St W / Manning Ave,42,FALSE,KEY,TRANSITCARD,PHONE,,West,Annex Efit drop off,,,
7240,Bloor St W / Shaw St - SMART,SMARTMAPFRAME,43.662403,-79.423098,,Bloor St W / Shaw Ave,34,FALSE,KEY,TRANSITCARD,PHONE,,West,Annex Efit drop off,,,
7241,519 Church St - SMART,SMARTMAPFRAME,43.66683342,-79.38120391,,620 Church St,12,FALSE,KEY,TRANSITCARD,PHONE,,P7241-7024,South,,,
7242,Lake Shore Blvd W / Ontario Dr,REGULAR,43.630254,-79.420317,,Lake Shore Blvd W / Ontario Dr (Ontario Place),35,FALSE,KEY,TRANSITCARD,CREDITCARD,PHONE,West,Watefront,,,
7243,Exhibition GO Station,REGULAR,43.6352007,-79.4187711,,Exhibition GO Station,14,FALSE,KEY,TRANSITCARD,CREDITCARD,PHONE,West,Liberty Village - Queen West,,,
7244,Dufferin Gate - SMART,SMARTMAPFRAME,43.633473,-79.425679,,Dufferin Gate,16,FALSE,KEY,TRANSITCARD,PHONE,,West,Watefront,,,
7245,Tecumseth St / Queen St W - SMART,SMARTMAPFRAME,43.646552,-79.406468,,Tecumseth St / Queen St W,9,FALSE,KEY,TRANSITCARD,PHONE,,West,Fort York - Entertainment District,,,
7246,Yonge St / Bloor St,REGULAR,43.669969,-79.386532,,Yonge St / Bloor St,19,FALSE,KEY,TRANSITCARD,CREDITCARD,PHONE,North,Church Wellesley / Yorkville,,,
7247,Howard Park Ave / Dundas St W - SMART,SMARTMAPFRAME,43.6521,-79.4486,,Howard Park Ave / Dundas St W,12,FALSE,KEY,TRANSITCARD,PHONE,,P7229-7247,West,,,
7248,Baldwin St / Spadina Ave - SMART,SMARTMAPFRAME,43.654905,-79.398448,,Baldwin Ave / Spadina Ave,19,FALSE,KEY,TRANSITCARD,PHONE,,South,College St - Harbord St,,,
7250,Ursula Franklin St / St. George St - SMART,SMARTMAPFRAME,43.660296,-79.397107,,Ursula Franklin St / St. George St,16,FALSE,KEY,TRANSITCARD,PHONE,,P7250-7358,South,,,
7252,Robert St / Bloor St W - SMART,SMARTMAPFRAME,43.665846,-79.404998,,Robert St / Bloor St W,18,FALSE,KEY,TRANSITCARD,PHONE,,North,Annex Efit drop off,,,
7253,John St  / Mercer St - SMART,SMARTMAPFRAME,43.6461,-79.3895,,John St / Mercer St - SMART,11,FALSE,KEY,TRANSITCARD,PHONE,,South,Financial District,,,
7256,Vanauley St / Queen St W - SMART,SMARTMAPFRAME,43.648437,-79.39838,,Vanauley St / Queen St W,12,FALSE,KEY,TRANSITCARD,PHONE,,South,Fort York - Entertainment District,,,
7257,Dundas St W / St. Patrick St,REGULAR,43.6545174,-79.3895315,,Dundas St W / St. Patrick St,18,FALSE,KEY,TRANSITCARD,CREDITCARD,PHONE,South,U of T - Hospital Row,,,
7258,Queen St E / Rushbrooke Ave,REGULAR,43.6626628,-79.3323698,,Queen St E / Rushbrooke Ave,15,FALSE,KEY,TRANSITCARD,CREDITCARD,PHONE,East,Leslieville - Woodbine,,,
7259,Lower Spadina Ave / Lake Shore Blvd W,REGULAR,43.638497,-79.39192,,Lower Spadina Ave / Lake Shore Blvd W,19,FALSE,KEY,TRANSITCARD,CREDITCARD,PHONE,South,Watefront,,,
7260,Spadina Ave / Adelaide St W,REGULAR,43.6472019,-79.3953394,,Spadina Ave / Adelaide St W,15,FALSE,KEY,TRANSITCARD,CREDITCARD,PHONE,South,Fort York - Entertainment District,,,
7261,Queens Quay E / Lower Sherbourne St,REGULAR,43.645215,-79.364898,0,Queens Quay E / Lower Sherbourne,25,FALSE,KEY,TRANSITCARD,CREDITCARD,PHONE,East,Watefront,,,
7262,Wychwood Ave / Benson Ave - SMART,SMARTMAPFRAME,43.6809164,-79.4229684,,Wychwood Ave / Benson Ave,16,FALSE,KEY,TRANSITCARD,PHONE,,West,St Clair Ave W,,,
7264,Bloor St E / Huntley St - SMART,SMARTMAPFRAME,43.671535,-79.379173,,Bloor St E / Huntley St,20,FALSE,KEY,TRANSITCARD,PHONE,,East,Church Wellesley / Yorkville,,,
7265,Wallace Ave / Symington Ave - SMART,SMARTMAPFRAME,43.661324,-79.449534,,Wallace Ave / Symington Ave,12,FALSE,KEY,TRANSITCARD,PHONE,,West,Davenport - Dupont,,,
7266,Victoria Park Subway Station - SMART,SMARTMAPFRAME,43.6940155,-79.2889842,,Victoria Park Subway Station,20,FALSE,KEY,TRANSITCARD,PHONE,,East,Danforth,,,
7267,Dundas St E / Pembroke St ,VAULT,43.658295,-79.372346,,Dundas St E / Pembroke St,15,FALSE,KEY,TRANSITCARD,PHONE,,East,Regent Park - Distillery,,,
7268,111 Bond St (North of Dundas St E)  - SMART,SMARTMAPFRAME,43.656927,-79.378497,,111 Bond St (North of Dundas St E),15,FALSE,KEY,TRANSITCARD,PHONE,,South,Financial District,,,
7269,Toronto Eaton Centre (Yonge St) - SMART,SMARTMAPFRAME,43.655431,-79.380653,,Toronto Eaton Centre (Yonge St),20,FALSE,KEY,TRANSITCARD,PHONE,,South,Financial District,,,
7270,Church St / Dundas St E - SMART,SMARTMAPFRAME,43.657024,-79.377257,,Church St / Dundas St E,20,FALSE,KEY,TRANSITCARD,PHONE,,South,Financial District,,,
7271,Yonge St / Alexander St - SMART,SMARTMAPFRAME,43.662862,-79.383572,,Yonge St / Alexander St,18,FALSE,KEY,TRANSITCARD,PHONE,,South,Church Wellesley / Yorkville,,,
7272,Yonge St / Dundonald St - SMART,SMARTMAPFRAME,43.665801,-79.384796,,Yonge St / Dundonald St,12,FALSE,KEY,TRANSITCARD,PHONE,,South,Church Wellesley / Yorkville,,,
7273,Bay St / Charles St W - SMART,SMARTMAPFRAME,43.668153,-79.38891,,Bay St / Charles St W,20,FALSE,KEY,TRANSITCARD,PHONE,,North,Church Wellesley / Yorkville,,,
7274,Queen's Park Cres E / Grosvenor St - SMART,SMARTMAPFRAME,43.661803,-79.389682,,Queen's Park Cres E / Grosvenor St,16,FALSE,KEY,TRANSITCARD,PHONE,,P7274-7026,South,,,
7276,Bloor St W / Balmuto St,REGULAR,43.66981064282057,-79.38801107,,Bloor St W / Balmuto St,11,FALSE,KEY,TRANSITCARD,CREDITCARD,PHONE,North,Church Wellesley / Yorkville,,,
7277,Chorley Park - SMART,SMARTMAPFRAME,43.6856,-79.3718,,Chorley Park,20,FALSE,KEY,TRANSITCARD,PHONE,,East,Davenport - Dupont,,,
7278,Mallon Ave / Jones Ave -SMART,SMARTMAPFRAME,43.66587,-79.33443,,Mallon Ave / Jones Ave,16,FALSE,KEY,TRANSITCARD,PHONE,,East,Leslieville - Woodbine,,,
7279,Rosehill Ave / Avoca Ave - SMART,SMARTMAPFRAME,43.687999,-79.38906,,Rosehill Ave / Avoca Ave,16,FALSE,KEY,TRANSITCARD,PHONE,,North,Mid Town,,,
7280,Charles St E / Jarvis St - SMART,SMARTMAPFRAME,43.669604,-79.381171,,Charles St E / Jarvis St,20,FALSE,KEY,TRANSITCARD,PHONE,,East,Church Wellesley / Yorkville,,,
7281,Charles St W / Balmuto St - SMART,SMARTMAPFRAME,43.668427,-79.38725,,Charles St W / Balmuto St,24,FALSE,KEY,TRANSITCARD,PHONE,,North,Church Wellesley / Yorkville,,,
7282,Adelaide St W / Bay St,VAULT,43.650152,-79.379856,,Adelaide St W / Bay St,23,FALSE,KEY,TRANSITCARD,PHONE,,South,Financial District,,,
7283,Front St W / Bay St (South Side),REGULAR,43.64595,-79.378761,,Front St W / Bay St (South Side),19,FALSE,KEY,TRANSITCARD,CREDITCARD,PHONE,South,Financial District,,,
7284,University Ave / King St W - SMART,SMARTMAPFRAME,43.6477785,-79.3847928,,University Ave / King St W,24,FALSE,KEY,TRANSITCARD,PHONE,,South,Financial District,,,
7285,Spadina Ave / Harbord St - SMART,SMARTMAPFRAME,43.6629228,-79.4018451,,Spadina Ave / Harbord St,36,FALSE,KEY,TRANSITCARD,PHONE,,South,U of T - Hospital Row,,,
7286,Gerrard St E / Broadview Ave  - SMART,SMARTMAPFRAME,43.665656,-79.352055,,Gerrard St E / Broadview,18,FALSE,KEY,TRANSITCARD,PHONE,,East,Leslieville - Woodbine,,,
7287,Queen St E / Pape Ave - SMART,SMARTMAPFRAME,43.661673,-79.337789,,Queen St E / Pape Ave,15,FALSE,KEY,TRANSITCARD,PHONE,,East,Leslieville - Woodbine,,,
7288,Humber Bay Shores Park West,REGULAR,43.6224434,-79.480284,0,Humber Bay Shores Park West,30,FALSE,KEY,TRANSITCARD,CREDITCARD,PHONE,West,Humber Bay Shores,,,
7289,Humber Bay Shores Park East,REGULAR,43.6308933,-79.4722622,0,Humber Bay Shores Park East,23,FALSE,KEY,TRANSITCARD,CREDITCARD,PHONE,West,Humber Bay Shores,,,
7291,190 Queens Quay E,REGULAR,43.6451308,-79.3653644,,Lake Shore Blvd E / Parliament St,15,FALSE,KEY,TRANSITCARD,CREDITCARD,PHONE,East,Watefront,,,
7292,Granby St / Church St - SMART,SMARTMAPFRAME,43.6614605,-79.3789457,,Granby St / Church St -SMART,24,FALSE,KEY,TRANSITCARD,PHONE,,South,Church Wellesley / Yorkville,,,
7296,Westmoreland Ave / Fernbank Ave,REGULAR,43.665327,-79.43235,,Westmoreland Ave / Fernbank Ave,18,FALSE,KEY,TRANSITCARD,CREDITCARD,PHONE,West,Annex Efit drop off,,,
7297,Havelock St / Dufferin Park,REGULAR,43.657343,-79.43112,,Havelock St / Dufferin Park,19,FALSE,KEY,TRANSITCARD,CREDITCARD,PHONE,West,College St - Harbord St,,,
7298,Bathurst St / Adelaide St W,REGULAR,43.645324,-79.40345,,Bathurst St / Adelaide St W,24,FALSE,KEY,TRANSITCARD,CREDITCARD,PHONE,South,Fort York - Entertainment District,,,
7299,Mill St / Parliament St,REGULAR,43.650256,-79.36163,,Mill St / Parliament St,15,FALSE,KEY,TRANSITCARD,CREDITCARD,PHONE,East,Regent Park - Distillery,,,
7301,Primrose Ave / Davenport Rd,REGULAR,43.67142,-79.445947,,Primrose Ave / Davenport Rd,15,FALSE,KEY,TRANSITCARD,CREDITCARD,PHONE,West,Davenport - Dupont,,,
7302,Winona Dr / Davenport Rd,REGULAR,43.674923,-79.430465,,Winona Dr / Davenport Rd,11,FALSE,KEY,TRANSITCARD,CREDITCARD,PHONE,West,Davenport - Dupont,,,
7303,Queen St E / Woodward Ave,REGULAR,43.665269,-79.319796,,Queen St E / Woodward Ave,19,FALSE,KEY,TRANSITCARD,CREDITCARD,PHONE,East,Leslieville - Woodbine,,,
7309,Queen St E / Rhodes Ave,REGULAR,43.666224,-79.317693,,Queen St. E / Rhodes Ave.,23,FALSE,KEY,TRANSITCARD,CREDITCARD,PHONE,East,Leslieville - Woodbine,,,
7311,Sherbourne St / Isabella St,REGULAR,43.669576,-79.375961,,Sherbourne St / Isabella St,19,FALSE,KEY,TRANSITCARD,CREDITCARD,PHONE,East,Church Wellesley / Yorkville,,,
7312,Amelia St / Sumach St,REGULAR,43.66852,-79.363525,,Amelia St. / Sumach St.,11,FALSE,KEY,TRANSITCARD,CREDITCARD,PHONE,East,Church Wellesley / Yorkville,,,
7313,Emdaabiimok Ave / Lake Shore Blvd E,REGULAR,43.662771,-79.315223,,1420 Lake Shore Blvd E,15,FALSE,KEY,TRANSITCARD,CREDITCARD,PHONE,East,Leslieville - Woodbine,,,
7314,Queen St. E / Eastern Ave,REGULAR,43.667208,-79.312315,,Queen St E / Eastern Ave,15,FALSE,KEY,TRANSITCARD,CREDITCARD,PHONE,East,Leslieville - Woodbine,,,
7315,Queen St E / Hammersmith Ave,REGULAR,43.671349,-79.29451,,Queen St E / Hammersmith Ave,11,FALSE,KEY,TRANSITCARD,CREDITCARD,PHONE,East,Leslieville - Woodbine,,,
7316,Queen St. E / Spruce Hill Rd.,REGULAR,43.672571,-79.289,,Queen St. E / Spruce Hill Rd.,15,FALSE,KEY,TRANSITCARD,CREDITCARD,PHONE,East,Leslieville - Woodbine,,,
7317,Hubbard Blvd / Balsam Av,REGULAR,43.669328,-79.288949,,Hubbard Blvd / Balsam Av,19,FALSE,KEY,TRANSITCARD,CREDITCARD,PHONE,East,Leslieville - Woodbine,,,
7318,Hubbard Blvd / Glen Manor Dr,REGULAR,43.668633,-79.291162,,Hubbard Blvd. / Glen Manor Dr.,15,FALSE,KEY,TRANSITCARD,CREDITCARD,PHONE,East,Leslieville - Woodbine,,,
7319,Lake Shore Blvd E / Knox Ave,REGULAR,43.660206,-79.3244,,Lake Shore Blvd E / Knox Ave,11,FALSE,KEY,TRANSITCARD,CREDITCARD,PHONE,East,Leslieville - Woodbine,,,
7320,Front St W / University Ave (1),REGULAR,43.6451635,-79.3831757,,Front St W / University Ave (1),19,FALSE,KEY,TRANSITCARD,CREDITCARD,PHONE,South,Financial District,,,
7321,Front St W / University Ave (2),REGULAR,43.6452972,-79.3827914,,Front St W / University Ave (2),19,FALSE,KEY,TRANSITCARD,CREDITCARD,PHONE,South,Financial District,,,
7322,East Liberty St / Western Battery Rd,REGULAR,43.6392777,-79.4115736,,E Liberty St / Western Battery Rd,19,FALSE,KEY,TRANSITCARD,CREDITCARD,PHONE,West,Liberty Village - Queen West,,,
7323,457 King St W,REGULAR,43.6452091,-79.3960744,,457 King St W.,19,FALSE,KEY,TRANSITCARD,CREDITCARD,PHONE,South,Fort York - Entertainment District,,,
7324,King St W / Charlotte St,REGULAR,43.645572,-79.39399,,King St W / Charlotte St,22,FALSE,KEY,TRANSITCARD,CREDITCARD,PHONE,South,Fort York - Entertainment District,,,
7326,Davenport Rd / Lansdowne Ave,REGULAR,43.671526,-79.44874,,Davenport Rd / Landsdowne Rd,19,FALSE,KEY,TRANSITCARD,CREDITCARD,PHONE,West,Davenport - Dupont,,,
7327,Davenport Rd / Dovercourt Rd - SMART,SMARTMAPFRAME,43.6741219,-79.4352208,,Davenport Rd / Oakwood Rd - SMART,16,FALSE,KEY,TRANSITCARD,PHONE,,West,Davenport - Dupont,,,
7329,Crawford St / Queen St W,REGULAR,43.645665,-79.415345,,Crawford St / Queen St W,19,FALSE,KEY,TRANSITCARD,CREDITCARD,PHONE,West,Liberty Village - Queen West,,,
7331,Coxwell Ave / Plains Rd,REGULAR,43.69595,-79.328535,,Coxwell Ave / Plains Rd,19,FALSE,KEY,TRANSITCARD,CREDITCARD,PHONE,East,Danforth,,,
7332,200 Bloor St E,REGULAR,43.671561,-79.38117,,200 Bloor St. E.,23,FALSE,KEY,TRANSITCARD,CREDITCARD,PHONE,East,Church Wellesley / Yorkville,,,
7333,King St E / Victoria St,REGULAR,43.6495789,-79.3762096,,King St E / Victoria St,19,FALSE,KEY,TRANSITCARD,CREDITCARD,PHONE,South,Financial District,,,
7334,Simcoe St / Wellington St W North,REGULAR,43.6462176,-79.3855048,,Simcoe St / Wellington St 2,15,FALSE,KEY,TRANSITCARD,CREDITCARD,PHONE,South,Financial District,,,
7335,Bay St / Bloor St W (West Side),REGULAR,43.669244,-79.3894,,1188 Bay St,19,FALSE,KEY,TRANSITCARD,CREDITCARD,PHONE,North,Church Wellesley / Yorkville,,,
7336,Queen St E / Alton Av,REGULAR,43.663912,-79.327987,,Queen St E / Alton Av,19,FALSE,KEY,TRANSITCARD,CREDITCARD,PHONE,East,Leslieville - Woodbine,,,
7337,Gerrard Square Mall (1010 Gerrard St E),REGULAR,43.668553,-79.338673,,Gerrard Square Mall (1010 Gerrard St E),23,FALSE,KEY,TRANSITCARD,CREDITCARD,PHONE,East,Leslieville - Woodbine,,,
7338,Logan Ave / Bain Ave,REGULAR,43.6720273,-79.3470557,,Logan Ave / Bain Ave,19,FALSE,KEY,TRANSITCARD,CREDITCARD,PHONE,East,Leslieville - Woodbine,,,
7339,Carlaw Ave / Strathcona Ave,REGULAR,43.6753188,-79.3462789,,Carlaw Ave / Strathcona Ave,15,FALSE,KEY,TRANSITCARD,CREDITCARD,PHONE,East,Danforth,,,
7340,Blake St / Boultbee Ave,REGULAR,43.672453,-79.338259,,Blake St / Boultbee Ave,15,FALSE,KEY,TRANSITCARD,CREDITCARD,PHONE,East,Leslieville - Woodbine,,,
7341,Eastern Ave / Winnifred Ave,REGULAR,43.6592088,-79.3348396,0,Eastern Ave / Winnifred Ave,14,FALSE,KEY,TRANSITCARD,CREDITCARD,PHONE,East,Leslieville - Woodbine,,,
7342,Morse St / Eastern Ave,REGULAR,43.657991,-79.340075,,Morse St / Eastern Ave,11,FALSE,KEY,TRANSITCARD,CREDITCARD,PHONE,East,Leslieville - Woodbine,,,
7343,Alton Ave / Dundas St E (Greenwood Park),REGULAR,43.66745,-79.329408,,Alton Ave / Dundas St E (Greenwood Park),23,FALSE,KEY,TRANSITCARD,CREDITCARD,PHONE,East,Leslieville - Woodbine,,,
7344,Cherry Beach,REGULAR,43.637764,-79.345359,,Cherry Beach,48,FALSE,KEY,TRANSITCARD,CREDITCARD,PHONE,East,Watefront,,,
7345,Cherry Beach Sports Fields (55 Unwin Ave),REGULAR,43.6408346,-79.3429074,,Cherry Beach Sports Field (55 Unwin Ave),31,FALSE,KEY,TRANSITCARD,CREDITCARD,PHONE,East,Watefront,,,
7346,Logan Ave / Gerrard St E,REGULAR,43.6672144,-79.3452697,,Logan Av / Gerrard St E,23,FALSE,KEY,TRANSITCARD,CREDITCARD,PHONE,East,Leslieville - Woodbine,,,
7347,Regal Rd / Dufferin St,REGULAR,43.673939,-79.441159,,Regal Rd / Dufferin St,15,FALSE,KEY,TRANSITCARD,CREDITCARD,PHONE,West,Davenport - Dupont,,,
7348,Pape Ave / Gamble Ave,REGULAR,43.690237,-79.350119,,Pape Ave / Gamble Ave,19,FALSE,KEY,TRANSITCARD,CREDITCARD,PHONE,East,Danforth,,,
7349,Gamble Ave / Broadview Ave,REGULAR,43.689211,-79.35438,,Gamble Ave / Broadview Ave,23,FALSE,KEY,TRANSITCARD,CREDITCARD,PHONE,East,Danforth,,,
7350,Broadview Ave / Westwood Ave,REGULAR,43.6848652,-79.356602,,Broadview Ave/ Westwood Ave,23,FALSE,KEY,TRANSITCARD,CREDITCARD,PHONE,East,Danforth,,,
7351,Pretoria Ave / Broadview Ave,REGULAR,43.6783213,-79.35822,,Pretoria Av / Broadview Av,19,FALSE,KEY,TRANSITCARD,CREDITCARD,PHONE,East,Danforth,,,
7352,Cosburn Ave / Donlands Ave,REGULAR,43.690537,-79.341307,,Cosburn Ave / Donlands Ave,19,FALSE,KEY,TRANSITCARD,CREDITCARD,PHONE,East,Danforth,,,
7353,Fulton Ave / Pape Ave,REGULAR,43.68395,-79.347046,,Fulton Ave / Pape Ave,19,FALSE,KEY,TRANSITCARD,CREDITCARD,PHONE,East,Danforth,,,
7354,Tommy Thompson Park (Leslie Street Spit),REGULAR,43.65222662225532,-79.32295441,,Tommy Thompson Park (Leslie Street Spit),31,FALSE,KEY,TRANSITCARD,CREDITCARD,PHONE,East,Leslieville - Woodbine,,,
7355,Beltline Trail / Chaplin Cres,REGULAR,43.704461,-79.423122,,Beltline Trail / Chaplin Cres.,15,FALSE,KEY,TRANSITCARD,CREDITCARD,PHONE,North,Eglinton Ave W,,,
7356,King St E / Berkeley St,VAULT,43.651885,-79.3649,,King St E / Ontario St.,31,FALSE,KEY,TRANSITCARD,PHONE,,East,Regent Park - Distillery,,,
7357,Lake Shore Blvd E / Leslie St,REGULAR,43.659195,-79.329196,,Lake Shore Blvd E / Leslie St,19,FALSE,KEY,TRANSITCARD,CREDITCARD,PHONE,East,Leslieville - Woodbine,,,
7358,Galbraith Rd / King's College Rd,VAULT,43.66038745,-79.39537832,,Galbraith Rd / King's College Rd,17,FALSE,KEY,TRANSITCARD,PHONE,,North,U of T - Hospital Row,,,
7359,Rosedale Park (20 Scholfield Ave),REGULAR,43.682645,-79.377557,,Rosedale Park (20 Schofield Ave),23,FALSE,KEY,TRANSITCARD,CREDITCARD,PHONE,East,Davenport - Dupont,,,
7360,Concord Ave / Dewson St,REGULAR,43.656945,-79.424911,,Concord Av / Dewson St,17,FALSE,KEY,TRANSITCARD,CREDITCARD,PHONE,West,College St - Harbord St,,,
7361,Hocken Ave / Vaughan Rd,REGULAR,43.6817346,-79.4184725,,Hocken Ave./Vaughan Rd.,19,FALSE,KEY,TRANSITCARD,CREDITCARD,PHONE,North,St Clair Ave W,,,
7362,St Clair Ave W / Bathurst St.,REGULAR,43.683296,-79.418734,,St Clair Ave W / Bathurst St.,19,FALSE,KEY,TRANSITCARD,CREDITCARD,PHONE,North,St Clair Ave W,,,
7363,Wells Hill Ave / St Clair Ave W,REGULAR,43.683351,-79.41562,,Wells Hill Ave / St Clair Ave W,15,FALSE,KEY,TRANSITCARD,CREDITCARD,PHONE,North,St Clair Ave W,,,
7364,Queen St E / Nursewood Rd,REGULAR,43.673831,-79.281455,,Queen St E / Nursewood Rd (Neville Park Loop),19,FALSE,KEY,TRANSITCARD,CREDITCARD,PHONE,East,Leslieville - Woodbine,,,
7365,Kewbeach Ave / Kenilworth Ave,REGULAR,43.666325,-79.3014,,Kew Beach Ave / Kenilworth Ave,23,FALSE,KEY,TRANSITCARD,CREDITCARD,PHONE,East,Leslieville - Woodbine,,,
7366,Fort York Blvd / Bathurst St - SMART,SMARTMAPFRAME,43.639052,-79.399792,,Fort York Blvd / Bathurst St SMART,20,FALSE,KEY,TRANSITCARD,PHONE,,South,Fort York - Entertainment District,,,
7367,Alma Ave / Gladstone Ave SMART,SMARTMAPFRAME,43.6448617,-79.42822,,Alma Ave / Gladstone Ave SMART,15,FALSE,KEY,TRANSITCARD,PHONE,,West,Liberty Village - Queen West,,,
7368,Lisgar St / Dundas St W - SMART,SMARTMAPFRAME,43.6493472,-79.42668,,Lisgar St / Dundas St SMART,8,FALSE,KEY,TRANSITCARD,PHONE,,West,College St - Harbord St,,,
7371,Eglinton Ave W / Henning Ave SMART,SMARTMAPFRAME,43.7063473,-79.40161,,Eglinton Ave W / Henning Ave SMART,20,FALSE,KEY,TRANSITCARD,PHONE,,North,Mid Town,,,
7373,George St / King St E,REGULAR,43.6509552,-79.3707,,George St / King St E,15,FALSE,KEY,TRANSITCARD,CREDITCARD,PHONE,East,Regent Park - Distillery,,,
7374,Frederick St / The Esplanade,REGULAR,43.6487245,-79.36839,,Frederick St / The Esplanade,19,FALSE,KEY,TRANSITCARD,CREDITCARD,PHONE,East,Regent Park - Distillery,,,
7375,Front St E / Scott St,REGULAR,43.6476616,-79.37549,,Front St E / Scott St,11,FALSE,KEY,TRANSITCARD,CREDITCARD,PHONE,South,Financial District,,,
7376,Frobisher Ave / Lascelles Blvd,REGULAR,43.696708,-79.40045,,Frobisher Ave / Lascelles Blvd,19,FALSE,KEY,TRANSITCARD,CREDITCARD,PHONE,North,Mid Town,,,
7377,Balliol St / Yonge St - SMART,SMARTMAPFRAME,43.6978701,-79.39419,,Balliol St / Yonge St - SMART,35,FALSE,KEY,TRANSITCARD,PHONE,,North,Mid Town,,,
7378,Yonge St / Davisville Ave,REGULAR,43.6975969,-79.39654,,Yonge St / Davisville Ave,15,FALSE,KEY,TRANSITCARD,CREDITCARD,PHONE,North,Mid Town,,,
7379,Lawton Blvd / Yonge St,REGULAR,43.6910667,-79.39535,,Lawton Blvd / Yonge St,15,FALSE,KEY,TRANSITCARD,CREDITCARD,PHONE,North,Mid Town,,,
7380,Erskine Ave / Yonge St SMART,SMARTMAPFRAME,43.7112153,-79.39894,,Erskine Ave / Yonge St SMART,16,FALSE,KEY,TRANSITCARD,PHONE,,North,Mid Town,,,
7381,Yonge St / Orchard View Blvd,REGULAR,43.7083577,-79.398862,,Roehampton Ave / Yonge St,35,FALSE,KEY,TRANSITCARD,CREDITCARD,PHONE,North,Mid Town,,,
7383,12 Harbour St,REGULAR,43.6425636,-79.3762,,12 Harbour St,15,FALSE,KEY,TRANSITCARD,CREDITCARD,PHONE,South,Watefront,,,
7384,Cumberland St / Bay St -  SMART,SMARTMAPFRAME,43.6704537,-79.39014,,Cumberland Ave / Bay St,9,FALSE,KEY,TRANSITCARD,PHONE,,North,Church Wellesley / Yorkville,,,
7385,20 Charles St E,ELECTRICBIKESTATION,43.6691099,-79.38551,,20 Charles St E,33,TRUE,KEY,TRANSITCARD,CREDITCARD,PHONE,E-Charging ,North,,,
7386,D'Arcy St / McCaul St - SMART,SMARTMAPFRAME,43.655227,-79.39201,,"D'Arcy St, /McCaul St. SMART",16,FALSE,KEY,TRANSITCARD,PHONE,,South,U of T - Hospital Row,,,
7387,Mortimer Ave / Carlaw Ave SMART,SMARTMAPFRAME,43.685167,-79.34962,,Mortimer Ave / Carlaw Ave SMART,12,FALSE,KEY,TRANSITCARD,PHONE,,East,Danforth,,,
7388,Broadview Subway Station,REGULAR,43.6772,-79.35858,,Broadview Ave / Danforth Ave,15,FALSE,KEY,TRANSITCARD,CREDITCARD,PHONE,East,Danforth,,,
7389,College Park - Gerrard Entrance,REGULAR,43.658938,-79.383518,0,College Park- Gerrard Entrance,25,FALSE,KEY,TRANSITCARD,CREDITCARD,PHONE,South,U of T - Hospital Row,,,
7391,Yonge St / Dundas Sq,REGULAR,43.655766,-79.3802,,Yonge St / Dundas Sq,31,FALSE,KEY,TRANSITCARD,CREDITCARD,PHONE,South,Financial District,,,
7395,Dentonia Park,REGULAR,43.694341,-79.291416,,Dentonia Park Station,23,FALSE,KEY,TRANSITCARD,CREDITCARD,PHONE,East,Danforth,,,
7398,York St / Lake Shore Blvd W,REGULAR,43.641952,-79.380723,,York St / Lakeshore St W - South,19,FALSE,KEY,TRANSITCARD,CREDITCARD,PHONE,South,Watefront,,,
7399,Lower Jarvis St / Queens Quay E,REGULAR,43.64422,-79.36927,,Lower Jarvis / Queens Quay E,18,FALSE,KEY,TRANSITCARD,CREDITCARD,PHONE,East,Watefront,,,
7400,Polson Pier,REGULAR,43.641675,-79.354006,,Polson Pier,23,FALSE,KEY,TRANSITCARD,CREDITCARD,PHONE,East,Watefront,,,
7403,Lascelles Blvd / Eglinton Ave W,REGULAR,43.70547,-79.40355,,Lascelles Blvd / Eglinton Ave W,19,FALSE,KEY,TRANSITCARD,CREDITCARD,PHONE,North,Mid Town,,,
7404,Roehampton Ave / Mount Pleasant Rd,REGULAR,43.70942,-79.39139,,Roehampton Ave / Mount Pleasant Rd,19,FALSE,KEY,TRANSITCARD,CREDITCARD,PHONE,North,Mid Town,,,
7407,University Ave / Queen St W,REGULAR,43.65052424212547,-79.38672703,,250 University Ave ,18,FALSE,KEY,TRANSITCARD,CREDITCARD,PHONE,South,Financial District,,,
7409,Isabella St / Church St,REGULAR,43.66834,-79.38235,,Isabella St / Church St,27,FALSE,KEY,TRANSITCARD,CREDITCARD,PHONE,North,Church Wellesley / Yorkville,,,
7410,Howard St / Rose Ave,REGULAR,43.671278,-79.372127,,Howard St / Ontario St,19,FALSE,KEY,TRANSITCARD,CREDITCARD,PHONE,East,Church Wellesley / Yorkville,,,
7411,Little Norway Park,REGULAR,43.635023,-79.399505,,Little Norway Park,23,FALSE,KEY,TRANSITCARD,CREDITCARD,PHONE,South,Watefront,,,
7412,King St W / Crawford St,REGULAR,43.6417852,-79.4131148,,King St W / Crawford St ,23,FALSE,KEY,TRANSITCARD,CREDITCARD,PHONE,West,Liberty Village - Queen West,,,
7414,Keele St / Annette St,REGULAR,43.66402,-79.46418,,Keele St / Annette St,15,FALSE,KEY,TRANSITCARD,CREDITCARD,PHONE,West,Bloor St W - High Park,,,
7415,Keele St / Vine Ave,REGULAR,43.66686,-79.46526,,Keele St / Vine Ave,23,FALSE,KEY,TRANSITCARD,CREDITCARD,PHONE,West,Bloor St W - High Park,,,
7416,Spadina Ave / Blue Jays Way,REGULAR,43.641705,-79.393295,,Spadina Ave / Blue Jays Way,30,FALSE,KEY,TRANSITCARD,CREDITCARD,PHONE,South,Fort York - Entertainment District,,,
7417,King St W / Jordan St,REGULAR,43.648928,-79.378623,,King St / Jordan St,11,FALSE,KEY,TRANSITCARD,CREDITCARD,PHONE,South,Financial District,,,
7418,College Park - Yonge St Entrance,REGULAR,43.65988,-79.38279,,College Park - Yonge Entrance,25,FALSE,KEY,TRANSITCARD,CREDITCARD,PHONE,South,U of T - Hospital Row,,,
7419,Bloor St W / Huron St,REGULAR,43.667023,-79.401805,,Bloor St W / Huron St,27,FALSE,KEY,TRANSITCARD,CREDITCARD,PHONE,Bloor St W / Annex,,,,
7420,Barton Ave / Howland Ave - SMART,SMARTMAPFRAME,43.66842,-79.410585,,Barton St / Howland St - SMART,28,FALSE,KEY,TRANSITCARD,PHONE,,North,Bloor St W / Annex,,,
7422,Tyndall Ave / King St W - SMART,SMARTMAPFRAME,43.638426,-79.429142,,Tyndall Ave / King St W - SMART,16,FALSE,KEY,TRANSITCARD,PHONE,,West,Liberty Village - Queen West,,,
7424,Merton St / Mount Pleasant Rd,REGULAR,43.697819,-79.38786,,Merton St / Mount Pleasant Rd ,23,FALSE,KEY,TRANSITCARD,CREDITCARD,PHONE,North,Mid Town,,,
7425,The Queensway at South Kingsway,REGULAR,43.63632,-79.47307,,The Queensway at South Kingsway,23,FALSE,KEY,TRANSITCARD,CREDITCARD,PHONE,West,Humber Bay Shores,,,
7427,Northern Dancer Blvd / Lake Shore Blvd E,REGULAR,43.663162,-79.309765,,Northern Dancer Blvd / Lake Shore Blvd E,27,FALSE,KEY,TRANSITCARD,CREDITCARD,PHONE,East,Leslieville - Woodbine,,,
7428,Woodbine Ave / Lake Shore Blvd E,REGULAR,43.665645,-79.304711,,Woodbine Ave / Lake Shore Blvd E,27,FALSE,KEY,TRANSITCARD,CREDITCARD,PHONE,East,Leslieville - Woodbine,,,
7429,Woodbine Subway Station,REGULAR,43.686442,-79.313404,,Woodbine Subway Station,15,FALSE,KEY,TRANSITCARD,CREDITCARD,PHONE,East,Danforth,,,
7430,Marilyn Bell Park Tennis Court,REGULAR,43.633537,-79.437461,,Marilyn Bell Park Tennis Court,27,FALSE,KEY,TRANSITCARD,CREDITCARD,PHONE,West,Watefront,,,
7431,Gerrard St E / Leslie St,REGULAR,43.669813,-79.3335,,Gerrard St E / Leslie St,25,FALSE,KEY,TRANSITCARD,CREDITCARD,PHONE,East,Leslieville - Woodbine,,,
7432,Frederick St / King St E,REGULAR,43.651118,-79.369411,,Frederick St / King St E,47,FALSE,KEY,TRANSITCARD,CREDITCARD,PHONE,East,Regent Park - Distillery,,,
7433,Dundas St E / Boulton Ave - SMART,SMARTMAPFRAME,43.663148,-79.347938,,Dundas St E / Boulton Ave - SMART,16,FALSE,KEY,TRANSITCARD,PHONE,,East,Leslieville - Woodbine,,,
7434,91 Via Italia,ELECTRICBIKESTATION,43.67665014253828,-79.4450303,,91 Via Italia,39,TRUE,KEY,TRANSITCARD,CREDITCARD,PHONE,E-Charging ,West,,,
7435,Rushton Rd / St Clair Ave W,REGULAR,43.68114,-79.4277,,Rushton Rd / St Clair Ave,11,FALSE,KEY,TRANSITCARD,CREDITCARD,PHONE,West,St Clair Ave W,,,
7437,Concord Ave / Bloor St W,REGULAR,43.66189,-79.42679,,Concord Ave / Bloor St W,15,FALSE,KEY,TRANSITCARD,CREDITCARD,PHONE,West,Annex Efit drop off,,,
7438,Gothic Ave / Quebec Ave,REGULAR,43.65389,-79.4675,,High Park Subway,19,FALSE,KEY,TRANSITCARD,CREDITCARD,PHONE,West,Bloor St W - High Park,,,
7441,Pacific Ave / Glenlake Ave,REGULAR,43.65716,-79.46478,,Pacific Ave / Glenlake Ave ,22,FALSE,KEY,TRANSITCARD,CREDITCARD,PHONE,Bloor St W - High Park,,,,
7442,Lonsdale Rd / Spadina Rd,REGULAR,43.688526,-79.412903,,Lonsdale Rd / Spadina Rd,15,FALSE,KEY,TRANSITCARD,CREDITCARD,PHONE,North,St Clair Ave W,,,
7443,Dundas St E / George St,REGULAR,43.6574766,-79.373446,,Dundas St E / George St,25,FALSE,KEY,TRANSITCARD,CREDITCARD,PHONE,East,Regent Park - Distillery,,,
7444,Clendenan Ave / Rowland St - SMART,SMARTMAPFRAME,43.66073,-79.47149,,Clendenan Ave / Rowland St - SMART,20,FALSE,KEY,TRANSITCARD,PHONE,,West,Bloor St W - High Park,,,
7445,Eastwood Rd / Coxwell Ave,REGULAR,43.673118,-79.318651,,Eastwood Rd / Coxwell Ave,19,FALSE,KEY,TRANSITCARD,CREDITCARD,PHONE,East,Leslieville - Woodbine,,,
7446,Orchard Park,REGULAR,43.66908,-79.3149,,Orchard Park,19,FALSE,KEY,TRANSITCARD,CREDITCARD,PHONE,East,Leslieville - Woodbine,,,
7447,Trent Ave / Danforth Ave,REGULAR,43.689293,-79.295895,,Trent Ave / Danforth Ave,23,FALSE,KEY,TRANSITCARD,CREDITCARD,PHONE,East,Danforth,,,
7448,Goodwood Park Crt / Dentonia Park,REGULAR,43.694826,-79.295208,,Goodwood Park Ct / Dentonia Park,19,FALSE,KEY,TRANSITCARD,CREDITCARD,PHONE,East,Danforth,,,
7449,Cosburn Ave / Cedarvale Ave,REGULAR,43.697139,-79.31469,,Cosburn Ave / Cedarvale Ave,15,FALSE,KEY,TRANSITCARD,CREDITCARD,PHONE,East,Danforth,,,
7451,Western Battery Rd / Pirandello St,REGULAR,43.640075,-79.414156,,Western Battery Rd / Pirandello St,29,FALSE,KEY,TRANSITCARD,CREDITCARD,PHONE,West,Liberty Village - Queen West,,,
7452,Bleecker St / St James Ave,REGULAR,43.669232,-79.374495,,Bleecker St / St James Ave,23,FALSE,KEY,TRANSITCARD,CREDITCARD,PHONE,East,Church Wellesley / Yorkville,,,
7453,Jarvis St / Maitland Pl,REGULAR,43.6647688,-79.3772602,,Jarvis St / Maitland Pl,17,FALSE,KEY,TRANSITCARD,CREDITCARD,PHONE,East,Church Wellesley / Yorkville,,,
7454,Pottery Rd / Lower Don River Trail,REGULAR,43.688148,-79.362101,,Pottery Rd / Lower Don River Trail,15,FALSE,KEY,TRANSITCARD,CREDITCARD,PHONE,East,Davenport - Dupont,,,
7455,E.T. Seton Park (Eglinton Ave E / Leslie St),REGULAR,43.715951,-79.351246,,E.T. Seton Park (Eglinton Ave E / Leslie St),27,FALSE,KEY,TRANSITCARD,CREDITCARD,PHONE,North,Thorncliffe Park - Sunnybrook,,,
7457,Queen's Park Cres W / Hoskin Ave,REGULAR,43.665221,-79.394009,,Queen's Park Cres W / Hoskin Ave,23,FALSE,KEY,TRANSITCARD,CREDITCARD,PHONE,South,U of T - Hospital Row,,,
7458,Church St / Lombard St,REGULAR,43.651678,-79.375233,,Church St / Lombard St,17,FALSE,KEY,TRANSITCARD,CREDITCARD,PHONE,South,Financial District,,,
7459,St Clair Ave W / Winona Dr,REGULAR,43.680466,-79.432522,,St Clair Ave W / Winona Dr,11,FALSE,KEY,TRANSITCARD,CREDITCARD,PHONE,West,St Clair Ave W,,,
7460,High Park Outdoor Pool,REGULAR,43.650154,-79.464934,,High Park Outdoor Pool,27,FALSE,KEY,TRANSITCARD,CREDITCARD,PHONE,West,Bloor St W - High Park,,,
7461,High Park Amphitheatre,REGULAR,43.646251,-79.46472,,High Park Amphitheatre,23,FALSE,KEY,TRANSITCARD,CREDITCARD,PHONE,West,Bloor St W - High Park,,,
7462,Richmond St E / Yonge St,REGULAR,43.651838,-79.378743,,Richmond St E / Yonge St,17,FALSE,KEY,TRANSITCARD,CREDITCARD,PHONE,South,Financial District,,,
7465,Russell Hill Rd / St Clair Ave W,REGULAR,43.685569,-79.408019,,Russell Hill Rd / St Clair Ave W,19,FALSE,KEY,TRANSITCARD,CREDITCARD,PHONE,North,St Clair Ave W,,,
7466,Glendonwynne Rd / Bloor St W,REGULAR,43.65182,-79.47421,,Glendonwynne Ave / Bloor St W,19,FALSE,KEY,TRANSITCARD,CREDITCARD,PHONE,West,Bloor St W - High Park,,,
7467,Lower Simcoe St / Bremner Blvd,REGULAR,43.64283,-79.38409,,Lower Simcoe St / Bremner Blvd,14,FALSE,KEY,TRANSITCARD,CREDITCARD,PHONE,South,Watefront,,,
7468,Front St W / Simcoe St,REGULAR,43.6442,-79.38702,,Front St / Simcoe St,27,FALSE,KEY,TRANSITCARD,CREDITCARD,PHONE,South,Watefront,,,
7469,York St / Wellington St W (1) ,REGULAR,43.646734,-79.38301,,Wellington St W / York St,22,FALSE,KEY,TRANSITCARD,CREDITCARD,PHONE,South,Financial District,,,
7471,2300 Lakeshore Blvd W,ELECTRICBIKESTATION,43.61868,-79.48674,,Lake Shore Blvd W / Louisa St,15,TRUE,KEY,TRANSITCARD,CREDITCARD,PHONE,E-Charging ,West,,,
7473,Adelaide St W / Strachan Ave,REGULAR,43.643253094827294,-79.4123047,,Adelaide St W / Strachan Ave,15,FALSE,KEY,TRANSITCARD,CREDITCARD,PHONE,West,Liberty Village - Queen West,,,
7474,Clarence Square,REGULAR,43.64407,-79.3929,,Clarence Square,22,FALSE,KEY,TRANSITCARD,CREDITCARD,PHONE,South,Fort York - Entertainment District,,,
7475,Jarvis St / Richmond St E,REGULAR,43.652777,-79.372637,,Jarvis St / Richmond St E,19,FALSE,KEY,TRANSITCARD,CREDITCARD,PHONE,East,Financial District,,,
7476,Symington Ave / Dupont St,REGULAR,43.665538,-79.451263,,Symington Ave / Dupont St,15,FALSE,KEY,TRANSITCARD,CREDITCARD,PHONE,West,Davenport - Dupont,,,
7477,Antler St / Campbell Ave - SMART,SMARTMAPFRAME,43.664182,-79.449066,,Antler St / Campbell Ave - SMART,20,FALSE,KEY,TRANSITCARD,PHONE,,West,Davenport - Dupont,,,
7478,Ellis Ave / The Queensway,REGULAR,43.63855,-79.46693,,Ellis Ave / The Queensway,18,FALSE,KEY,TRANSITCARD,CREDITCARD,PHONE,West,Humber Bay Shores,,,
7479,Jane St / Bloor St W (Jane Subway Station),REGULAR,43.64976,-79.48477,,Jane St / Bloor St W (Jane Subway Station),15,FALSE,KEY,TRANSITCARD,CREDITCARD,PHONE,West,Bloor St W - High Park,,,
7480,Neil McLellan Park,REGULAR,43.65143,-79.47779,,Neil McLellan Park,14,FALSE,KEY,TRANSITCARD,CREDITCARD,PHONE,West,Bloor St W - High Park,,,
7483,Southwood Dr / Kingston Rd - SMART,SMARTMAPFRAME,43.678685,-79.297974,,Southwood Dr / Kingston Rd - SMART,12,FALSE,KEY,TRANSITCARD,PHONE,,East,Leslieville - Woodbine,,,
7484,Briar Hill Ave / Yonge St - SMART,SMARTMAPFRAME,43.713524,-79.400162,,Briar Hill Ave / Yonge St - SMART,16,FALSE,KEY,TRANSITCARD,PHONE,,North,Mid Town,,,
7485,Blythwood Rd / Yonge St - SMART,SMARTMAPFRAME,43.716652,-79.399993,,Blythwood Rd / Yonge St - SMART,13,FALSE,KEY,TRANSITCARD,PHONE,,North,Mid Town,,,
7486,Gerrard St E / Main St,REGULAR,43.684261,-79.299332,,Gerrard St E / Main St,23,FALSE,KEY,TRANSITCARD,CREDITCARD,PHONE,Leslieville - Woodbine,,,,
7487,Eastwood Rd / Woodbine Ave - SMART,SMARTMAPFRAME,43.676216,-79.309395,,Eastwood Rd / Woodbine Ave,15,FALSE,KEY,TRANSITCARD,PHONE,,East,Leslieville - Woodbine,,,
7488,Summerhill Ave / Maclennan Ave,REGULAR,43.685924,-79.376304,,Summerhill Ave / Maclennan Ave,11,FALSE,KEY,TRANSITCARD,CREDITCARD,PHONE,East,Davenport - Dupont,,,
7489,Sumach St  / Queen St E,REGULAR,43.656638,-79.358749,,Sumach St  / Queen St E,19,FALSE,KEY,TRANSITCARD,CREDITCARD,PHONE,East,Regent Park - Distillery,,,
7492,Cherry St / Lake Shore Blvd E,REGULAR,43.64827015761016,-79.35651734,,324 Cherry St,15,FALSE,KEY,TRANSITCARD,CREDITCARD,PHONE,East,Watefront,,,
7493,Sackville St / Eastern Ave - SMART,SMARTMAPFRAME,43.653809,-79.3595,,Sackville St / Eastern Ave - SMART,12,FALSE,KEY,TRANSITCARD,PHONE,,East,Regent Park - Distillery,,,
7494,Davenport Rd / McAlpine St - SMART,SMARTMAPFRAME,43.673768,-79.391253,,Davenport Rd / McAlpine St - SMART,12,FALSE,KEY,TRANSITCARD,PHONE,,North,Davenport - Dupont,,,
7496,Sunnyside Ave / The Queensway - SMART,SMARTMAPFRAME,43.6397,-79.44865,,Sunnyside Ave / The Queensway - SMART,19,FALSE,KEY,TRANSITCARD,PHONE,,West,Liberty Village - Queen West,,,
7497,128 Sterling Rd - SMART,SMARTMAPFRAME,43.654004,-79.444792,,128 Sterling Ave - SMART,20,FALSE,KEY,TRANSITCARD,PHONE,,West,College St - Harbord St,,,
7501,Humberside Grounds - SMART,SMARTMAPFRAME,43.65917,-79.46997,,Humberside Grounds - SMART,20,FALSE,KEY,TRANSITCARD,PHONE,,West,Bloor St W - High Park,,,
7502,University Ave / College St (East),REGULAR,43.65995,-79.38964,,University Ave / College St (East),20,FALSE,KEY,TRANSITCARD,CREDITCARD,PHONE,South,U of T - Hospital Row,,,
7503,Gerrard St E / Malvern Ave - SMART,SMARTMAPFRAME,43.685221,-79.294766,,Gerrard St E / Malvern Ave - SMART,20,FALSE,KEY,TRANSITCARD,PHONE,,East,Leslieville - Woodbine,,,
7504,Gerrard St E / Victoria Park Ave - SMART,SMARTMAPFRAME,43.686962,-79.286864,,Gerrard St E / Victoria Park Ave,16,FALSE,KEY,TRANSITCARD,PHONE,,East,Leslieville - Woodbine,,,
7505,Ontario St / Adelaide St E -SMART,SMARTMAPFRAME,43.6535052,-79.3667689,,Ontario St / Adelaide St E -SMART,18,FALSE,KEY,TRANSITCARD,PHONE,,East,Regent Park - Distillery,,,
7506,Berkeley St / Adelaide St E - SMART,SMARTMAPFRAME,43.653359,-79.365023,,Berkeley St / Adelaide St E - SMART,12,FALSE,KEY,TRANSITCARD,PHONE,,East,Regent Park - Distillery,,,
7508,Berkeley St / Dundas St E - SMART,SMARTMAPFRAME,43.658816,-79.367318,,Berkeley St / Dundas St E - SMART,20,FALSE,KEY,TRANSITCARD,PHONE,,East,Regent Park - Distillery,,,
7514,Humber Bay Shores Park / Marine Parade Dr,REGULAR,43.626265,-79.476723,0,Humber Bay Shores Park / Marine Parade Dr,62,FALSE,KEY,TRANSITCARD,CREDITCARD,PHONE,West,Humber Bay Shores,,,
7515,Amos Waites Park,REGULAR,43.613606,-79.4883535,0,Amos Waites Park,27,FALSE,KEY,TRANSITCARD,CREDITCARD,PHONE,West,Humber Bay Shores,,,
7516,Superior Ave / Lake Shore Blvd W,REGULAR,43.6146692,-79.4873148,0,Superior Ave / Lake Shore Blvd W,17,FALSE,KEY,TRANSITCARD,CREDITCARD,PHONE,West,Humber Bay Shores,,,
7517,Ripley Ave / Ormskirk Ave,REGULAR,43.6390437,-79.4760109,0,Ripley Ave / Ormskirk Ave,23,FALSE,KEY,TRANSITCARD,CREDITCARD,PHONE,West,Bloor St W - High Park,,,
7518,Lake Shore Blvd W / Colborne Lodge Dr,REGULAR,43.63771,-79.458173,0,Lake Shore Blvd W / Colborne Lodge Dr,27,FALSE,KEY,TRANSITCARD,CREDITCARD,PHONE,West,Humber Bay Shores,,,
7519,406 Oakwood Ave,REGULAR,43.68827060022711,-79.43937767,0,"406 Oakwood Ave, York, ON M6E 2W3",19,FALSE,KEY,TRANSITCARD,CREDITCARD,PHONE,West,Eglinton Ave W,,,
7520,St Clarens Ave / Shirley St,REGULAR,43.6486599,-79.4376413,0,St Clarens Ave / Shirley Ave,15,FALSE,KEY,TRANSITCARD,CREDITCARD,PHONE,West,College St - Harbord St,,,
7521,Emerson Ave / Bloor St W,REGULAR,43.658739,-79.440691,0,Emerson Ave / Bloor St W,23,FALSE,KEY,TRANSITCARD,CREDITCARD,PHONE,West,Bloor St W / Annex,,,
7522,Wallace Ave / Pauline Ave,REGULAR,43.6632257,-79.4397052,0,Wallace Ave / Pauline Ave,17,FALSE,KEY,TRANSITCARD,CREDITCARD,PHONE,West,Davenport - Dupont,,,
7523,Lynn Williams St / East Liberty St,REGULAR,43.638925,-79.4168659,0,Lynn Williams St / East Liberty St,15,FALSE,KEY,TRANSITCARD,CREDITCARD,PHONE,West,Liberty Village - Queen West,,,
7524,Lisgar Park,REGULAR,43.6423847,-79.4240277,0,Lisgar Park,35,FALSE,KEY,TRANSITCARD,CREDITCARD,PHONE,West,Liberty Village - Queen West,,,
7526,Bartlett Parkette,REGULAR,43.6702236,-79.4360232,0,Bartlett Parkette,23,FALSE,KEY,TRANSITCARD,CREDITCARD,PHONE,West,Annex Efit drop off,,,
7527,Joseph J Piccininni Community Centre,REGULAR,43.675648,-79.4527619,0,Joseph J Piccininni Community Centre,19,FALSE,KEY,TRANSITCARD,CREDITCARD,PHONE,West,St Clair Ave W,,,
7528,Spadina Rd / Austin Terrace,REGULAR,43.67883,-79.408723,0,Spadina Rd / Austin Terrace,17,FALSE,KEY,TRANSITCARD,CREDITCARD,PHONE,North,Annex Efit drop off,,,
7529,Symington Ave / Davenport Rd,REGULAR,43.6704403,-79.4532855,0,Symington Ave / Davenport Rd,15,FALSE,KEY,TRANSITCARD,CREDITCARD,PHONE,West,Davenport - Dupont,,,
7530,Sherbourne St N / Elm Ave,REGULAR,43.6752732,-79.3778458,0,Sherbourne St N / Elm Ave,22,FALSE,KEY,TRANSITCARD,CREDITCARD,PHONE,East,Davenport - Dupont,,,
7531,541 Huron St - SMART,SMARTMAPFRAME,43.670206,-79.402643,0,541 Huron St,20,FALSE,KEY,TRANSITCARD,PHONE,,North,Annex Efit drop off,,,
7533,Housey St / Dan Leckie Way,REGULAR,43.63811,-79.397877,0,Housey St / Dan Leckie Way,27,FALSE,KEY,TRANSITCARD,CREDITCARD,PHONE,South,Fort York - Entertainment District,,,
7534,Walnut Ave / Queen St W,REGULAR,43.645469,-79.411084,0,Walnut Ave / Queen St W,15,FALSE,KEY,TRANSITCARD,CREDITCARD,PHONE,West,Liberty Village - Queen West,,,
7536,Palmerston Ave / Dundas St W,REGULAR,43.651603,-79.408346,0,Palmerston Ave / Dundas St W,23,FALSE,KEY,TRANSITCARD,CREDITCARD,PHONE,West,College St - Harbord St,,,
7537,Euclid Ave / Herrick St - SMART,SMARTMAPFRAME,43.661559,-79.413845,0,Euclid Ave / Herrick St,16,FALSE,KEY,TRANSITCARD,PHONE,,West,College St - Harbord St,,,
7538,Vaughan Rd /Wychwood Ave,REGULAR,43.6882821,-79.4253856,0,Vaughan Rd /Wychwood Ave,19,FALSE,KEY,TRANSITCARD,CREDITCARD,PHONE,West,Eglinton Ave W,,,
7539,Davisville Ave / Pailton Cres,REGULAR,43.69933,-79.39199,0,Davisville Ave / Pailton Cres,19,FALSE,KEY,TRANSITCARD,CREDITCARD,PHONE,North,Mid Town,,,
7540,Alvin Ave / St Clair Ave E,REGULAR,43.68871,-79.39264,0,Alvin Ave / St Clair Ave E,19,FALSE,KEY,TRANSITCARD,CREDITCARD,PHONE,North,Mid Town,,,
7541,Bellwoods Ave / Treford Pl - SMART,SMARTMAPFRAME,43.65246,-79.413528,0,Bellwoods Ave / Treford Pl,20,FALSE,KEY,TRANSITCARD,PHONE,,West,College St - Harbord St,,,
7542,Queen St W / John St,REGULAR,43.650077,-79.391291,0,Queen St W / John St,23,FALSE,KEY,TRANSITCARD,CREDITCARD,PHONE,South,Fort York - Entertainment District,,,
7543,Nassau St / Bellevue Ave,REGULAR,43.65484215542248,-79.40351232,0,Nassau St / Bellvue Ave,15,FALSE,KEY,TRANSITCARD,CREDITCARD,PHONE,South,College St - Harbord St,,,
7545,Baldwin St / Henry St,REGULAR,43.6560758,-79.393259,0,Baldwin St / Henry St,15,FALSE,KEY,TRANSITCARD,CREDITCARD,PHONE,South,U of T - Hospital Row,,,
7546,Ross St / Cecil St - SMART,SMARTMAPFRAME,43.6568254,-79.3966159,0,Ross St / Cecil St,18,FALSE,KEY,TRANSITCARD,PHONE,,South,U of T - Hospital Row,,,
7547,Orde St / McCaul St,REGULAR,43.6580442,-79.3927404,0,Orde St / McCaul St,15,FALSE,KEY,TRANSITCARD,CREDITCARD,PHONE,South,U of T - Hospital Row,,,
7548,St. Joseph St / Bay St - SMART,SMARTMAPFRAME,43.6658804,-79.3876101,0,St Joseph St / Bay St,20,FALSE,KEY,TRANSITCARD,PHONE,,South,U of T - Hospital Row,,,
7549,439 Sherbourne St,REGULAR,43.666051,-79.374161,0,439 Sherbourne St,47,FALSE,KEY,TRANSITCARD,CREDITCARD,PHONE,East,Church Wellesley / Yorkville,,,
7552,Lake Shore Blvd W / Thirty Ninth Street,REGULAR,43.5927419,-79.5403301,0,Lake Shore Blvd W / Thirty Ninth Street,19,FALSE,KEY,TRANSITCARD,CREDITCARD,PHONE,West,Humber Bay Shores,,,
7553,Lake Shore Blvd W / Twenty Fourth St,REGULAR,43.597082,-79.522768,0,Lake Shore Blvd W / Twenty Fourth St,19,FALSE,KEY,TRANSITCARD,CREDITCARD,PHONE,West,Humber Bay Shores,,,
7554,Humber College (Lakeshore Campus),REGULAR,43.5961692,-79.5160575,0,Humber College,26,FALSE,KEY,TRANSITCARD,CREDITCARD,PHONE,West,Humber Bay Shores,,,
7555,Royal York Rd / Mimico Ave,REGULAR,43.612063,-79.496573,0,Royal York Rd / Mimico Ave,20,FALSE,KEY,TRANSITCARD,CREDITCARD,PHONE,West,Humber Bay Shores,,,
7556,Windsor St / Newcastle St,REGULAR,43.6171635,-79.4971065,0,Windsor St / Newcastle St,31,FALSE,KEY,TRANSITCARD,CREDITCARD,PHONE,West,Humber Bay Shores,,,
7557,The Queensway / High St,REGULAR,43.630874,-79.482407,0,The Queensway / High St,23,FALSE,KEY,TRANSITCARD,CREDITCARD,PHONE,West,Humber Bay Shores,,,
7558,Berry Rd / Bell Manor Dr,REGULAR,43.63732,-79.489083,0,Berry Rd / Bell Manor Dr,19,FALSE,KEY,TRANSITCARD,CREDITCARD,PHONE,West,Bloor St W - High Park,,,
7559,Swansea Community Centre,REGULAR,43.6438036,-79.4770327,0,Swansea Community Centre,15,FALSE,KEY,TRANSITCARD,CREDITCARD,PHONE,West,Bloor St W - High Park,,,
7561,Annette St / Jane St,REGULAR,43.658574,-79.487246,0,Annette St / Jane St,15,FALSE,KEY,TRANSITCARD,CREDITCARD,PHONE,West,Bloor St W - High Park,,,
7562,Priscilla Ave / Dundas St W,REGULAR,43.664665,-79.489385,0,Priscilla  Ave / Dundas St W,23,FALSE,KEY,TRANSITCARD,CREDITCARD,PHONE,West,Bloor St W - High Park,,,
7563,St Clair Ave W / Castleton Ave,REGULAR,43.668496,-79.485426,0,St Clair Ave W / Castleton Ave,19,FALSE,KEY,TRANSITCARD,CREDITCARD,PHONE,West,St Clair Ave W,,,
7564,Durie St / Dundas St W,REGULAR,43.665523,-79.484892,0,Durie St / Dundas St W,23,FALSE,KEY,TRANSITCARD,CREDITCARD,PHONE,West,Bloor St W - High Park,,,
7565,St Clair Ave W / Gunns Rd,REGULAR,43.672079,-79.470171,0,St Clair Ave W / Gunns Rd,23,FALSE,KEY,TRANSITCARD,CREDITCARD,PHONE,West,St Clair Ave W,,,
7566,Weston Rd / St Clair Ave W,REGULAR,43.673019,-79.467994,0,Weston Rd / St Clair Ave W,19,FALSE,KEY,TRANSITCARD,CREDITCARD,PHONE,West,St Clair Ave W,,,
7567,Weston Lions Park,REGULAR,43.698841,-79.519472,0,Weston Lions Park,27,FALSE,KEY,TRANSITCARD,CREDITCARD,PHONE,West,Eglinton Ave W,,,
7568,Jameson Ave / Queen St W,REGULAR,43.63985,-79.43703,0,Jameson Ave / Queen St W,26,FALSE,KEY,TRANSITCARD,CREDITCARD,PHONE,West,Liberty Village - Queen West,,,
7569,Toronto Inukshuk Park,REGULAR,43.6323994,-79.4097818,0,Toronto Inukshuk Park,45,FALSE,KEY,TRANSITCARD,CREDITCARD,PHONE,West,Watefront,,,
7570,Carlaw Ave / Dundas St E,REGULAR,43.665076,-79.341509,0,Carlaw Ave / Dundas St E,17,FALSE,KEY,TRANSITCARD,CREDITCARD,PHONE,East,Leslieville - Woodbine,,,
7571,Highfield Rd / Gerrard St E,REGULAR,43.671771,-79.324961,0,Highfield Rd / Gerrard St E,19,FALSE,KEY,TRANSITCARD,CREDITCARD,PHONE,East,Leslieville - Woodbine,,,
7572,Cosburn Ave / Durant Ave,REGULAR,43.6935477,-79.3301658,0,Cosburn Ave / Durant Ave,15,FALSE,KEY,TRANSITCARD,CREDITCARD,PHONE,East,Danforth,,,
7575,Bayview Ave / Lawren Harris Square,REGULAR,43.6548521,-79.3539768,0,207 Eastern Avenue,14,FALSE,KEY,TRANSITCARD,CREDITCARD,PHONE,East,Regent Park - Distillery,,,
7576,Front St E / Bayview Avenue,REGULAR,43.6535,-79.354068,0,Front St E / Bayview Avenue,22,FALSE,KEY,TRANSITCARD,CREDITCARD,PHONE,East,Regent Park - Distillery,,,
7577,Oak St / Sumach St,REGULAR,43.6617908,-79.361515,0,Oak St / Sumach St,27,FALSE,KEY,TRANSITCARD,CREDITCARD,PHONE,East,Regent Park - Distillery,,,
7579,Glebe Rd W / Yonge St,REGULAR,43.7005976,-79.397345,0,Glebe Rd / Yonge St,19,FALSE,KEY,TRANSITCARD,CREDITCARD,PHONE,North,Mid Town,,,
7580,Hillsdale Ave W / Yonge St,REGULAR,43.7029672,-79.3979073,0,Hillsdale Ave W / Yonge St,15,FALSE,KEY,TRANSITCARD,CREDITCARD,PHONE,North,Mid Town,,,
7581,High Park Ave / Dundas St W,REGULAR,43.6653032,-79.4701178,0,345 High Park Ave,15,FALSE,KEY,TRANSITCARD,CREDITCARD,PHONE,West,Bloor St W - High Park,,,
7582,Alameda Ave / Vaughan Rd - SMART,SMARTMAPFRAME,43.690903,-79.4375028,0,Amaleda Ave / Vaughan Rd,16,FALSE,KEY,TRANSITCARD,PHONE,,West,Eglinton Ave W,,,
7583,Eglinton Ave W / Scarlett Rd,REGULAR,43.6834703,-79.5108942,0,Eglinton Ave W / Scarlett Rd,22,FALSE,KEY,TRANSITCARD,CREDITCARD,PHONE,West,Eglinton Ave W,,,
7584,The Pond Rd / Sentinel Rd,REGULAR,43.7696262,-79.5025943,0,The Pond Rd / Sentinel Rd,27,FALSE,KEY,TRANSITCARD,CREDITCARD,PHONE,North,North York - York U,,,
7585,Sentinel Rd / Finch Corridor Trail,REGULAR,43.7641485,-79.5012809,0,Sentinel Rd / Finch Hydro Corridor,27,FALSE,KEY,TRANSITCARD,CREDITCARD,PHONE,North,North York - York U,,,
7586,Finch West Subway Station,REGULAR,43.76521,-79.491281,0,Finch West Subway Station,23,FALSE,KEY,TRANSITCARD,CREDITCARD,PHONE,North,North York - York U,,,
7587,Dufferin St / Finch Corridor Trail,REGULAR,43.7724019,-79.4675395,0,Dufferin St / Finch Hydro Recreational Trail,19,FALSE,KEY,TRANSITCARD,CREDITCARD,PHONE,North,North York - York U,,,
7588,G Ross Lord Park,REGULAR,43.7781116,-79.467963,0,G Ross Lord Park,19,FALSE,KEY,TRANSITCARD,CREDITCARD,PHONE,North,North York - York U,,,
7589,Torresdale Ave / Antibes Dr,REGULAR,43.77953,-79.45233,0,Torresdale Ave / Antibes Dr,15,FALSE,KEY,TRANSITCARD,CREDITCARD,PHONE,North,North York - York U,,,
7590,Esther Shiner Stadium,REGULAR,43.7774374,-79.4447096,0,Ester Shiner Stadium,23,FALSE,KEY,TRANSITCARD,CREDITCARD,PHONE,North,North York - York U,,,
7591,Elwood Blvd / Avenue Rd,REGULAR,43.707049,-79.40966,0,Elwood Blvd / Avenue Rd,23,FALSE,KEY,TRANSITCARD,CREDITCARD,PHONE,North,Mid Town,,,
7593,Roehampton Ave / Bayview Ave,REGULAR,43.711751,-79.378615,0,Roehampton St / Bayview Ave,27,FALSE,KEY,TRANSITCARD,CREDITCARD,PHONE,North,Thorncliffe Park - Sunnybrook,,,
7594,Fleming Cres / Bayview Ave,REGULAR,43.707045,-79.375437,0,Fleming Cres / Bayview Ave,15,FALSE,KEY,TRANSITCARD,CREDITCARD,PHONE,North,Thorncliffe Park - Sunnybrook,,,
7595,Moore Park,REGULAR,43.693256,-79.383238,0,Moore Park,15,FALSE,KEY,TRANSITCARD,CREDITCARD,PHONE,North,Mid Town,,,
7596,Langford Ave / Danforth Ave - SMART,SMARTMAPFRAME,43.6800218,-79.3405681,0,840 Danforth Ave,32,FALSE,KEY,TRANSITCARD,PHONE,,East,Danforth,,,
7597,Yonge St / Golfdale Rd,REGULAR,43.732016,-79.403637,0,Yonge St / Golfdale Rd,15,FALSE,KEY,TRANSITCARD,CREDITCARD,PHONE,North,Thorncliffe Park - Sunnybrook,,,
7598,Teddington Park Ave,REGULAR,43.732975,-79.40401,0,Teddington Park Ave,15,FALSE,KEY,TRANSITCARD,CREDITCARD,PHONE,North,Thorncliffe Park - Sunnybrook,,,
7599,Richmond St W / York St,REGULAR,43.650745,-79.383633,0,Richmond St W / York St,17,FALSE,KEY,TRANSITCARD,CREDITCARD,PHONE,South,Financial District,,,
7600,Ursula Franklin St / Huron St - SMART,SMARTMAPFRAME,43.660274,-79.398049,0,Ursula Franklin St / Huron St,20,FALSE,KEY,TRANSITCARD,PHONE,,South,U of T - Hospital Row,,,
7601,Brick Works,REGULAR,43.683884,-79.36647,0,Brick Works,22,FALSE,KEY,TRANSITCARD,CREDITCARD,PHONE,East,Davenport - Dupont,,,
7602,Woodbine Ave / O'Connor Dr,REGULAR,43.699281,-79.318802,0,Woodbine Ave / O'Connor Dr,19,FALSE,KEY,TRANSITCARD,CREDITCARD,PHONE,East,Danforth,,,
7603,O'Connor Dr / Curity Ave,REGULAR,43.707582,-79.311439,0,O'Connor Dr / Curity Ave,14,FALSE,KEY,TRANSITCARD,CREDITCARD,PHONE,East,Scarborough - St. Clair,,,
7604,St Columba Pl / St Clair Ave E,REGULAR,43.70567,-79.310554,0,St Columba Pl / St Clair Ave E,18,FALSE,KEY,TRANSITCARD,CREDITCARD,PHONE,East,Scarborough - St. Clair,,,
7605,Lumsden Ave / Eastdale Ave,REGULAR,43.69413548199171,-79.30058719,0,Lumsden Ave / Eastdale Ave,20,FALSE,KEY,TRANSITCARD,CREDITCARD,PHONE,East,Danforth,,,
7606,Dawes Rd / Taylor Creek Trl,REGULAR,43.696631,-79.297436,0,Dawes Rd / Taylor Creek Trl,19,FALSE,KEY,TRANSITCARD,CREDITCARD,PHONE,East,Danforth,,,
7607,Fairmount Park,REGULAR,43.6765897,-79.3163022,0,Fairmount Park,19,FALSE,KEY,TRANSITCARD,CREDITCARD,PHONE,East,Leslieville - Woodbine,,,
7608,Wilket Creek Park,REGULAR,43.720645,-79.355474,0,Wilket Creek Park,27,FALSE,KEY,TRANSITCARD,CREDITCARD,PHONE,North,Thorncliffe Park - Sunnybrook,,,
7609,Sunnybrook Park,REGULAR,43.720233,-79.362092,0,Sunnybrook Park,27,FALSE,KEY,TRANSITCARD,CREDITCARD,PHONE,North,Thorncliffe Park - Sunnybrook,,,
7610,Kingston Rd / Beech Ave,REGULAR,43.680095,-79.291714,0,Kingston Rd / Beech Ave,15,FALSE,KEY,TRANSITCARD,CREDITCARD,PHONE,East,Leslieville - Woodbine,,,
7611,Victoria Park Ave / Danforth Ave,REGULAR,43.691468,-79.288619,0,Victoria Park Ave / Danforth Ave,19,FALSE,KEY,TRANSITCARD,CREDITCARD,PHONE,East,Danforth,,,
7612,Livingston Rd / Guildwood Pkwy,REGULAR,43.747854,-79.199327,0,Livingston Rd / Guildwood Pkwy,19,FALSE,KEY,TRANSITCARD,CREDITCARD,PHONE,East,Scarborough - Rouge Hill,,,
7613,Livingston Rd (Highland Creek Trail),REGULAR,43.7561681,-79.2026694,0,Livingston Rd (Highland Creek Trail),19,FALSE,KEY,TRANSITCARD,CREDITCARD,PHONE,East,Scarborough - Rouge Hill,,,
7614,Morningside Park (Highland Creek Trail),REGULAR,43.779353,-79.193023,0,Morningside Park (Highland Creek Trail),23,FALSE,KEY,TRANSITCARD,CREDITCARD,PHONE,East,Scarborough - Rouge Hill,,,
7615,Colonel Danforth Park,REGULAR,43.7777114,-79.1659711,0,Colonel Danforth Park,19,FALSE,KEY,TRANSITCARD,CREDITCARD,PHONE,East,Scarborough - Rouge Hill,,,
7616,Waterfront Trail (Rouge Hill),REGULAR,43.778015,-79.131911,0,Waterfront Trail (Rouge Hill),19,FALSE,KEY,TRANSITCARD,CREDITCARD,PHONE,East,Scarborough - Rouge Hill,,,
7617,Starspray Blvd / Lawrence Ave E,REGULAR,43.788525214554085,-79.12318448,0,Starspray Ave / Lawrence Ave E,19,FALSE,KEY,TRANSITCARD,CREDITCARD,PHONE,East,Scarborough - Rouge Hill,,,
7618,Vaughan Rd / Oakwood Ave,REGULAR,43.6926825,-79.441042,0,Vaughan Rd / Oakwood Ave,19,FALSE,KEY,TRANSITCARD,CREDITCARD,PHONE,West,Eglinton Ave W,,,
7619,Braemar Ave / Eglinton Ave W,REGULAR,43.7041957,-79.4094472,0,Braemar Ave / Eglinton Ave W,15,FALSE,KEY,TRANSITCARD,CREDITCARD,PHONE,North,Mid Town,,,
7620,Eglinton Ave E / Redpath Ave,REGULAR,43.7078691,-79.39248,0,Eglinton Ave E / Redpath Av,31,FALSE,KEY,TRANSITCARD,CREDITCARD,PHONE,North,Mid Town,,,
7622,Marie Curtis Park,REGULAR,43.5880774,-79.5432067,0,Marie Curtis Park,23,FALSE,KEY,TRANSITCARD,CREDITCARD,PHONE,West,Humber Bay Shores,,,
7623,Royal York Rd / Lake Shore Blvd W,REGULAR,43.6029904,-79.4926867,0,Royal York Rd / Lake Shore Blvd W,19,FALSE,KEY,TRANSITCARD,CREDITCARD,PHONE,West,Humber Bay Shores,,,
7624,Guildwood GO Station (South),REGULAR,43.754978,-79.1971289,0,Guildwood GO Station (South),11,FALSE,KEY,TRANSITCARD,CREDITCARD,PHONE,East,Scarborough - Rouge Hill,,,
7625,Yonge St / Lawrence Ave E,REGULAR,43.7254665,-79.4011545,0,24 Lawrence Ave East,23,FALSE,KEY,TRANSITCARD,CREDITCARD,PHONE,North,Thorncliffe Park - Sunnybrook,,,
7626,Rouge Hill GO Station,REGULAR,43.7805505,-79.1301203,0,Rouge Hill GO Station,25,FALSE,KEY,TRANSITCARD,CREDITCARD,PHONE,East,Scarborough - Rouge Hill,,,
7627,Shaw St / Essex St - SMART,SMARTMAPFRAME,43.667076,-79.425116,0,Shaw St / Essex St - SMART,15,FALSE,KEY,TRANSITCARD,PHONE,,West,Davenport - Dupont,,,
7629,Lundy Ave / Étienne Brûlé Park,REGULAR,43.6625395,-79.5030161,0,Lundy Ave / Etienne Brule Park,15,FALSE,KEY,TRANSITCARD,CREDITCARD,PHONE,West,Bloor St W - High Park,,,
7630,Twelfth St / Thirteenth St,REGULAR,43.6002896,-79.5108692,0,Twelfth St / Thirteenth St,22,FALSE,KEY,TRANSITCARD,CREDITCARD,PHONE,West,Humber Bay Shores,,,
7631,Florence Gell Park,REGULAR,43.66196582326018,-79.49851065,,Florence Gell Park,15,FALSE,KEY,TRANSITCARD,CREDITCARD,PHONE,West,Bloor St W - High Park,,,
7632,Chiltern Hill Rd / Eglinton Ave W,REGULAR,43.7004017,-79.4275305,0,Chiltern Hill Rd / Eglinton Ave W,17,FALSE,KEY,TRANSITCARD,CREDITCARD,PHONE,North,Eglinton Ave W,,,
7633,Noble St / Queen St W,REGULAR,43.6424558,-79.4296346,0,1266 Queen St W,15,FALSE,KEY,TRANSITCARD,CREDITCARD,PHONE,West,Liberty Village - Queen West,,,
7635,Runnymede Rd / Annette St,REGULAR,43.6596299,-79.4799176,0,Runnymede Rd / Annette St,15,FALSE,KEY,TRANSITCARD,CREDITCARD,PHONE,West,Bloor St W - High Park,,,
7636,Bloor St W / Riverside Dr,REGULAR,43.647663,-79.487583,0,2511 bloor st w,23,FALSE,KEY,TRANSITCARD,CREDITCARD,PHONE,West,Bloor St W - High Park,,,
7637,Judson St / Royal York Rd,REGULAR,43.6162721,-79.4990363,0,10 Judson St,19,FALSE,KEY,TRANSITCARD,CREDITCARD,PHONE,West,Humber Bay Shores,,,
7639,135 Queens Wharf Rd - SMART,SMARTMAPFRAME,43.6399714,-79.399404,0,135 Queens Warf,16,FALSE,KEY,TRANSITCARD,PHONE,,South,Fort York - Entertainment District,,,
7640,Spadina Rd / St.Clair Ave West,REGULAR,43.683979,-79.410657,0,333 St.Clair Ave West,15,FALSE,KEY,TRANSITCARD,CREDITCARD,PHONE,North,St Clair Ave W,,,
7641,Annette St / Dundas St W,REGULAR,43.6641174,-79.4588522,0,2659 Dundas St W,15,FALSE,KEY,TRANSITCARD,CREDITCARD,PHONE,West,Davenport - Dupont,,,
7642,Yonge St / St. Clair Ave,REGULAR,43.68850460000001,-79.39416077,0,1451 Yonge Street,19,FALSE,KEY,TRANSITCARD,CREDITCARD,PHONE,North,Mid Town,,,
7643,Oriole Pkwy / Kilbarry Rd,REGULAR,43.6954486,-79.4026176,0,80 Oriole Parkway,19,FALSE,KEY,TRANSITCARD,CREDITCARD,PHONE,North,Mid Town,,,
7644,East Lynn Ave / Danforth Ave,REGULAR,43.6850809,-79.3149901,0,108 East Lynn Avenue,15,FALSE,KEY,TRANSITCARD,CREDITCARD,PHONE,East,Danforth,,,
7645,University of Toronto Scarborough,REGULAR,43.7842419,-79.1849889,0,1295-1307 Military Trail,16,FALSE,KEY,TRANSITCARD,CREDITCARD,PHONE,East,Scarborough - Rouge Hill,,,
7646,University Ave / Richmond St W,REGULAR,43.64981903446256,-79.3864127,0,200 University Avenue,15,FALSE,KEY,TRANSITCARD,CREDITCARD,PHONE,South,Financial District,,,
7647,Elm St/ University Ave (East Side),REGULAR,43.65637299999999,-79.3878104,0,117 Elm Street,17,FALSE,KEY,TRANSITCARD,CREDITCARD,PHONE,South,U of T - Hospital Row,,,
7650,St Clair West Subway Station - Heath Entrance,REGULAR,43.686352,-79.415894,0,2 Heath Street West,23,FALSE,KEY,TRANSITCARD,CREDITCARD,PHONE,North,St Clair Ave W,,,
7654,Bloor St W / Pacific Ave,REGULAR,43.65412449999999,-79.4636388,0,3 Pacific Avenue,7,FALSE,KEY,TRANSITCARD,CREDITCARD,PHONE,West,Bloor St W - High Park,,,
7655,Danforth Ave / Dewhurst Blvd,REGULAR,43.680207,-79.339243,0,896 Danforth Avenue,15,FALSE,KEY,TRANSITCARD,CREDITCARD,PHONE,East,Danforth,,,
7656,Bloor St W / Brock Ave,REGULAR,43.6589882,-79.438715,0,Bloor St W / Brock Av,11,FALSE,KEY,TRANSITCARD,CREDITCARD,PHONE,West,Bloor St W / Annex,,,
7657,1 Market St,ELECTRICBIKESTATION,43.6469928,-79.3706665,0,1 Market St,20,TRUE,KEY,TRANSITCARD,CREDITCARD,PHONE,E-Charging ,East,,,
7658,King's Mill Park,REGULAR,43.64920406876699,-79.49336334,0,2639 Bloor St W,27,FALSE,KEY,TRANSITCARD,CREDITCARD,PHONE,West,Bloor St W - High Park,,,
7659,Amroth Ave / Danforth Ave,REGULAR,43.6856128,-79.3116827,0,Amroth Ave / Danforth Ave,19,FALSE,KEY,TRANSITCARD,CREDITCARD,PHONE,East,Danforth,,,
7660,285 Victoria St,REGULAR,43.656633,-79.379625,0,285 Victoria St,39,FALSE,KEY,TRANSITCARD,CREDITCARD,PHONE,South,Financial District,,,
7662,Beaty Ave / Queen St W,REGULAR,43.6393107,-79.4408141,0,85 Beaty Avenue,19,FALSE,KEY,TRANSITCARD,CREDITCARD,PHONE,West,Liberty Village - Queen West,,,
7663,Kilgour Rd / Rumsey Rd,REGULAR,43.718039,-79.371914,0,98 Glenvale Boulevard,17,FALSE,KEY,TRANSITCARD,CREDITCARD,PHONE,North,Thorncliffe Park - Sunnybrook,,,
7664,Sunnybrook Health Centre - L Wing,REGULAR,43.72268,-79.37644,0,60 Raab Blvd,15,FALSE,KEY,TRANSITCARD,CREDITCARD,PHONE,North,Thorncliffe Park - Sunnybrook,,,
7665,Sunnybrook Health Centre - S Wing,REGULAR,43.720998,-79.377456,0,Test,11,FALSE,KEY,TRANSITCARD,CREDITCARD,PHONE,North,Thorncliffe Park - Sunnybrook,,,
7666,Dundas St W / St Helen's Ave - SMART,SMARTMAPFRAME,43.6504218,-79.4407647,0,505 College Street,26,FALSE,KEY,TRANSITCARD,PHONE,,West,College St - Harbord St,,,
7667,Spadina Ave / Sussex Ave ,REGULAR,43.66402799999999,-79.4029787,0,698 Spadina Avenue,34,FALSE,KEY,TRANSITCARD,CREDITCARD,PHONE,South,U of T - Hospital Row,,,
7668,Simcoe St / Dundas St W,ELECTRICBIKESTATION,43.655103,-79.389295,0,Simcoe St / Dundas St W,20,TRUE,KEY,TRANSITCARD,CREDITCARD,PHONE,E-Charging ,South,,,
7671,Yonge St / Montgomery Ave - SMART,SMARTMAPFRAME,43.70960859570095,-79.39915125,0,25 Montgomery Ave,12,FALSE,KEY,TRANSITCARD,PHONE,,North,Mid Town,,,
7675,1525 Dundas St W,REGULAR,43.64957,-79.432446,0,1529 Dundas Street West,15,FALSE,KEY,TRANSITCARD,CREDITCARD,PHONE,West,College St - Harbord St,,,
7676,York University (Glendon Campus) - SMART,SMARTMAPFRAME,43.727365488246306,-79.38142546,0,"1 Chedington Pl, North York, ON M4N 3R4",16,FALSE,KEY,TRANSITCARD,PHONE,,North,Thorncliffe Park - Sunnybrook,,,
7677,1303 Yonge St - SMART,SMARTMAPFRAME,43.6846177,-79.3924592,0,1303 YONGE Street,16,FALSE,KEY,TRANSITCARD,PHONE,,North,Davenport - Dupont,,,
7678,York University Station (South) - SMART,SMARTMAPFRAME,43.77345,-79.5002,0,York University Station - SMART,16,FALSE,KEY,TRANSITCARD,PHONE,,North,North York - York U,,,
7679,York University Station (North),REGULAR,43.7741,-79.5005,0,York University Station,15,FALSE,KEY,TRANSITCARD,CREDITCARD,PHONE,North,North York - York U,,,
7680,Princes' Blvd / Nunavut Rd,REGULAR,43.63335235,-79.41436313,0,PRINCES' BLVD / NOVA SCOTIA AVE,19,FALSE,KEY,TRANSITCARD,CREDITCARD,PHONE,West,Watefront,,,
7681,25 Booth Ave,ELECTRICBIKESTATION,43.6544839,-79.341057,0,25 BOOTH AVE,24,TRUE,KEY,TRANSITCARD,CREDITCARD,PHONE,E-Charging ,East,,,
7682,Bathurst St / Front St W,REGULAR,43.64134790000001,-79.4013882,0,Bathurst St / Front St W,35,FALSE,KEY,TRANSITCARD,CREDITCARD,PHONE,South,Fort York - Entertainment District,,,
7684,Bay St / Harbour St ,REGULAR,43.64215,-79.377,0,Bay St / Harbour St (East),23,FALSE,KEY,TRANSITCARD,CREDITCARD,PHONE,South,Watefront,,,
7685,King St W / Brant St,REGULAR,43.645102,-79.3974498,0,522 King Street West,22,FALSE,KEY,TRANSITCARD,CREDITCARD,PHONE,South,Fort York - Entertainment District,,,
7686,Lower Jarvis St / The Esplanade,REGULAR,43.6478206,-79.3704721,0,The Esplanade & Lower Jarvis St,14,FALSE,KEY,TRANSITCARD,CREDITCARD,PHONE,East,Regent Park - Distillery,,,
7687,Bloor St W / Gladstone Ave - SMART,SMARTMAPFRAME,43.6602021,-79.4342726,0,"1101 Bloor Street West, Toronto",11,FALSE,KEY,TRANSITCARD,PHONE,,West,Bloor St W / Annex,,,
7688,High Park Blvd / Parkside Dr,REGULAR,43.644887,-79.4564117,0,200 Parkside Drive,15,FALSE,KEY,TRANSITCARD,CREDITCARD,PHONE,West,Bloor St W - High Park,,,
7691,Christie St / Dupont St,REGULAR,43.67168,-79.421192,0,Christie St / Dupont St,19,FALSE,KEY,TRANSITCARD,CREDITCARD,PHONE,West,Davenport - Dupont,,,
7692,85 Lee Ave,ELECTRICBIKESTATION,43.6700692,-79.2971326,0,85 Lee Ave,26,TRUE,KEY,TRANSITCARD,CREDITCARD,PHONE,E-Charging ,East,,,
7693,Mutual St / Shuter St (Arena Gardens),VAULT,43.6559476,-79.3755883,0,78 Mutual Street ,19,FALSE,KEY,TRANSITCARD,PHONE,,South,Financial District,,,
7694,Victoria Park Ave / Dawes Rd,VAULT,43.706466,-79.29511,0,Victoria Park Ave / Dawes Rd,19,FALSE,KEY,TRANSITCARD,PHONE,,East,Scarborough - St. Clair,,,
7695,Queen St E / Joseph Duggan Rd,VAULT,43.6677628,-79.3081171,0,Queen St E and Joseph Duggan Rd,19,FALSE,KEY,TRANSITCARD,PHONE,,East,Leslieville - Woodbine,,,
7696,Heyworth Cres / Kingston Rd,VAULT,43.6750806,-79.3068697,0,Heyworth Cres / Kingston Rd ,19,FALSE,KEY,TRANSITCARD,PHONE,,East,Leslieville - Woodbine,,,
7698,St Clair Ave W / Caledonia Rd,VAULT,43.6754247,-79.4547813,0,St Clair Ave W / Caledonia Rd,14,FALSE,KEY,TRANSITCARD,PHONE,,West,St Clair Ave W,,,
7699,St Clair Ave W / Oakwood Ave,VAULT,43.678177,-79.435364,0,St Clair Ave W / Oakwood Ave,15,FALSE,KEY,TRANSITCARD,PHONE,,North,St Clair Ave W,,,
7700,St Clair Ave W / Robina Ave,VAULT,43.68005,-79.43469,0,St Clair Ave W / Robina Ave,15,FALSE,KEY,TRANSITCARD,PHONE,,North,St Clair Ave W,,,
7701,Roncesvalles Ave / Fermanagh Ave,VAULT,43.646314469245205,-79.44879407,0,Roncesvalles Ave / Fermanagh Ave,19,FALSE,KEY,TRANSITCARD,PHONE,,West,College St - Harbord St,,,
7702,111 Broadview Ave,ELECTRICBIKESTATION,43.6593483,-79.3499366,0,111 Broadview Ave,18,TRUE,KEY,TRANSITCARD,CREDITCARD,PHONE,E-Charging ,East,,,
7703,Oak St / Sackville St,REGULAR,43.6613642,-79.3641171,10,274 Oak St,19,FALSE,KEY,TRANSITCARD,CREDITCARD,PHONE,East,Regent Park - Distillery,,,
7704,24 Mountjoy Ave,VAULT,43.6808774,-79.3304491,0,24 Mountjoy Ave,19,FALSE,KEY,TRANSITCARD,PHONE,,East,Danforth,,,
7705,Colgate Ave / Carlaw Ave,VAULT,43.6623658,-79.3413344,0,88 Colgate Ave,19,FALSE,KEY,TRANSITCARD,PHONE,,East,Leslieville - Woodbine,,,
7706,Felstead Ave/Gillard Ave (Monarch Park),VAULT,43.6791345,-79.3263159,0,Felstead Ave / Gillard Ave (Monarch Park),27,FALSE,KEY,TRANSITCARD,PHONE,,East,Danforth,,,
7707,Coronation Park (Martin Goodman Trail),REGULAR,43.635007,-79.403341,0,7972 Remembrance Drive,19,FALSE,KEY,TRANSITCARD,CREDITCARD,PHONE,South,Watefront,,,
7708,101 Cedarvale Ave,ELECTRICBIKESTATION,43.6868681,-79.3110942,0,101 cedarvale Ave,27,TRUE,KEY,TRANSITCARD,CREDITCARD,PHONE,E-Charging ,East,,,
7709,Beltline Trail / Yonge St,REGULAR,43.6962302,-79.3950434,0,5 Merton Street,23,FALSE,KEY,TRANSITCARD,CREDITCARD,PHONE,North,Mid Town,,,
7710,11 Spadina Rd,ELECTRICBIKESTATION,43.6677246,-79.4041365,0,11 SPADINA RD,18,TRUE,KEY,TRANSITCARD,CREDITCARD,PHONE,E-Charging ,North,,,
7711,Havelock St / Dewson St,REGULAR,43.6554793,-79.4302462,0,71 Havelock Street,15,FALSE,KEY,TRANSITCARD,CREDITCARD,PHONE,West,College St - Harbord St,,,
7712,Queen St W / Shaw St,REGULAR,43.6442457,-79.4161044,0,999 Queen Street West,22,FALSE,KEY,TRANSITCARD,CREDITCARD,PHONE,West,Liberty Village - Queen West,,,
7713,Temperance St / Bay St,VAULT,43.6506,-79.381285,0,55 Temperance St,23,FALSE,KEY,TRANSITCARD,PHONE,,South,Financial District,,,
7715,Lumsden Ave / Cedarvale Ave,REGULAR,43.693187,-79.314283,0,324 Cedarvale Avenue,9,FALSE,KEY,TRANSITCARD,CREDITCARD,PHONE,East,Danforth,,,
7716,Church St / The Esplanade,REGULAR,43.6469251,-79.3733192,0,75 The Esplanade,18,FALSE,KEY,TRANSITCARD,CREDITCARD,PHONE,East,Financial District,,,
7717,Niagara St / Portland St,REGULAR,43.6425791,-79.4001173,0,18 Portland Street,11,FALSE,KEY,TRANSITCARD,CREDITCARD,PHONE,West,Fort York - Entertainment District,,,
7718,St. Andrew's Playground Park,REGULAR,43.646552,-79.399586,0,8 Maud Street,11,FALSE,KEY,TRANSITCARD,CREDITCARD,PHONE,South,Fort York - Entertainment District,,,
7719,Wolseley St / Augusta Ave,REGULAR,43.6484201,-79.4005192,0,15 Denison Ave,28,FALSE,KEY,TRANSITCARD,CREDITCARD,PHONE,South,Fort York - Entertainment District,,,
7720,King St W / Portland St - SMART,SMARTMAPFRAME,43.644395,-79.4006543,0,620 King Street West,32,FALSE,KEY,TRANSITCARD,PHONE,,South,Fort York - Entertainment District,,,
7721,Widmer St / King St W,REGULAR,43.6463574,-79.391206,0,360 King Street West,11,FALSE,KEY,TRANSITCARD,CREDITCARD,PHONE,South,Fort York - Entertainment District,,,
7724,Wellesley St E / Parliament St,REGULAR,43.6682342,-79.3702641,0,280 Wellesley Street East,15,FALSE,KEY,TRANSITCARD,CREDITCARD,PHONE,East,Church Wellesley / Yorkville,,,
7728,Randolph Ave / Perth Ave,REGULAR,43.6585504,-79.4497659,0,152 Perth Avenue,19,FALSE,KEY,TRANSITCARD,CREDITCARD,PHONE,West,Bloor St W / Annex,,,
7729,265 Armadale Ave,ELECTRICBIKESTATION,43.6501644,-79.4829691,0,265 Armadale Ave,43,TRUE,KEY,TRANSITCARD,CREDITCARD,PHONE,E-Charging ,West,,,
7730,800 Fleet St (South),ELECTRICBIKESTATION,43.63670985212708,-79.40880518,0,800 Fleet Street,42,TRUE,KEY,TRANSITCARD,CREDITCARD,PHONE,E-Charging ,West,,,
7731,Victoria Park Ave / Kingston Rd,VAULT,43.68035,-79.28357,0,1085 Kingston Rd,15,FALSE,KEY,TRANSITCARD,PHONE,,East,Leslieville - Woodbine,,,
7732,Kingston Rd / Warden Ave,VAULT,43.68824135931814,-79.27046628,0,Kingston Rd / Warden Ave,15,FALSE,KEY,TRANSITCARD,PHONE,,East,Scarborough - St. Clair,,,
7733,Pharmacy Ave / Danforth Ave,VAULT,43.6929478,-79.2833998,0,Pharmacy Ave / Danforth Ave,15,FALSE,KEY,TRANSITCARD,PHONE,,East,Scarborough - St. Clair,,,
7734,Danforth Ave / Warden Ave,VAULT,43.6950192,-79.2718066,0,Danforth Ave / Warden Ave,15,FALSE,KEY,TRANSITCARD,PHONE,,East,Scarborough - St. Clair,,,
7735,Birchcliff Ave / Kingston Rd,VAULT,43.691688,-79.265027,0,Birchcliff Ave / Kingston Rd,15,FALSE,KEY,TRANSITCARD,PHONE,,East,Scarborough - St. Clair,,,
7736,Birchmount Rd / Kingston Rd,VAULT,43.69401297794256,-79.26257205,0,Birchmount Rd / Kingston Rd,15,FALSE,KEY,TRANSITCARD,PHONE,,East,Scarborough - St. Clair,,,
7737,Kingston Rd / Glen Everest Rd,VAULT,43.69749005,-79.25655146,0,5 Glen Everest Rd (Rosetta McClain Gardens),15,FALSE,KEY,TRANSITCARD,PHONE,,East,Scarborough - St. Clair,,,
7738,Highview Ave / Kennedy Rd,VAULT,43.702418581463505,-79.25631671,0,150 Highview Avenue,15,FALSE,KEY,TRANSITCARD,PHONE,,East,Scarborough - St. Clair,,,
7739,Kingston Rd / Ridgemoor Ave,VAULT,43.70643614257429,-79.25104443,0,2301 Kingston Rd,15,FALSE,KEY,TRANSITCARD,PHONE,,East,Scarborough - St. Clair,,,
7740,Sharpe St / Park St (Sandown Park),VAULT,43.7105975,-79.2541175,0,50 Natal St,15,FALSE,KEY,TRANSITCARD,PHONE,,East,Scarborough - St. Clair,,,
7741,Howard Park Ave / Parkside Dr,REGULAR,43.648657,-79.458111,0,119 Constance Street,15,FALSE,KEY,TRANSITCARD,CREDITCARD,PHONE,West,Bloor St W - High Park,,,
7742,Eglinton Ave W / Prospect Cemetery,VAULT,43.69415,-79.4578258,0,2067 EglintonAve W,19,FALSE,KEY,TRANSITCARD,PHONE,,North,Eglinton Ave W,,,
7743,Eglinton Ave W / Gilbert Ave,VAULT,43.69254716689966,-79.46332759,0,2343 Eglinton Ave W,19,FALSE,KEY,TRANSITCARD,PHONE,,North,Eglinton Ave W,,,
7744,Rogers Rd / Prospect Cemetery,VAULT,43.68323,-79.455765,0,200 Rogers Rd,23,FALSE,KEY,TRANSITCARD,PHONE,,North,Eglinton Ave W,,,
7745,Bert Robinson Park,VAULT,43.688028,-79.460265,0,BERT ROBINSON PARK,14,FALSE,KEY,TRANSITCARD,PHONE,,North,Eglinton Ave W,,,
7746,Marlee Ave / York Beltline Trail,VAULT,43.70163,-79.44099,0,120 Marlee Ave,19,FALSE,KEY,TRANSITCARD,PHONE,,North,Eglinton Ave W,,,
7747,Eglinton Ave W / Ennerdale Rd,VAULT,43.695032348609836,-79.45302971,0,1963 Eglinton Ave W,15,FALSE,KEY,TRANSITCARD,PHONE,,West,Eglinton Ave W,,,
7748,Bloor St W / Old Mill Trl,VAULT,43.65016869999999,-79.4963345,0,2682 Bloor St W,19,FALSE,KEY,TRANSITCARD,PHONE,,West,Bloor St W - High Park,,,
7749,Wendover Rd / Bloor St W (Green P),VAULT,43.6492,-79.50602,0,342 Prince Edward Dr N,15,FALSE,KEY,TRANSITCARD,PHONE,,West,Bloor St W - High Park,,,
7750,Luttrell Ave / Danforth Ave,REGULAR,43.6897656,-79.2939525,0,Luttrell Ave / Danforth Ave,15,FALSE,KEY,TRANSITCARD,CREDITCARD,PHONE,East,Danforth,,,
7751,Willingdon Blvd / Bloor St W (Green P),VAULT,43.64817,-79.510392,0,9 Willingdon Blvd,15,FALSE,KEY,TRANSITCARD,PHONE,,West,Bloor St W - High Park,,,
7752,1926 Lake Shore Blvd W,VAULT,43.6357643,-79.4674917,0,1926 Lake Shore Blvd W,23,FALSE,KEY,TRANSITCARD,PHONE,,West,Humber Bay Shores,,,
7753,36 Park Lawn Rd,VAULT,43.62369169999999,-79.4838132,0,36A Park Lawn Road,15,FALSE,KEY,TRANSITCARD,PHONE,,West,Humber Bay Shores,,,
7754,Walter Saunders Park,VAULT,43.699327072589426,-79.44936304,0,481 Locksley Avenue,15,FALSE,KEY,TRANSITCARD,PHONE,,North,Eglinton Ave W,,,
7755,Park Lawn Rd / Berry Rd,VAULT,43.63605238134247,-79.49325239,0,316 Park Lawn Road,15,FALSE,KEY,TRANSITCARD,PHONE,,West,Bloor St W - High Park,,,
7756,Tobermory Dr / Finch Corridor Trail,VAULT,43.7611741,-79.5114452,0,Tobemory Dr / Finch Hydro Recreational Trail,19,FALSE,KEY,TRANSITCARD,PHONE,,North,North York - York U,,,
7757,The Well,ELECTRICBIKESTATION,43.643025055165865,-79.39430138,0,The Well,19,TRUE,KEY,TRANSITCARD,CREDITCARD,PHONE,E-Charging ,South,,,
7758,Driftwood Ave / Finch Corridor Trail,VAULT,43.7603624,-79.5162777,0,Driftwood Ave / Finch Hydro Trail,19,FALSE,KEY,TRANSITCARD,PHONE,,North,North York - York U,,,
7759,The Pond Rd / Shoreham Dr,VAULT,43.772445,-79.511912,0,1804 Ian Macdonald Boulevard,14,FALSE,KEY,TRANSITCARD,PHONE,,North,North York - York U,,,
7760,Grand Avenue Park,VAULT,43.623708,-79.490054,,45 Grand Avenue,23,FALSE,KEY,TRANSITCARD,PHONE,,West,Humber Bay Shores,,,
7761,Moss Park,REGULAR,43.655972,-79.370638,0,152 Shuter Street,15,FALSE,KEY,TRANSITCARD,CREDITCARD,PHONE,East,Regent Park - Distillery,,,
7762,College St / Henry St ,REGULAR,43.6591529,-79.3947953,0,184 College St,13,FALSE,KEY,TRANSITCARD,CREDITCARD,PHONE,North,U of T - Hospital Row,,,
7765,St. John's Rd / Dundas St W,REGULAR,43.66526761605873,-79.47502123,0,St. John's Rd / Dundas St W,15,FALSE,KEY,TRANSITCARD,CREDITCARD,PHONE,West,Bloor St W - High Park,,,
7766,Albany Ave / Bloor St W,REGULAR,43.66554144421798,-79.41010318,0,496 Bloor St W,14,FALSE,KEY,TRANSITCARD,CREDITCARD,PHONE,North,Annex Efit drop off,,,
7767,Pioneer Village Subway Station,REGULAR,43.77649016265579,-79.50853649,0,Pioneer Village Subway Station,11,FALSE,KEY,TRANSITCARD,CREDITCARD,PHONE,North,North York - York U,,,
7768,Armoury St / Chestnut St,REGULAR,43.65351799690878,-79.38591064,0,361 University Ave,14,FALSE,KEY,TRANSITCARD,CREDITCARD,PHONE,South,Financial District,,,
7769,Lake Shore Blvd W / Brow Dr,REGULAR,43.591410003452495,-79.5441819,0,Lake Shore Blvd W / Brow Dr,15,FALSE,KEY,TRANSITCARD,CREDITCARD,PHONE,West,Humber Bay Shores,,,
7770,Spadina Ave / Sullivan St,REGULAR,43.65082785552666,-79.396981,0,215 Spadina Ave,23,FALSE,KEY,TRANSITCARD,CREDITCARD,PHONE,South,Fort York - Entertainment District,,,
7771,St. Clair Ave W / Osler St,VAULT,43.67392698,-79.46068479,0,St. Clair Ave W / Osler St,11,FALSE,KEY,TRANSITCARD,PHONE,,West,St Clair Ave W,,,
7772,Simcoe St / King St W,REGULAR,43.647508351306186,-79.38604437,0,Simcoe St / King St W,15,FALSE,KEY,TRANSITCARD,CREDITCARD,PHONE,South,Financial District,,,
7773,Grenoble Dr / Gateway Blvd,VAULT,43.71513211098082,-79.33413623,0,5 Grenoble Dr,14,FALSE,KEY,TRANSITCARD,PHONE,,East,Thorncliffe Park - Sunnybrook,,,
7774,Grenoble Dr / Deauville Ln,VAULT,43.71649675774656,-79.3308944,0,48 Grenoble Dr,15,FALSE,KEY,TRANSITCARD,PHONE,,East,Thorncliffe Park - Sunnybrook,,,
7775,Grenoble Dr / Vendome Pl,VAULT,43.715537998967406,-79.32811428,0,75 Grenoble Dr,11,FALSE,KEY,TRANSITCARD,PHONE,,East,Thorncliffe Park - Sunnybrook,,,
7776,Ferrand Dr / Rochefort Dr,VAULT,43.719632535237835,-79.33199951,0,250 Ferrand Dr,19,FALSE,KEY,TRANSITCARD,PHONE,,East,Thorncliffe Park - Sunnybrook,,,
7777,Thorncliffe Park Dr / Leaside Park Trail,VAULT,43.70400405297843,-79.34807015,0,12 Thorncliffe Park Dr,15,FALSE,KEY,TRANSITCARD,PHONE,,East,Thorncliffe Park - Sunnybrook,,,
7778,75 Thorncliffe Park Dr,VAULT,43.70518328279426,-79.3422473,0,75 Thorncliffe Park Dr,11,FALSE,KEY,TRANSITCARD,PHONE,,North,Thorncliffe Park - Sunnybrook,,,
7779,165 McRae Dr,VAULT,43.70587454662511,-79.36800596,0,165 McRae Dr,15,FALSE,KEY,TRANSITCARD,PHONE,,North,Thorncliffe Park - Sunnybrook,,,
7780,Mount Pleasant Rd / Davisville Ave - SMART,SMARTMAPFRAME,43.70088225686968,-79.38736017,0,220 Davisville Ave (June Rowlands Park),16,FALSE,KEY,TRANSITCARD,PHONE,,North,Mid Town,,,
7781,St Clair Ave W / Avenue Rd ,VAULT,43.68688938028234,-79.40099513,0,525 Avenue Rd (Amsterdam Square),15,FALSE,KEY,TRANSITCARD,PHONE,,North,Mid Town,,,
7782,Downsview Park Subway Station - SMART,SMARTMAPFRAME,43.753107,-79.479626,0,25 Vitti St,20,FALSE,KEY,TRANSITCARD,PHONE,,North,North York - York U,,,
7783,60 Carl Hall Rd - SMART,SMARTMAPFRAME,43.74796393423666,-79.47521217,0,60 Carl Hall Rd,20,FALSE,KEY,TRANSITCARD,PHONE,,North,North York - York U,,,
7784,Downsview Park Blvd / Keele St  - SMART,SMARTMAPFRAME,43.73673829262113,-79.48227196,0,60 George Butchart Dr,19,FALSE,KEY,TRANSITCARD,PHONE,,North,North York - York U,,,
7785,Keele St / Dovehouse Ave - SMART,SMARTMAPFRAME,43.7494501,-79.4869662,0,2 John Drury Dr,16,FALSE,KEY,TRANSITCARD,PHONE,,North,North York - York U,,,
7787,HTO Park West,REGULAR,43.63737145931921,-79.38976959,0,375 Queens Quay West,31,FALSE,KEY,TRANSITCARD,CREDITCARD,PHONE,South,Watefront,,,
7788,Queens Quay E / Lower Jarvis St ,REGULAR,43.64392767366328,-79.36873017,0,Queens Quay E / Lower Jarvis St ,23,FALSE,KEY,TRANSITCARD,CREDITCARD,PHONE,East,Watefront,,,
7789,75 Holly St,ELECTRICBIKESTATION,43.7063279,-79.3962499,0,75 Holly St - Green P,23,TRUE,KEY,TRANSITCARD,CREDITCARD,PHONE,E-Charging ,North,,,
7790,Lynn Williams St / Pirandello St ,REGULAR,43.639124514797004,-79.41423167,0,Lynn William St / Pirandello St ,17,FALSE,KEY,TRANSITCARD,CREDITCARD,PHONE,West,Liberty Village - Queen West,,,
7791,Ossington Ave / Bruce St,REGULAR,43.64570236705167,-79.41933192,0,Ossington Ave / Bruce St,15,FALSE,KEY,TRANSITCARD,CREDITCARD,PHONE,West,Liberty Village - Queen West,,,
7792,Gladstone Ave / Queen St W,VAULT,43.64314139337404,-79.42728016,0,8 Gladstone Ave,15,FALSE,KEY,TRANSITCARD,PHONE,,West,,,,
7794,York St / Harbour St (Love Park),REGULAR,43.64101663053319,-79.38035904,0,York St / Harbour St (Love Park),15,FALSE,KEY,TRANSITCARD,CREDITCARD,PHONE,South,Watefront,,,
7796,Dundas St E / River St,VAULT,43.661152,-79.358505,0,Dundas St E / River St,19,FALSE,KEY,TRANSITCARD,PHONE,,East,Regent Park - Distillery,,,
7798,Shuter St/River St,VAULT,43.659296,-79.358035,0,Shuter St / River St,15,FALSE,KEY,TRANSITCARD,PHONE,,East,Regent Park - Distillery,,,
7799,Danforth Ave / Danforth Rd,VAULT,43.69362206784152,-79.2771053,0,Danforth Ave / Danforth Rd,15,FALSE,KEY,TRANSITCARD,PHONE,,East,Scarborough - St. Clair,,,
7800,Brimley Rd / McCowan District Park,VAULT,43.72704086366749,-79.24391402,0,Brimley Rd / McCowan District Park,19,FALSE,KEY,TRANSITCARD,PHONE,,East,Scarborough - Rouge Hill,,,
7801,Parkcrest Dr / Kingston Rd,VAULT,43.73596719224253,-79.21995221,0,39-45 Parkcrest Dr,15,FALSE,KEY,TRANSITCARD,PHONE,,East,Scarborough - Rouge Hill,,,
7802,King St W / Jameson Ave - SMART,SMARTMAPFRAME,43.63735795888104,-79.43617976,0,1430 King St W,12,FALSE,KEY,TRANSITCARD,PHONE,,West,Liberty Village - Queen West,,,
7803,Scarborough Soccer Centre,VAULT,43.7154661,-79.2876595,0,"45 Fairfax Crescent, Toronto, ON, M1L 1Z6",19,FALSE,KEY,TRANSITCARD,PHONE,,East,Scarborough - St. Clair,,,
7804,Lansdowne Ave / Seaforth Ave ,VAULT,43.642904395956684,-79.43746059,0,75 Lansdowne Ave,13,FALSE,KEY,TRANSITCARD,PHONE,,West,,,,
7805,Pharmacy Ave / Teesdale Pl,VAULT,43.697356080874876,-79.28528711,0,125 Pharmacy Ave,19,FALSE,KEY,TRANSITCARD,PHONE,,East,Scarborough - St. Clair,,,
7806,Danforth Rd / Birchmount Rd ,VAULT,43.70688,-79.26851,0,438 Danforth Rd,15,FALSE,KEY,TRANSITCARD,PHONE,,East,Scarborough - St. Clair,,,
7807,552 Birchmount Rd,VAULT,43.71176278859601,-79.27028153,0,552 Birchmount Rs,15,FALSE,KEY,TRANSITCARD,PHONE,,East,Scarborough - St. Clair,,,
7808,Eastgate Cres / Pharmacy Ave ,VAULT,43.71104424,-79.29127314,0,Eastgate Ct / Pharmacy Ave ,14,FALSE,KEY,TRANSITCARD,PHONE,,East,Scarborough - St. Clair,,,
7809,Firvalley Ct / Warden Ave,VAULT,43.7032112,-79.2787149,0,Firvalley Ct / Warden Ave,19,FALSE,KEY,TRANSITCARD,PHONE,,East,Scarborough - St. Clair,,,
7810,Avenue Rd / Cumberland St ,VAULT,43.669821695059376,-79.39444615,0,13 Avenue Rd,15,FALSE,KEY,TRANSITCARD,PHONE,,South,Church Wellesley / Yorkville,,,
7811,Midland Ave / Kingston Rd,VAULT,43.7128578,-79.2487086,0,425 Midland Ave,19,FALSE,KEY,TRANSITCARD,PHONE,,East,Scarborough - St. Clair,,,
7812,Bellamy Rd S / Kingston Rd,VAULT,43.73232779,-79.2249662,0,10 Bellamy Rd S,19,FALSE,KEY,TRANSITCARD,PHONE,,East,Scarborough - Rouge Hill,,,
7813,Yonge St / Merton St ,VAULT,43.69627507,-79.39629396,0,1835 Yonge St. ,23,FALSE,KEY,TRANSITCARD,PHONE,,North,Mid Town,,,
7814,Fenwood Ht / Kingston Rd,VAULT,43.72690169821676,-79.22920397,0,Fenwood Ht / Kingston Rd,15,FALSE,KEY,TRANSITCARD,PHONE,,East,Scarborough - Rouge Hill,,,
7815,Avenue Rd / Macpherson Ave ,VAULT,43.67794376009951,-79.39836279,0,Avenue Rd / Macpherson Ave ,15,FALSE,KEY,TRANSITCARD,PHONE,,North,Davenport - Dupont,,,
7816,Bay St / Dundas St W,VAULT,43.655350778457056,-79.38345967,0,Bay St / Dundas St W,55,FALSE,KEY,TRANSITCARD,PHONE,,South,Financial District,,,
7817,Shaw St / King St W,VAULT,43.64125616,-79.41502994,0,Shaw St / King St W,15,FALSE,KEY,TRANSITCARD,PHONE,,West,Liberty Village - Queen West,,,
7818,Soudan Ave / Yonge St ,VAULT,43.70430959999999,-79.3972815,0,3 Soudan Ave,19,FALSE,KEY,TRANSITCARD,PHONE,,North,Mid Town,,,
7819,Avenue Rd / Oxton Ave ,VAULT,43.69711160305226,-79.40537298,0,755 Avenue Rd,15,FALSE,KEY,TRANSITCARD,PHONE,,North,Mid Town,,,
7820,1612 Danforth Ave ,ELECTRICBIKESTATION,43.68370788065334,-79.32262454,0,1612 Danforth Ave ,15,TRUE,KEY,TRANSITCARD,CREDITCARD,PHONE,E-Charging ,East,,,
7821,Lisgar St / Queen St W - SMART,SMARTMAPFRAME,43.64299174164139,-79.42355912,0,1117 Queen St W ,20,FALSE,KEY,TRANSITCARD,PHONE,,West,Liberty Village - Queen West,,,
7822,Leslie St / Commissioners St  ,VAULT,43.657275497390124,-79.32661544,0,Leslie St / Commissioners St  ,19,FALSE,KEY,TRANSITCARD,PHONE,,East,Leslieville - Woodbine,,,
7823,Greenwood Ave / Sammon Ave,VAULT,43.68698672516659,-79.33478198,0,346A Sammon Ave,11,FALSE,KEY,TRANSITCARD,PHONE,,East,Danforth,,,
7824,Warden Subway Station,VAULT,43.71161098023304,-79.28055566,0,701 Warden Ave,19,FALSE,KEY,TRANSITCARD,PHONE,,East,Scarborough - St. Clair,,,
7825,Kingston Rd / Scarborough Golf Club Rd,VAULT,43.74531103700256,-79.20970651,0,Kingston Rd / Scarborough Golf Club Rd,14,FALSE,KEY,TRANSITCARD,PHONE,,East,Scarborough - Rouge Hill,,,
7826,Greenwood Ave / Gerrard St E,VAULT,43.67036917803197,-79.32782699,0,Greenwood Ave / Gerrard St E,15,FALSE,KEY,TRANSITCARD,PHONE,,East,Leslieville - Woodbine,,,
7827,Chatham Ave / Byron Ave,VAULT,43.67986783,-79.33424614,0,163 Chatham Ave,15,FALSE,KEY,TRANSITCARD,PHONE,,East,Danforth,,,
7828,Wakunda Pl / O'Connor Dr,VAULT,43.71602024377182,-79.30470925,0,Wakunda Pl / O'Connor Dr,11,FALSE,KEY,TRANSITCARD,PHONE,,East,Scarborough - St. Clair,,,
7829,Tiago Ave / Westview Blvd,VAULT,43.71101621552703,-79.30675744,0,14 Tiago Ave,15,FALSE,KEY,TRANSITCARD,PHONE,,East,Scarborough - St. Clair,,,
7830,Plaxton Dr / St Clair Ave E,VAULT,43.70751755961952,-79.30252066,0,Plaxton Dr / St Clair Ave E,14,FALSE,KEY,TRANSITCARD,PHONE,,East,Scarborough - St. Clair,,,
7831,Victoria Park Ave / Edge Park Ave,VAULT,43.717678679534906,-79.2996158,0,Victoria Park Ave / Edge Park Ave,17,FALSE,KEY,TRANSITCARD,PHONE,,East,Scarborough - St. Clair,,,
7832,Finch Subway Station ,VAULT,43.781877158752955,-79.41528503,0,Finch Subway Station ,19,FALSE,KEY,TRANSITCARD,PHONE,,North,North York - Willowdale,,,
7833,Glencairn Subway Station,VAULT,43.70925763810859,-79.44169105,0,Glencairn TTC Subway Station (Glencairn Ave / Hilmount Ave),15,FALSE,KEY,TRANSITCARD,PHONE,,North,Eglinton Ave W,,,
7834,Glen Long Community Centre,VAULT,43.70820992643782,-79.45627809,0,35 Glen Long Ave,15,FALSE,KEY,TRANSITCARD,PHONE,,North,Eglinton Ave W,,,
7835,Caledonia Rd / Lotherton Pathway,VAULT,43.70756436685646,-79.46571475,0,215 Lotherton Pathway,19,FALSE,KEY,TRANSITCARD,PHONE,,North,Eglinton Ave W,,,
7836,Harvie Ave / Rogers Rd,VAULT,43.68402031135697,-79.45297885,0,200 Rogers Rd,19,FALSE,KEY,TRANSITCARD,PHONE,,North,Eglinton Ave W,,,
7837,Ling Rd / Morningside Ave,VAULT,43.766663817888656,-79.18521765,0,217 Morningside Rd,17,FALSE,KEY,TRANSITCARD,PHONE,,East,Scarborough - Rouge Hill,,,
7838,Lake Shore Blvd W / Legion Rd,VAULT,43.62052630763223,-79.48320224,0,2225 Lake Shore Blvd W,19,FALSE,KEY,TRANSITCARD,PHONE,,West,Humber Bay Shores,,,
7839,Lake Shore Blvd W / Seventeenth St,VAULT,43.59841926031898,-79.51561102,0,3140 Lake Shore Blvd W,11,FALSE,KEY,TRANSITCARD,PHONE,,West,Humber Bay Shores,,,
7840,Mabelle Park,VAULT,43.645389479325615,-79.52768222,0,38 Mabelle Ave,15,FALSE,KEY,TRANSITCARD,PHONE,,West,Bloor St W - High Park,,,
7841,Islington Subway Station (Aberfoyle Cres),VAULT,43.645658591546216,-79.52339939,0,1243 Islington Ave ,15,FALSE,KEY,TRANSITCARD,PHONE,,West,Bloor St W - High Park,,,
7842,Lake Shore Blvd W / Long Branch Ave,VAULT,43.59445833196281,-79.53387391,0,3560 Lake Shore Blvd W,11,FALSE,KEY,TRANSITCARD,PHONE,,West,Humber Bay Shores,,,
7843,Uno Dr / The Queensway,VAULT,43.62649329992186,-79.50358168,0,748 The Queensway,15,FALSE,KEY,TRANSITCARD,PHONE,,West,Humber Bay Shores,,,
7844,Second St / Lake Shore Blvd W,VAULT,43.60191488118503,-79.49941889,0,,15,FALSE,KEY,TRANSITCARD,PHONE,,West,Humber Bay Shores,,,
7845,Sixth St / Lake Shore Blvd W,VAULT,43.60116229109828,-79.50416047,0,131 Sixth St,15,FALSE,KEY,TRANSITCARD,PHONE,,West,Humber Bay Shores,,,
7846,Bloor St W / Dundas St W (2),VAULT,43.64285244644315,-79.53199489,0,3710 Bloor St W,15,FALSE,KEY,TRANSITCARD,PHONE,,West,Bloor St W - High Park,,,
7848,Gerrard St E / Nasmith Ave ,REGULAR,43.66273618779861,-79.36253101,0,Gerrard St E / Gifford St,23,FALSE,KEY,TRANSITCARD,CREDITCARD,PHONE,East,Regent Park - Distillery,,,
7849,Viewmount Park,VAULT,43.70735572654095,-79.43723072,0,169 Viewmount Ave,15,FALSE,KEY,TRANSITCARD,PHONE,,North,Eglinton Ave W,,,
7850,Maud St / Adelaide St W - SMART,SMARTMAPFRAME,43.64601457,-79.39960498,0,Maud St / Adelaide St W,16,FALSE,KEY,TRANSITCARD,PHONE,,South,Fort York - Entertainment District,,,
7851,Keele St / Ingram Dr,VAULT,43.698706949666914,-79.47565865,0,2221 Keele St ,15,FALSE,KEY,TRANSITCARD,PHONE,,West,Eglinton Ave W,,,
7852,York Recreation Centre,VAULT,43.688153079245126,-79.4821979,0,115 Black Creek Dr,23,FALSE,KEY,TRANSITCARD,PHONE,,West,Eglinton Ave W,,,
7853,Trethewey Dr / Black Creek Dr,VAULT,43.695498400279796,-79.48809394,0,500 Black Creek Dr,15,FALSE,KEY,TRANSITCARD,PHONE,,North,Eglinton Ave W,,,
7854,Jane St / Haney Ave,VAULT,43.67434571,-79.49484378,0,797 Jane St,19,FALSE,KEY,TRANSITCARD,PHONE,,West,Eglinton Ave W,,,
7855,Scarlett Rd / Eileen Ave,VAULT,43.668510906505354,-79.50076484,0,75 Scarlett Rd ,15,FALSE,KEY,TRANSITCARD,PHONE,,West,,,,
7856,Scarlett Rd / Old Scarlett Rd ,VAULT,43.678276306636576,-79.50667332,0,287 Scarlett Rd,15,FALSE,KEY,TRANSITCARD,PHONE,,West,Eglinton Ave W,,,
7857,Eglinton Ave W / Venn Cres,VAULT,43.69143920681119,-79.46908635,0,2485 Eglinton Ave W,19,FALSE,KEY,TRANSITCARD,PHONE,,West,Eglinton Ave W,,,
7858,Rogers Rd / Bicknell Ave,VAULT,43.68189526215492,-79.47363824,0,605 Rogers Rd,23,FALSE,KEY,TRANSITCARD,PHONE,,West,Eglinton Ave W,,,
7859,Mallaby Park ,VAULT,43.706191092397106,-79.53262796,0,2394 Weston Rd,15,FALSE,KEY,TRANSITCARD,PHONE,,West,Eglinton Ave W,,,
7860,Cruickshank Park,VAULT,43.70238607,-79.52594758,0,2196 Weston Rd,15,FALSE,KEY,TRANSITCARD,PHONE,,West,Eglinton Ave W,,,
7861,Emmett Ave,VAULT,43.68735514096443,-79.50623314,0,100 Emmett Ave,19,FALSE,KEY,TRANSITCARD,PHONE,,West,Eglinton Ave W,,,
7862,Jane St / Weston Rd,VAULT,43.69144464414302,-79.50154584,0,1390 Weston Rd,14,FALSE,KEY,TRANSITCARD,PHONE,,West,Eglinton Ave W,,,
7863,Jane St / Queens Dr,VAULT,43.70673804962302,-79.50477544,0,Jane St / John St,15,FALSE,KEY,TRANSITCARD,PHONE,,West,Eglinton Ave W,,,
7864,Sussex Ave / St George St,REGULAR,43.665304278965365,-79.39938264,0,140 St George St,15,FALSE,KEY,TRANSITCARD,CREDITCARD,PHONE,South,U of T - Hospital Row,,,
7865,2700 Eglinton Ave W,ELECTRICBIKESTATION,43.69074600637147,-79.47820143,0,2700 Eglinton Ave W,43,TRUE,KEY,TRANSITCARD,CREDITCARD,PHONE,E-Charging ,West,,,
7866,697 Lansdowne Ave ,ELECTRICBIKESTATION,43.659221843735615,-79.4427741,0,697 Lansdowne Ave ,23,TRUE,KEY,TRANSITCARD,CREDITCARD,PHONE,E-Charging ,West,,,
7867,15 Price St ,ELECTRICBIKESTATION,43.67994778,-79.38994814,0,15 Price St ,15,TRUE,KEY,TRANSITCARD,CREDITCARD,PHONE,E-Charging ,North,,,
7868,Sheppard Ave W / Chesswood Dr,VAULT,43.755583971122874,-79.47446033,0,3710  Chesswood Dr,19,FALSE,KEY,TRANSITCARD,PHONE,,North,North York - York U,,,
7869,Sentinel Rd / Sheppard Ave W,VAULT,43.74386580997666,-79.49181654,0,1 Inlet Mews,15,FALSE,KEY,TRANSITCARD,PHONE,,North,North York - York U,,,
7870,Humber River Hospital ,VAULT,43.72537884183677,-79.48719674,0,Humber River Hospital ,15,FALSE,KEY,TRANSITCARD,PHONE,,North,North York - York U,,,
7871,Jane St / Lawrence Ave W,VAULT,43.702340220597975,-79.5034739,0,Jane St / Lawrence Ave W,14,FALSE,KEY,TRANSITCARD,PHONE,,West,Eglinton Ave W,,,
7872,Keele St / Catford Rd,VAULT,43.75919330632997,-79.49001047,0,Keele St / Catford Rd,15,FALSE,KEY,TRANSITCARD,PHONE,,North,North York - York U,,,
7873,Sentinel Rd / Finch Ave W,VAULT,43.76073963892478,-79.50002731,0,390 Sentinel Rd,14,FALSE,KEY,TRANSITCARD,PHONE,,North,North York - York U,,,
7874,The Pond Rd / Ian Macdonald Blvd,VAULT,43.77086729028769,-79.49812991,0,85 The Pond Rd ,15,FALSE,KEY,TRANSITCARD,PHONE,,North,North York - York U,,,
7875,Oakdale Community Centre,VAULT,43.74751496038769,-79.51325699,0,350 Grandravine Dr,14,FALSE,KEY,TRANSITCARD,PHONE,,North,North York - York U,,,
7876,Jane St / Yewtree Blvd,VAULT,43.75531728502427,-79.51704708,0,3925 Jane St,15,FALSE,KEY,TRANSITCARD,PHONE,,North,North York - York U,,,
7877,Jane St / Yorkwoods Gt,VAULT,43.7503017,-79.51577557,0,2801 Jane St,15,FALSE,KEY,TRANSITCARD,PHONE,,North,North York - York U,,,
7878,Weston Rd / Sheppard Ave W,VAULT,43.73262849415089,-79.53819932,0,3100 Weston Rd,15,FALSE,KEY,TRANSITCARD,PHONE,,North,North York - York U,,,
7879,Weston Rd / Lanyard Rd,VAULT,43.748713,-79.541808,0,3390 Weston Rd ,12,FALSE,KEY,TRANSITCARD,PHONE,,North,North York - York U,,,
7880,Lindylou Rd / Lanyard Rd,VAULT,43.74845421407306,-79.550404,0,137 Lindylou Rd ,15,FALSE,KEY,TRANSITCARD,PHONE,,North,North York - York U,,,
7881,Queens Quay E / Merchants' Wharf,VAULT,43.64643026333144,-79.36181632,0,265 Queens Quay E,27,FALSE,KEY,TRANSITCARD,PHONE,,East,Watefront,,,
7882,Tangiers Rd / Finch Ave W,VAULT,43.76376964130183,-79.48809243,0,1275 Finch Ave W,15,FALSE,KEY,TRANSITCARD,PHONE,,North,North York - York U,,,
7883,Wynford Heights Cres / Concorde Pl,VAULT,43.72749778259739,-79.32714222,0,48 Wynford Heights Cres,11,FALSE,KEY,TRANSITCARD,PHONE,,East,Thorncliffe Park - Sunnybrook,,,
7884,Bartley Park ,VAULT,43.72211166436462,-79.30864831,0,112 Bartley Dr,15,FALSE,KEY,TRANSITCARD,PHONE,,East,Scarborough - St. Clair,,,
7885,Brooklawn Ave / Kingston Rd,VAULT,43.721761400691236,-79.23591372,0,2853 Kingston Rd,11,FALSE,KEY,TRANSITCARD,PHONE,,East,Scarborough - Rouge Hill,,,
7886,Jane St / Finch Ave W,VAULT,43.759292283169536,-79.51837415,0,1 York Gate Blvd,15,FALSE,KEY,TRANSITCARD,PHONE,,North,North York - York U,,,
7887,800 Fleet St (North),ELECTRICBIKESTATION,43.63682856154585,-79.4088416,0,800 Fleet St (@CP 271 - Ward 10) ,43,TRUE,KEY,TRANSITCARD,CREDITCARD,PHONE,E-Charging ,West,,,
7888,The Kingsway / Ashley Rd,VAULT,43.66279594478841,-79.51959828,0,289 The kingsway,15,FALSE,KEY,TRANSITCARD,PHONE,,West,Bloor St W - High Park,,,
7889,Dundas St W / Prince Edward Dr N,VAULT,43.660324268765464,-79.5115435,0,4208 Dundas St W,19,FALSE,KEY,TRANSITCARD,PHONE,,West,Bloor St W - High Park,,,
7890,60 Broadway Ave,VAULT,43.71024429599603,-79.39578745,0,60 Broadway Ave,23,FALSE,KEY,TRANSITCARD,PHONE,,North,Mid Town,,,
7891,Opposite 1103 Leslie St,VAULT,43.72093164598881,-79.34989416,0,Opposite 1103 Leslie St,19,FALSE,KEY,TRANSITCARD,PHONE,,North,Thorncliffe Park - Sunnybrook,,,
7893,Overlea Blvd / Thorncliffe Park Dr,VAULT,43.707555968595464,-79.34272024,0,65 Overlea Blvd,19,FALSE,KEY,TRANSITCARD,PHONE,,North,Thorncliffe Park - Sunnybrook,,,
7894,Millwood Rd / Southvale Dr,REGULAR,43.70241717215276,-79.36175933,0,955 Millwood Rd,15,FALSE,KEY,TRANSITCARD,CREDITCARD,PHONE,North,Thorncliffe Park - Sunnybrook,,,
7895,Keele St / Lloyd Ave,VAULT,43.67115532642577,-79.46701598,0,590 Keele St,15,FALSE,KEY,TRANSITCARD,PHONE,,West,St Clair Ave W,,,
7896,Arlington Parkette,VAULT,43.69105005197055,-79.43281746,0,460 Arlington Ave,15,FALSE,KEY,TRANSITCARD,PHONE,,West,Eglinton Ave W,,,
7897,50 Overlea Blvd,VAULT,43.707225,-79.345324,0,50 Overlea Blvd,15,FALSE,KEY,TRANSITCARD,PHONE,,East,Thorncliffe Park - Sunnybrook,,,
7898,University Ave / Gerrard St W - SMART(South),SMARTMAPFRAME,43.65748153286412,-79.38921396,0,545 University Ave ,16,FALSE,KEY,TRANSITCARD,PHONE,,South,U of T - Hospital Row,,,
7899,Queens Park Cres / College St ,REGULAR,43.66018127636866,-79.39083272,0,144 College St ,23,FALSE,KEY,TRANSITCARD,CREDITCARD,PHONE,South,U of T - Hospital Row,,,
7900,Simcoe St / Elm St,REGULAR,43.656038841714505,-79.38970388,0,Simcoe St / Elm St,11,FALSE,KEY,TRANSITCARD,CREDITCARD,PHONE,South,U of T - Hospital Row,,,
7901,Bloor St W / Kingsmill Rd,VAULT,43.64927890131737,-79.50312996,0,2836 Bloor St W,11,FALSE,KEY,TRANSITCARD,PHONE,,West,Bloor St W - High Park,,,
7902,Gunns Rd / Lavender Creek Trail,VAULT,43.675531973168354,-79.4719974,0,Gunns Rd / Lavender Creek Trail,15,FALSE,KEY,TRANSITCARD,PHONE,,West,Eglinton Ave W,,,
7903,St Clair Ave W / Symes Rd,VAULT,43.670042134416704,-79.47894248,0,2236 St Clair Ave W,15,FALSE,KEY,TRANSITCARD,PHONE,,West,St Clair Ave W,,,
7904,Palmerston Blvd / Lennox St,VAULT,43.66335070995886,-79.41312798,0,523 Palmerston Blvd,11,FALSE,KEY,TRANSITCARD,PHONE,,West,Bloor St W / Annex,,,
7906,Princess St / Front St E,REGULAR,43.650297574961044,-79.3664846,0,201/207 Princess St,14,FALSE,KEY,TRANSITCARD,CREDITCARD,PHONE,East,Regent Park - Distillery,,,
7907,365 Lippincott St,ELECTRICBIKESTATION,43.6649482,-79.40947,0,365 lippincott St,41,TRUE,KEY,TRANSITCARD,CREDITCARD,PHONE,E-Charging ,North,,,
7909,E.T Seton Park - South ,VAULT,43.70503461857136,-79.33547292,0,E.T Seton Park - South ,22,FALSE,KEY,TRANSITCARD,PHONE,,East,Thorncliffe Park - Sunnybrook,,,
7910,Eglinton Ave E / Brentcliffe Rd,VAULT,43.714305793017544,-79.36089045,0,939 Eglinton Ave E,15,FALSE,KEY,TRANSITCARD,PHONE,,North,Thorncliffe Park - Sunnybrook,,,
7911,King St W / York St (2),VAULT,43.64796882,-79.38316961,0,59 King St W,19,FALSE,KEY,TRANSITCARD,PHONE,,South,Financial District,,,
7912,Joe Shuster Way / King St W ,VAULT,43.64039672322004,-79.42374241,0,30 Joe Shuster Way,19,FALSE,KEY,TRANSITCARD,PHONE,,West,Liberty Village - Queen West,,,
7913,St. George St / Willcocks St,VAULT,43.662452744495575,-79.39783842,0,St George St / Willcocks St,35,FALSE,KEY,TRANSITCARD,PHONE,,South,U of T - Hospital Row,,,
7914,York St / Wellington St W (2),VAULT,43.64704306,-79.38314121,0,100 Wellington St W ,27,FALSE,KEY,TRANSITCARD,PHONE,,South,Financial District,,,
7915,Rogers Rd / Watt Ave,VAULT,43.68233679999999,-79.4680594,0,500 Rogers Rd,14,FALSE,KEY,TRANSITCARD,PHONE,,West,Eglinton Ave W,,,
7916,University Ave / Pearl St ,VAULT,43.64836809385241,-79.38535102,0,University Ave / Pearl St ,19,FALSE,KEY,TRANSITCARD,PHONE,,South,Financial District,,,
7917,King St W / University Ave,VAULT,43.64781808540915,-79.38427999,0,150 King St W,19,FALSE,KEY,TRANSITCARD,PHONE,,South,Financial District,,,
7918,Albion Rd/ Arcot Blvd,VAULT,43.727621709316395,-79.55254903,0,Albion Rd/ Arcot Blvd (Summerlea Park),15,FALSE,KEY,TRANSITCARD,PHONE,,North,North York - York U,,,
7919,Armel Ct / Albion Rd,VAULT,43.721532966873205,-79.54558348,0,Armel Ct / Albion Rd,18,FALSE,KEY,TRANSITCARD,PHONE,,North,North York - York U,,,
7920,75 Tandridge Cres,VAULT,43.729578273586064,-79.54699794,0,75 Tandridge Cres,15,FALSE,KEY,TRANSITCARD,PHONE,,North,North York - York U,,,
7921,Islington Ave / Finch Ave W,VAULT,43.74445257991756,-79.56824986,0,2765 Islington Ave ,15,FALSE,KEY,TRANSITCARD,PHONE,,North,North York - York U,,,
7922,35 Erindale Ave,ELECTRICBIKESTATION,43.67729,-79.35741,0,35 Erindale Ave,23,TRUE,KEY,TRANSITCARD,CREDITCARD,PHONE,E-Charging ,East,,,
7923,Trethewey Dr / Jane St,VAULT,43.697417070558615,-79.50079831,0,725 Trethewey Dr ,19,FALSE,KEY,TRANSITCARD,PHONE,,West,Eglinton Ave W,,,
7924,Duncan St / Adelaide St W - SMART,SMARTMAPFRAME,43.64813057569729,-79.38858106,0,19 Duncan St ,12,FALSE,KEY,TRANSITCARD,PHONE,,South,Fort York - Entertainment District,,,
7925,Niagara St / King St W - SMART,SMARTMAPFRAME,43.64281323408372,-79.40751416,0,801 King St W ,23,FALSE,KEY,TRANSITCARD,PHONE,,West,Fort York - Entertainment District,,,
7926,McRae Dr / Laird Dr - SMART,SMARTMAPFRAME,43.70979296822595,-79.36389214,0,McRae Dr / Laird Dr,24,FALSE,KEY,TRANSITCARD,PHONE,,North,Thorncliffe Park - Sunnybrook,,,
7927,Strachan Ave / East Liberty St - SMART,SMARTMAPFRAME,43.63906470236988,-79.41080996,0,Strachan Ave / East Liberty St,24,FALSE,KEY,TRANSITCARD,PHONE,,West,Liberty Village - Queen West,,,
7928,Simcoe St / Pullan Pl,REGULAR,43.65105290412541,-79.38764943,0,Simcoe St / Pullan Pl,31,FALSE,KEY,TRANSITCARD,CREDITCARD,PHONE,South,Financial District,,,
7929,Spadina Ave / Bulwer St- SMART ,SMARTMAPFRAME,43.649354475273796,-79.39675713,0,Spadina Ave / Bulwer St- SMART ,12,FALSE,KEY,TRANSITCARD,PHONE,,South,Fort York - Entertainment District,,,
7930,Dunn Ave / Queen St W,REGULAR,43.639522754211804,-79.43395977,0,240 Dunn Ave,7,FALSE,KEY,TRANSITCARD,CREDITCARD,PHONE,West,Liberty Village - Queen West,,,
7931,Symes Rd / Glen Scarlett Rd - SMART,SMARTMAPFRAME,43.673391524931525,-79.47798368,0,Symes Rd / Glen Scarlett Rd,16,FALSE,KEY,TRANSITCARD,PHONE,,West,Eglinton Ave W,,,
7932,Boston Ave / Queen St E- SMART,SMARTMAPFRAME,43.661601650964336,-79.33894583,0,Boston Ave / Queen St E- SMART,12,FALSE,KEY,TRANSITCARD,PHONE,,East,Leslieville - Woodbine,,,
7933,Elizabeth St / Elm St,REGULAR,43.65709082,-79.38593669,0,Elizabeth St/ Elm St,23,FALSE,KEY,TRANSITCARD,CREDITCARD,PHONE,South,U of T - Hospital Row,,,
7934,19 Glendora Ave,ELECTRICBIKESTATION,43.75921143833388,-79.40960365,0,19 Glendora Ave,11,TRUE,KEY,TRANSITCARD,CREDITCARD,PHONE,E-Charging ,North,,,
7935,Ramsden Park,REGULAR,43.676184561302776,-79.38962496,0,Ramsden Park,15,FALSE,KEY,TRANSITCARD,CREDITCARD,PHONE,North,Davenport - Dupont,,,
7936,Adelaide St W / Bay St (South),VAULT,43.65011637593798,-79.37953069,0,Adelaide St W / Bay St ( South ),15,FALSE,KEY,TRANSITCARD,PHONE,,South,Financial District,,,
7937,Adelaide St W / Yonge St,VAULT,43.65038002325664,-79.37872771,0,Adelaide St W / Yonge St,19,FALSE,KEY,TRANSITCARD,PHONE,,South,Financial District,,,
7938,Portland St / Wellington St W,VAULT,43.64290167152932,-79.39937033,0,Portland St / Wellington St W,15,FALSE,KEY,TRANSITCARD,PHONE,,South,Fort York - Entertainment District,,,
7939,Princes' Gates,REGULAR,43.63467323676012,-79.40897322,0,Princes' Gates,17,FALSE,KEY,TRANSITCARD,CREDITCARD,PHONE,South,Watefront,,,
7940,Lillian St / Soudan Ave - SMART,SMARTMAPFRAME,43.70607287248461,-79.39356162,0,44 Lillian St ,32,FALSE,KEY,TRANSITCARD,PHONE,,North,Mid Town,,,
7941,Hanna Ave / Snooker St,VAULT,43.639547,-79.420022,0,40 Hanna Ave,15,FALSE,KEY,TRANSITCARD,PHONE,,West,Liberty Village - Queen West,,,
7942,Hillsdale Ave E / Mount Pleasant Rd,VAULT,43.70512126615395,-79.38902711,0,Hillsdale Ave E / Mount Pleasant Rd,15,FALSE,KEY,TRANSITCARD,PHONE,,North,Mid Town,,,
7943,OCAD University,VAULT,43.65231552304792,-79.39091185,0,OCAD  University (Grange Rd / McCaul St),23,FALSE,KEY,TRANSITCARD,PHONE,,South,Fort York - Entertainment District,,,
7944,Harbord St / Grace St (Bickford Park),VAULT,43.65995363518053,-79.41787389,0,Harbord St / Grace St (Bickford Park),23,FALSE,KEY,TRANSITCARD,PHONE,,North,College St - Harbord St,,,
7945,Front St W / Spadina Ave,VAULT,43.64235480340359,-79.39519752,0,486 Front St W ,19,FALSE,KEY,TRANSITCARD,PHONE,,West,Fort York - Entertainment District,,,
7946,Richmond St W / Bathurst St,VAULT,43.64666748425228,-79.40299591,0,612 Richmond St W ,15,FALSE,KEY,TRANSITCARD,PHONE,,West,Fort York - Entertainment District,,,
7947,Niagara St / Queen St W ,VAULT,43.64572868466845,-79.4099068,0,839 Queen St W ,11,FALSE,KEY,TRANSITCARD,PHONE,,West,Liberty Village - Queen West,,,
7948,Bathurst St / Housey St,VAULT,43.63781903961206,-79.40013177,0,Bathurst St / Housey St,23,FALSE,KEY,TRANSITCARD,PHONE,,West,Fort York - Entertainment District,,,
7949,Thompson St / Carroll St,VAULT,43.65907064983235,-79.35240134,0,Thompson St / Carroll St,19,FALSE,KEY,TRANSITCARD,PHONE,,East,Leslieville - Woodbine,,,
7950,Crawford St / Lobb Ave,VAULT,43.64654941401018,-79.415589,0,Crawford St / Lobb Ave,22,FALSE,KEY,TRANSITCARD,PHONE,,West,Liberty Village - Queen West,,,
7951,Fort York Blvd / Grand Magazine St,VAULT,43.63758782904466,-79.40314232,0,Fort York Blvd / Grand Magazine St,19,FALSE,KEY,TRANSITCARD,PHONE,,West,Fort York - Entertainment District,,,
7952,Adelaide St W / York St ,VAULT,43.64919198,-79.38363237,0,Adelaide St W / York St ,19,FALSE,KEY,TRANSITCARD,PHONE,,West,Financial District,,,
7953,Church St / Shuter St,REGULAR,43.65505698168995,-79.37651025,0, Church St / Shuter St,14,FALSE,KEY,TRANSITCARD,CREDITCARD,PHONE,South,Financial District,,,
7954,Adelaide St E / Parliament St,VAULT,43.65378337432506,-79.36335973,0,113 Parliament St,23,FALSE,KEY,TRANSITCARD,PHONE,,South,Regent Park - Distillery,,,
7955,Wellesley St E / Jarvis St,VAULT,43.6662047,-79.3790122,0,Wellesley St E / Jarvis St,22,FALSE,KEY,TRANSITCARD,PHONE,,South,Church Wellesley / Yorkville,,,
7956,Benshire Dr / The Meadoway,VAULT,43.76174092019504,-79.24473961,0,Benshire Dr / The Meadoway,11,FALSE,KEY,TRANSITCARD,PHONE,,East,Scarborough - Rouge Hill,,,
7957,Brimley Rd / Lawrence Ave E ,VAULT,43.75404854399297,-79.25531676,0,925 Brimley Rd,39,FALSE,KEY,TRANSITCARD,PHONE,,East,Scarborough - Rouge Hill,,,
7958,Centennial College (Ashtonbee Campus),VAULT,43.73003601845614,-79.29200365,0,75 Ashtonbee Rd,19,FALSE,KEY,TRANSITCARD,PHONE,,North,Scarborough - St. Clair,,,
7959,Bellamy Rd N / The Meadoway,VAULT,43.76507271818177,-79.23835382,0,645 Bellamy Rd N,15,FALSE,KEY,TRANSITCARD,PHONE,,East,Scarborough - Rouge Hill,,,
7960,Markham Rd / The Meadoway ,VAULT,43.77121894873629,-79.22956527,0,960 Markham Rd,19,FALSE,KEY,TRANSITCARD,PHONE,,East,Scarborough - Rouge Hill,,,
7961,Ellesmere Rd / Markham Rd,VAULT,43.77682938751077,-79.23050036,0,2180 Ellesmere Rd,15,FALSE,KEY,TRANSITCARD,PHONE,,East,Scarborough - Rouge Hill,,,
7962,Slan Ave / Scarborough Golf Club Rd,VAULT,43.77327261711258,-79.21971485,0,Slan Ave / Scarborough Golf Club Rd,15,FALSE,KEY,TRANSITCARD,PHONE,,East,Scarborough - Rouge Hill,,,
7963,Cedar Dr / Eglinton Ave E,VAULT,43.744208202155754,-79.21564637,0,Cedar Dr / Eglinton Ave E,10,FALSE,KEY,TRANSITCARD,PHONE,,East,Scarborough - Rouge Hill,,,
7964,Kennedy Rd/Ranstone Gdns (Jack Goodlad Park),VAULT,43.74190570940633,-79.27181888,0,Kennedy Rd / Ranstone Gardens ,15,FALSE,KEY,TRANSITCARD,PHONE,,East,,,,
7965,Eglinton Ave E / Brimley Rd,VAULT,43.736952572933866,-79.24798367,0,Eglinton Ave E / Brimley Rd,19,FALSE,KEY,TRANSITCARD,PHONE,,East,Scarborough - Rouge Hill,,,
7966,Albany Ave / Dupont St,VAULT,43.67348899977229,-79.41339521,0,Albany Ave / Dupont St,15,FALSE,KEY,TRANSITCARD,PHONE,,West,Davenport - Dupont,,,
7967,Gordonridge Pl / Danforth Rd,VAULT,43.72729077290258,-79.25237907,0,Gordonridge Pl / Danforth Rd,15,FALSE,KEY,TRANSITCARD,PHONE,,East,Scarborough - Rouge Hill,,,
7968,McCowan Rd / Trudelle St,VAULT,43.74033901575211,-79.2393532,0,McCowan Rd / Trudelle St,19,FALSE,KEY,TRANSITCARD,PHONE,,East,Scarborough - Rouge Hill,,,
7969,Bayview Ave / Finch Recreational Trail,VAULT,43.789068698639504,-79.39315096,0,Bayview Ave / Finch Recreational Trail,19,FALSE,KEY,TRANSITCARD,PHONE,,North,North York - Willowdale,,,
7970,Willowdale Ave / Bishop Ave ,VAULT,43.78387252467251,-79.4078681,0,Willowdale Ave / Bishop Ave ,19,FALSE,KEY,TRANSITCARD,PHONE,,North,North York - Willowdale,,,
7971,Talbot Rd / Finch Hydro Corridor,VAULT,43.78225298110634,-79.42367063,0,Talbot Rd / Finch Hydro Corridor,15,FALSE,KEY,TRANSITCARD,PHONE,,North,North York - Willowdale,,,
7972,Eglinton Ave E / Mason Rd ,VAULT,43.742037440522616,-79.2248868,0,Eglinton Ave E / Mason Rd ,11,FALSE,KEY,TRANSITCARD,PHONE,,East,Scarborough - Rouge Hill,,,
7973,Lawrence Ave E / Don Mills Trail,VAULT,43.73458185912293,-79.35485399,0,Lawrence Ave E / Don Mills Trail,19,FALSE,KEY,TRANSITCARD,PHONE,,North,Thorncliffe Park - Sunnybrook,,,
7974,Kempford Blvd / Yonge St,VAULT,43.776857235099826,-79.41511614,0,Kempford Blvd / Yonge St,19,FALSE,KEY,TRANSITCARD,PHONE,,North,North York - Willowdale,,,
7975,Empress Ave / Yonge St,VAULT,43.769395456625546,-79.41266522,,2 Empress Ave,19,FALSE,KEY,TRANSITCARD,PHONE,,North,North York - Willowdale,,,
7976,Yonge St / Sheppard Ave E,VAULT,43.76128605777495,-79.41071644,0,Yonge St / Sheppard Ave E (south side),18,FALSE,KEY,TRANSITCARD,PHONE,,North,North York - Willowdale,,,
7977,Leslie Subway Station,VAULT,43.77037892370793,-79.36702734,0,Leslie Subway Station,15,FALSE,KEY,TRANSITCARD,PHONE,,North,North York - Willowdale,,,
7978,Yonge St / North York Blvd,VAULT,43.76726589934926,-79.4126349,0,Yonge St / North York Blvd,23,FALSE,KEY,TRANSITCARD,PHONE,,North,North York - Willowdale,,,
7979,Bond Ave / Don Mills Trail,VAULT,43.74475834253035,-79.3534807,0,Bond Ave / Don Mills Trail,19,FALSE,KEY,TRANSITCARD,PHONE,,North,Thorncliffe Park - Sunnybrook,,,
7981,Duncan Mill Rd / Valleybrook Dr,VAULT,43.76167125342455,-79.35258303,0,Duncan Mill Rd / Valleybrook Dr,15,FALSE,KEY,TRANSITCARD,PHONE,,North,Thorncliffe Park - Sunnybrook,,,
7982,Finch Ave W / Wilmington Ave,VAULT,43.77060244428048,-79.45997589,0,Finch Ave W / Wilmington Ave,19,FALSE,KEY,TRANSITCARD,PHONE,,North,North York - York U,,,
7983,York Mills Rd / Lesmill Rd,VAULT,43.75492156,-79.35174838,0,York Mills Rd / Lesmill Rd,14,FALSE,KEY,TRANSITCARD,PHONE,,North,Thorncliffe Park - Sunnybrook,,,
7984,Lake Shore Blvd W / Bathurst St,REGULAR,43.63675592256874,-79.39920539,0,Lakeshore Blvd W / Bathurst St,23,FALSE,KEY,TRANSITCARD,CREDITCARD,PHONE,West,Fort York - Entertainment District,,,
7985,Hawksbury Dr / Sheppard Ave E ,VAULT,43.76816239444779,-79.38312075,0,Hawksbury Dr / Sheppard Ave E ,15,FALSE,KEY,TRANSITCARD,PHONE,,North,North York - Willowdale,,,
7986,Sheppard Ave E / Leslie St,VAULT,43.77114830031903,-79.36381166,0,Sheppard Ave E / Leslie St,19,FALSE,KEY,TRANSITCARD,PHONE,,North,North York - Willowdale,,,
7987,Shaughnessy Blvd / Sheppard Ave E,VAULT,43.77351462694018,-79.35306224,0,Shaughnessy Blvd / Sheppard Ave E,15,FALSE,KEY,TRANSITCARD,PHONE,,North,North York - Willowdale,,,
7988,Brahms Ave / Finch Ave E,VAULT,43.79236326442992,-79.35836318,0,Brahms Ave / Finch Ave E,19,FALSE,KEY,TRANSITCARD,PHONE,,North,North York - Willowdale,,,
7989,Don Mills Rd / Fairview Mall Dr,VAULT,43.77888550790407,-79.3483717,0,Don Mills Rd / Fairview Mall Dr,15,FALSE,KEY,TRANSITCARD,PHONE,,North,North York - Willowdale,,,
7990,Don Mills Rd / Goodview Rd,VAULT,43.785346474479695,-79.35362921,,Don Mills Rd / Goodview Rd,15,FALSE,KEY,TRANSITCARD,PHONE,,North,North York - Willowdale,,,
7991,Kingston Rd / Markham Rd,VAULT,43.73878438927323,-79.21746486,,Kingston Rd / Markham Rd,15,FALSE,KEY,TRANSITCARD,PHONE,,East,Scarborough - Rouge Hill,,,
7992,Fairglen Cres / Weston Rd,VAULT,43.70876747477083,-79.53445192,0,Fairglen Cres / Weston Rd,11,FALSE,KEY,TRANSITCARD,PHONE,,North,Eglinton Ave W,,,
7993,Wells St / Brunswick Ave,VAULT,43.67105163758377,-79.40904755,0,Wells St / Brunswick Ave,15,FALSE,KEY,TRANSITCARD,PHONE,,West,Bloor St W / Annex,,,
7994,Eglinton Ave E / Victoria Park Ave,VAULT,43.72486103230542,-79.30351306,0,Eglinton Ave E / Victoria Park Ave,11,FALSE,KEY,TRANSITCARD,PHONE,,North,Scarborough - St. Clair,,,
7995,Eglinton Ave W / Oakwood Ave,VAULT,43.69705023028765,-79.4437599,0,Eglinton Ave W / Oakwood Ave,15,FALSE,KEY,TRANSITCARD,PHONE,,Mid Town,Eglinton Ave W,,,
7996,Scarborough GO Station,ELECTRICBIKESTATION,43.71704721,-79.25461031,0,Scarborough Go Station,22,TRUE,KEY,TRANSITCARD,CREDITCARD,PHONE,East,,,,
7997,3220 Bloor St W,ELECTRICBIKESTATION,43.646186757495194,-79.51762537,0,3220 Bloor St W,38,TRUE,KEY,TRANSITCARD,CREDITCARD,PHONE,E-Charging ,West,,,
7998,Eglinton West Subway Station,VAULT,43.69867103968614,-79.43680739,0,Eglinton West Subway Station,19,FALSE,KEY,TRANSITCARD,PHONE,,North,Mid Town,,,
7999,Lawrence Ave W / Marlee Ave,VAULT,43.715552692740914,-79.44615446,0,Lawrence Ave W / Marlee Ave,15,FALSE,KEY,TRANSITCARD,PHONE,,North,Mid Town,,,
8000,16 Riverview Gardens ,ELECTRICBIKESTATION,43.64883712159794,-79.48675294,0,16 Riverview Gardens ,31,TRUE,KEY,TRANSITCARD,CREDITCARD,PHONE,E-Charging ,West,,,
8001,Union Station (North),SMARTMAPFRAME,43.645808552646564,-79.38054652,0,Union Station (North),16,FALSE,KEY,TRANSITCARD,PHONE,,Union,South,,,
8002,Grantbrook St / Finch Hydro Corridor Trail,VAULT,43.780468305361154,-79.43280415,,Grantbrook St / Finch Hydro Corridor,15,FALSE,KEY,TRANSITCARD,PHONE,,North,,,,
8003,Tecumseth St / Tecumseth Pl,VAULT,43.642697996199985,-79.40499937,0,Tecumseth St / Tecumseth Pl,11,FALSE,KEY,TRANSITCARD,PHONE,,West,,,,
8008,Brookdale Ave / Yonge St,SMARTMAPFRAME,43.72991999271573,-79.4037272,0,Brookdale Ave/ Yonge St,16,FALSE,KEY,TRANSITCARD,PHONE,,North,,,,
8009,1 Shortt St,ELECTRICBIKESTATION,43.69592993313034,-79.4519014,0,1 Shortt St,38,TRUE,KEY,TRANSITCARD,CREDITCARD,PHONE,E-Charging ,North,,,
8012,Cherry St / Polson St,VAULT,43.643320932767004,-79.35120949,0,Cherry St / Polson St,23,FALSE,KEY,TRANSITCARD,PHONE,,South,,,,
8013,Logan Ave / Eastern Ave - SMART,SMARTMAPFRAME,43.657925501075496,-79.34143487,,Logan Ave / Eastern Ave - SMART,12,FALSE,KEY,TRANSITCARD,PHONE,,South,,,,
